rank;title;Previous Rank;Revenues ($M);Revenue Change(%);Profits ($M);Profit Change(%);Assets ($M);Mkt Value as of 3/29/18 ($M);Employees;CEO;CEO Title;Sector;Industry;Years on Fortune 500 List;City;State;Latitude;Longitude
1;Walmart;1;500343;3;9862;-27,7;204522;263563;2300000;C. Douglas McMillon;President, Chief Executive Officer &  Director;Retailing;General Merchandisers;24;Bentonville;AR;36.3728538;-94.2088172
2;Exxon Mobil;4;244363;17,4;19710;151,4;348691;316157;712;Darren W. Woods;Chairman &  Chief Executive Officer;Energy;Petroleum Refining;24;Irving;TX;32.8140177;-96.9488945
3;Berkshire Hathaway;2;242137;8,3;44940;86,7;702095;492008;377;Warren E. Buffett;Chairman, President &  Chief Executive Officer;Financials;Insurance: Property and Casualty (Stock);24;Omaha;NE;41.2565369;-95.9345034
4;Apple;3;229234;6,3;48351;5,8;375319;851318;123;Timothy D. Cook;Chairman &  Chief Executive Officer;Technology;Computers, Office Equipment;24;Cupertino;CA;37.3229978;-122.0321823
5;UnitedHealth Group;6;201159;8,8;10558;50,5;139058;20708;260;David S. Wichmann;Chairman &  Chief Executive Officer;Health Care;Health Care: Insurance and Managed Care;24;Minnetonka;MN;44.9211836;-93.4687489
6;McKesson;5;198533;3,1;5070;124,5;60969;29067;645;John H. Hammergren;Chairman, President &  Chief Executive Officer;Wholesalers;Wholesalers: Health Care;24;SF;CA;37.7749295;-122.4194155
7;CVS Health;7;184765;4,1;6622;24,5;95131;63114;203;Larry J. Merlo;President, Chief Executive Officer &  Director;Health Care;Health Care: Pharmacy and Other Services;24;Woonsocket;RI;42.0028761;-71.5147839
8;Amazon.com;12;177866;30,8;3033;27,9;13131;700668;566;Jeffrey P. Bezos;Chairman, President &  Chief Executive Officer;Retailing;Internet Services and Retailing;17;Seattle;WA;47.6062095;-122.3320708
9;AT&T;9;160546;-2;29450;127;444097;218946;254;Randall L. Stephenson;Chairman, President &  Chief Executive Officer;Telecommunications;Telecommunications;24;Dallas;TX;32.7766642;-96.7969879
10;General Motors;8;157311;-5,5;-3864;-141;212482;50972;180;Mary T. Barra;Chairman &  Chief Executive Officer;Motor Vehicles &  Parts;Motor Vehicles and Parts;24;Detroit;MI;42.331427;-83.0457538
11;Ford Motor;10;156776;3,3;7602;65,4;257808;44244;202;James P. Hackett;President, Chief Executive Officer &  Director;Motor Vehicles &  Parts;Motor Vehicles and Parts;24;Dearborn;MI;42.3222599;-83.1763145
12;AmerisourceBergen;11;153144;4,3;364,5;-74,5;35317;18938;195;Steven H. Collis;Chairman, President &  Chief Executive Officer;Wholesalers;Wholesalers: Health Care;24;Chesterbrook;PA;40.0756627;-75.4590816
13;Chevron;19;134533;25,1;9195;0;253806;217845;519;Michael K. Wirth;Chairman &  Chief Executive Officer;Energy;Petroleum Refining;24;San Ramon;CA;37.7799273;-121.9780153
14;Cardinal Health;15;129976;6,9;1288;-9,7;40112;19726;404;Michael C. Kaufmann;Chairman &  Chief Executive Officer;Wholesalers;Wholesalers: Health Care;24;Dublin;OH;40.0992294;-83.1140771
15;Costco;16;129025;8,7;2679;14;36347;82687;182;W. Craig Jelinek;President, Chief Executive Officer &  Director;Retailing;General Merchandisers;24;Issaquah;WA;47.5301011;-122.0326191
16;Verizon;14;126034;0;30101;129,3;257143;197497;1554;Lowell C. McAdam;Chairman &  Chief Executive Officer;Telecommunications;Telecommunications;24;New York;NY;40.7127753;-74.0059728
17;Kroger;18;122662;6,4;1907;-3,4;37197;20828;449;W. Rodney McMullen;Chairman &  Chief Executive Officer;Food &  Drug Stores;Food and Drug Stores;24;Cincinnati;OH;39.1031182;-84.5120196
18;General Electric;13;122274;-3,5;-5786;-165,5;377945;117054;313;John L. Flannery Jr.;Chairman &  Chief Executive Officer;Industrials;Industrial Machinery;24;Boston;MA;42.3600825;-71.0588801
19;Walgreens Boots Alliance;17;118214;0,7;4078;-2,3;66009;64924;290;Stefano Pessina;Vice Chairman &  Chief Executive Officer;Food &  Drug Stores;Food and Drug Stores;24;Deerfield;IL;42.1711365;-87.8445119
20;JPMorgan Chase;21;113899;8;24441;-1,2;2533600;375043;252539;James Dimon;Chairman &  Chief Executive Officer;Financials;Commercial Banks;24;New York;NY;40.7127753;-74.0059728
21;Fannie Mae;20;112394;4,9;2463;-80;3345529;1633;72;Timothy J. Mayopoulos;President, Chief Executive Officer &  Director;Financials;Diversified Financials;21;Leavenworth;WA;47.7510741;-120.7401385
22;Alphabet;27;110855;22,8;12662;-35;197295;719124;8011;Larry Page;Chief Executive Officer &  Director;Technology;Internet Services and Retailing;13;Mountain View;CA;37.3860517;-122.0838511
23;Home Depot;23;100904;6,7;8630;8,5;44529;206272;413;Craig A. Menear;Chairman, President &  Chief Executive Officer;Retailing;Specialty Retailers: Other;24;Atlanta;GA;33.7489954;-84.3879824
24;Bank of America Corp.;26;100264;7;18232;1,8;2281234;306618;209376;Brian T. Moynihan;Chairman, President &  Chief Executive Officer;Financials;Commercial Banks;24;Charlotte;NC;35.2270869;-80.8431267
25;Express Scripts Holding;22;100065;-0,2;4517,4;32,7;54256;38791;266;Timothy C. Wentworth;President, Chief Executive Officer &  Director;Health Care;Health Care: Pharmacy and Other Services;19;St. Louis;MO;38.6270025;-90.1994042
26;Wells Fargo;25;97741;3,8;22183;1,1;1951757;255556;2627;Timothy J. Sloan;President, Chief Executive Officer &  Director;Financials;Commercial Banks;24;SF;CA;37.7749295;-122.4194155
27;Boeing;24;93392;-1,2;8197;67,5;92333;192539;1408;Dennis A. Muilenburg;Chairman, President &  Chief Executive Officer;Aerospace &  Defense;Aerospace and Defense;24;Chicago;IL;41.8781136;-87.6297982
28;Phillips 66;34;91568;26,5;5106;228,4;54371;4473;146;Greg C. Garland;Chairman &  Chief Executive Officer;Energy;Petroleum Refining;6;Houston;TX;29.7604267;-95.3698028
29;Anthem;29;9004;6,1;3842,8;55,6;7054;56182;56;Gail K. Boudreaux;President, Chief Executive Officer &  Director;Health Care;Health Care: Insurance and Managed Care;24;Indianapolis;IN;39.768403;-86.158068
30;Microsoft;28;8995;5,4;21204;26,2;241086;70276;124;Satya Nadella;Chief Executive Officer &  Director;Technology;Computer Software;24;Redmond;WA;47.6739881;-122.121512
31;Valero Energy;37;88407;26;4065;77,6;50158;39977;10015;Joseph W. Gorder;Chairman, President &  Chief Executive Officer;Energy;Petroleum Refining;20;San Antonio;TX;29.4241219;-98.4936282
32;Citigroup;30;87966;6,8;-6798;-145,6;1842465;172822;209;Michael L. Corbat;Chairman &  Chief Executive Officer;Financials;Commercial Banks;24;New York;NY;40.7127753;-74.0059728
33;Comcast;31;84526;5,1;22714;161,2;186949;158703;164;Brian L. Roberts;Chairman, President &  Chief Executive Officer;Telecommunications;Telecommunications;23;Philadelphia;PA;39.9525839;-75.1652215
34;IBM;32;79139;-1;5753;-51,5;125356;141335;3978;Virginia M. Rometty;Chairman, President &  Chief Executive Officer;Technology;Information Technology Services;24;Armonk;NY;41.1264849;-73.7140195
35;Dell Technologies;41;7866;21,4;-3728;0;122281;0;145;Michael S. Dell;Chairman &  Chief Executive Officer;Technology;Computers, Office Equipment;21;Round Rock;TX;30.5082551;-97.678896
36;State Farm Insurance Cos.;33;78331;2,9;2206,5;529,9;272345;0;65664;Michael L. Tipsord;Chairman, President &  Chief Executive Officer;Financials;Insurance: Property and Casualty (Mutual);24;Bloomington;IL;40.4842027;-88.9936873
37;Johnson & Johnson;35;7645;6,3;1300;-92,1;157303;34378;134;Alex Gorsky;Chairman &  Chief Executive Officer;Health Care;Pharmaceuticals;24;New Brunswick;NJ;40.4862157;-74.4518188
38;Freddie Mac;39;74676;13,7;5625;-28;2049776;878;6165;Donald H. Layton;Chairman &  Chief Executive Officer;Financials;Diversified Financials;21;McLean;VA;38.9338676;-77.1772604
39;Target;38;71879;3,4;2934;7,2;38999;37409;345;Brian C. Cornell;Chairman &  Chief Executive Officer;Retailing;General Merchandisers;24;Minneapolis;MN;44.977753;-93.2650108
40;Lowes;40;68619;5,5;3447;11,4;35291;72812;255;Robert A. Niblock;Chairman, President &  Chief Executive Officer;Retailing;Specialty Retailers: Other;24;Mooresville;NC;35.5848596;-80.8100724
41;Marathon Petroleum;51;6761;21;3432;192,3;49047;34683;438;Gary R. Heminger;Chairman &  Chief Executive Officer;Energy;Petroleum Refining;7;Findlay;OH;41.04422;-83.6499321
42;Procter & Gamble;36;66217;-7,7;15326;45,9;120406;199865;95;David S. Taylor;Chairman, President &  Chief Executive Officer;Household Products;Household and Personal Products;24;Cincinnati;OH;39.1031182;-84.5120196
43;MetLife;42;66153;4,2;4010;401,3;719892;47572;49;Steven A. Kandarian;Chairman, President &  Chief Executive Officer;Financials;Insurance: Life, Health (stock);24;New York;NY;40.7127753;-74.0059728
44;UPS;46;65872;8,2;4910;43,1;45403;90156;346415;David P. Abney;Chairman &  Chief Executive Officer;Transportation;Mail, Package, and Freight Delivery;24;Atlanta;GA;33.7489954;-84.3879824
45;PepsiCo;44;63525;1,2;4857;-23,3;79804;154933;263;Indra K. Nooyi;Chairman &  Chief Executive Officer;Food, Beverages &  Tobacco;Food Consumer Products;24;Harrison;NY;41.0400135;-73.7144477
46;Intel;47;62761;5,7;9601;-6,9;123249;243109;1027;Robert H. Swan;Chairman &  Chief Executive Officer;Technology;Semiconductors and Other Electronic Components;24;Santa Clara;CA;37.3541079;-121.9552356
47;DowDuPont;62;62683;30,2;1460;-66,2;192164;148186;98000;Edward D. Breen;Chief Executive Officer;Chemicals;Chemicals;24;Midland;Michigan;43.623574;-84.232105
48;Archer Daniels Midland;45;60828;-2,4;1595;24,7;39963;24238;313;Juan R. Luciano;Chairman, President &  Chief Executive Officer;Food, Beverages &  Tobacco;Food Production;24;Chicago;IL;41.8781136;-87.6297982
49;Aetna;43;60535;-4,1;1904;-16,2;55151;55229;4795;Mark T. Bertolini;Chairman &  Chief Executive Officer;Health Care;Health Care: Insurance and Managed Care;18;Hartford;CT;41.7658043;-72.6733723
50;FedEx;58;60319;19,8;2997;64,7;48552;64161;357;Frederick W. Smith;Chairman &  Chief Executive Officer;Transportation;Mail, Package, and Freight Delivery;24;Memphis;TN;35.1495343;-90.0489801
51;United Technologies;50;59837;4,5;4552;-10;9692;100667;2047;Gregory J. Hayes;Chairman, President &  Chief Executive Officer;Aerospace &  Defense;Aerospace and Defense;24;Farmington;CT;41.7360305;-72.795027
52;Prudential Financial;48;59689;1,5;7863;80;831921;43686;49705;John R. Strangfeld;Chairman, President &  Chief Executive Officer;Financials;Insurance: Life, Health (stock);24;Newark;NJ;40.735657;-74.1723667
53;Albertsons Cos.;49;59678;1,6;-373,3;0;23755;0;273;Robert G. Miller;Chairman &  Chief Executive Officer;Food &  Drug Stores;Food and Drug Stores;14;Boise;ID;43.6150186;-116.2023137
54;Sysco;57;55371;9,9;1142,5;20,3;17757;31294;665;Thomas L. Ben?;President, Chief Executive Officer &  Director;Wholesalers;Wholesalers: Food and Grocery;24;Houston;TX;29.7604267;-95.3698028
55;Disney;52;55137;-0,9;8980;-4,4;95789;151029;199;Robert A. Iger;Chairman &  Chief Executive Officer;Media;Entertainment;24;Burbank;CA;34.1808392;-118.3089661
56;Humana;53;53767;-1,1;2448;298,7;27178;37122;459;Bruce D. Broussard;President, Chief Executive Officer &  Director;Health Care;Health Care: Insurance and Managed Care;24;Louisville;KY;38.2526647;-85.7584557
57;Pfizer;54;52546;-0,5;21308;195,3;171797;211115;902;Ian C. Read;Chairman &  Chief Executive Officer;Health Care;Pharmaceuticals;24;New York;NY;40.7127753;-74.0059728
58;HP;61;52056;7,9;2526;1,2;32913;35893;49;Dion J. Weisler;President, Chief Executive Officer &  Director;Technology;Computers, Office Equipment;24;Palo Alto;CA;37.4418834;-122.1430195
59;Lockheed Martin;56;51048;0,8;2002;-62,2;46521;96589;100;Marillyn A. Hewson;Chairman, President &  Chief Executive Officer;Aerospace &  Defense;Aerospace and Defense;24;Bethesda;MD;38.984652;-77.0947092
60;AIG;55;4952;-5,4;-6084;0;498301;49145;498;Brian Duperreault;President, Chief Executive Officer &  Director;Financials;Insurance: Property and Casualty (Stock);24;New York;NY;40.7127753;-74.0059728
61;Centene;66;48572;19,3;828;47,3;21855;18704;337;Michael F. Neidorff;Chairman &  Chief Executive Officer;Health Care;Health Care: Insurance and Managed Care;9;St. Louis;MO;38.6270025;-90.1994042
62;Cisco Systems;60;48005;-2,5;9609;-10,5;129818;206623;729;Charles H. Robbins;Chairman &  Chief Executive Officer;Technology;Network and Other Communications Equipment;22;San Jose;CA;37.3382082;-121.8863286
63;HCA Healthcare;63;47653;6,5;2216;-23,3;36593;34165;221491;R. Milton Johnson;Chairman &  Chief Executive Officer;Health Care;Health Care: Medical Facilities;24;Nashville;TN;36.1626638;-86.7816016
64;Energy Transfer Equity;79;47487;26,6;954;-4,1;86246;15335;29486;John W. McReynolds;President &  Director;Energy;Pipelines;12;Dallas;TX;32.7766642;-96.7969879
65;Caterpillar;74;45462;18;754;0;76962;88078;984;D. James Umpleby III;Chairman &  Chief Executive Officer;Industrials;Construction and Farm Machinery;24;Deerfield;IL;42.1711365;-87.8445119
66;Nationwide;68;4394;9,6;246,5;-26,2;221257;0;33135;Stephen S. Rasmussen;Chief Executive Officer;Financials;Insurance: Property and Casualty (Mutual);24;Columbus;OH;39.9611755;-82.9987942
67;Morgan Stanley;76;43642;15;6111;2,2;851733;96688;57633;James P. Gorman;Chairman &  Chief Executive Officer;Financials;Commercial Banks;24;New York;NY;40.7127753;-74.0059728
68;Liberty Mutual Insurance Group;75;42687;11,4;17;-98,3;142502;0;50;David H. Long;Chairman, President &  Chief Executive Officer;Financials;Insurance: Property and Casualty (Stock);24;Boston;MA;42.3600825;-71.0588801
69;New York Life Insurance;65;42296;3,7;1866,9;71,6;303183;0;11114;Theodore A. Mathas;Chairman &  Chief Executive Officer;Financials;Insurance: Life, Health (Mutual);24;New York;NY;40.7127753;-74.0059728
70;Goldman Sachs Group;78;42254;12;4286;-42,1;916776;95463;366;Lloyd C. Blankfein;Chairman &  Chief Executive Officer;Financials;Commercial Banks;19;New York;NY;40.7127753;-74.0059728
71;American Airlines Group;67;42207;5;1919;-28,3;51396;24584;1266;W. Douglas Parker;Chairman &  Chief Executive Officer;Transportation;Airlines;24;Fort Worth;TX;32.7554883;-97.3307658
72;Best Buy;72;42151;7;1000;-18,6;13049;2046;125;Hubert B. Joly;Chairman &  Chief Executive Officer;Retailing;Specialty Retailers: Other;24;Richfield;MN;44.8832982;-93.2830021
73;Cigna;70;41616;4,9;2237;19,8;61753;40735;46;David M. Cordani;President, Chief Executive Officer &  Director;Health Care;Health Care: Insurance and Managed Care;24;Bloomfield;CT;41.826488;-72.7300945
74;Charter Communications;96;41581;43,4;9895;180,9;146623;80954;948;Thomas M. Rutledge;Chairman &  Chief Executive Officer;Telecommunications;Telecommunications;18;Stamford;CT;41.0534302;-73.5387341
75;Delta Air Lines;71;41244;4;3577;-18,2;53292;38746;86564;Edward H. Bastian;Chairman &  Chief Executive Officer;Transportation;Airlines;24;Atlanta;GA;33.7489954;-84.3879824
76;Facebook;98;40653;47,1;15934;56;84524;46419;25105;Mark Zuckerberg;Chairman &  Chief Executive Officer;Technology;Internet Services and Retailing;6;Menlo Park;CA;37.4529598;-122.1817252
77;Honeywell International;73;40534;3,1;1655;-65,6;59387;108149;131;Darius Adamczyk;President, Chief Executive Officer &  Director;Industrials;Electronics, Electrical Equip.;24;Morris Plains;NJ;40.8395922;-74.4818698
78;Merck;69;40122;0,8;2394;-38,9;87872;146862;69;Kenneth C. Frazier;Chairman, President &  Chief Executive Officer;Health Care;Pharmaceuticals;24;Kenilworth;NJ;40.6764911;-74.2907032
79;Allstate;84;38524;5,4;3189;69,9;112422;33478;4268;Thomas J. Wilson;Chairman, President &  Chief Executive Officer;Financials;Insurance: Property and Casualty (Stock);23;Northbrook;IL;42.1275267;-87.8289548
80;Tyson Foods;82;3826;3,7;1774;0,3;28066;29233;122;Thomas P. Hayes;President, Chief Executive Officer &  Director;Food, Beverages &  Tobacco;Food Production;24;Springdale;AR;36.1867442;-94.1288141
81;United Continental Holdings;83;37736;3,2;2131;-5,8;42326;19778;898;Oscar Munoz;Chairman &  Chief Executive Officer;Transportation;Airlines;24;Chicago;IL;41.8781136;-87.6297982
82;Oracle;81;37728;1,8;9335;4,9;134991;186766;138;Safra A. Catz/Mark V. Hurd;Co-Chief Executive Officer &  Director;Technology;Computer Software;23;Redwood City;CA;37.4852152;-122.2363548
83;Tech Data;107;36775;40,2;116,6;-40,2;12653;3249;14;Richard T. Hume;Chairman &  Chief Executive Officer;Wholesalers;Wholesalers: Electronics and Office Equipment;24;Clearwater;FL;27.9658533;-82.8001026
84;TIAA;80;36025;-2,9;1049,7;-29,7;583632;0;16829;Roger W. Ferguson Jr.;President, Chief Executive Officer &  Director;Financials;Insurance: Life, Health (Mutual);21;New York;NY;40.7127753;-74.0059728
85;TJX;87;35865;8,1;2607,9;13,5;14058;51571;249;Ernie L. Herrman;President, Chief Executive Officer &  Director;Retailing;Specialty Retailers: Apparel;24;Framingham;MA;42.279286;-71.4161565
86;American Express;86;35583;5,2;2736;-49,4;181159;80234;55;Stephen J. Squeri;Chairman &  Chief Executive Officer;Financials;Diversified Financials;24;New York;NY;40.7127753;-74.0059728
87;Coca-Cola;64;3541;-15,4;1248;-80,9;87896;185207;618;James R. Quincey;President, Chief Executive Officer &  Director;Food, Beverages &  Tobacco;Beverages;24;Atlanta;GA;33.7489954;-84.3879824
88;Publix Super Markets;85;34837;1,6;2291,9;13,1;18184;0;193;Randall T. Jones Sr.;President, Chief Executive Officer &  Director;Food &  Drug Stores;Food and Drug Stores;24;Lakeland;FL;28.0394654;-81.9498042
89;Nike;88;3435;6,1;4240;12,8;23259;108094;744;Mark G. Parker;Chairman, President &  Chief Executive Officer;Apparel;Apparel;24;Beaverton;OR;45.4887993;-122.8013332
90;Andeavor;117;34204;42,5;1528;108,2;28573;15386;14300;Gregory J. Goff;Chairman, President &  Chief Executive Officer;Energy;Petroleum Refining;19;San Antonio;TX;29.4241219;-98.4936282
91;World Fuel Services;103;33696;24,7;-170,2;-234,5;5588;1661;5;Michael J. Kasbar;Chairman &  Chief Executive Officer;Energy;Energy;14;Miami;FL;25.7616798;-80.1917902
92;Exelon;89;33531;6,9;3770;232,5;1167;37644;34621;Christopher M. Crane;President, Chief Executive Officer &  Director;Energy;Utilities: Gas and Electric;24;Chicago;IL;41.8781136;-87.6297982
93;Massachusetts Mutual Life Insurance;77;33495;-11,4;513;-59,7;288855;0;11811;Roger W. Crandall;Chairman, President &  Chief Executive Officer;Financials;Insurance: Life, Health (Mutual);24;Springfield;MA;42.1014831;-72.589811
94;Rite Aid;91;32845;6,9;4,1;-97,6;11594;1793;7043;John T. Standley;Chairman &  Chief Executive Officer;Food &  Drug Stores;Food and Drug Stores;24;Camp Hill;PA;40.2398118;-76.9199742
95;ConocoPhillips;115;32584;33,8;-855;0;73362;69641;114;Ryan M. Lance;Chairman &  Chief Executive Officer;Energy;Mining, Crude-Oil Production;24;Houston;TX;29.7604267;-95.3698028
96;CHS;93;31935;5,2;127,9;-69,9;15974;0;11626;Jay D. Debertin;President, Chief Executive Officer &  Director;Food, Beverages &  Tobacco;Food Production;19;Inver Grove Heights;MN;44.8480218;-93.0427153
97;3M;94;31657;5,1;4858;-3,8;37987;13055;91536;Inge G. Thulin;Chairman, President &  Chief Executive Officer;Industrials;Miscellaneous;24;St Paul;MN;44.9537029;-93.0899578
98;Time Warner;95;31271;6,7;5247;33,6;69209;73758;26;John Stankey;Chairman &  Chief Executive Officer;Media;Entertainment;19;New York;NY;40.7127753;-74.0059728
99;General Dynamics;90;30973;-1,2;2912;-1,5;35046;65845;986;Phebe N. Novakovic;Chairman &  Chief Executive Officer;Aerospace &  Defense;Aerospace and Defense;24;Falls Church;VA;38.882334;-77.1710914
100;USAA;102;30016;10,6;2421,9;36,1;155391;0;32705;Stuart Parker;Chief Executive Officer;Financials;Insurance: Property and Casualty (Stock);24;San Antonio;TX;29.4241219;-98.4936282
101;Capital One Financial;100;29999;9;1982;-47,2;365693;46584;493;Richard D. Fairbank;Chairman, President &  Chief Executive Officer;Financials;Commercial Banks;19;McLean;VA;38.9338676;-77.1772604
102;Deere;105;29738;11,6;2159,1;41,7;65786;50291;60476;Samuel R. Allen;Chairman, President &  Chief Executive Officer;Industrials;Construction and Farm Machinery;24;Moline;IL;41.5067003;-90.5151342
103;INTL FCStone;189;29424;99,4;6,4;-88,3;6243;804;1607;Sean M. O'Connor;President, Chief Executive Officer &  Director;Financials;Diversified Financials;10;New York;NY;40.7127753;-74.0059728
104;Northwestern Mutual;97;29331;1,8;1017;24,3;265049;0;5437;John E. Schlifske;Chairman &  Chief Executive Officer;Financials;Insurance: Life, Health (Mutual);24;Milwaukee;WI;43.0389025;-87.9064736
105;Enterprise Products Partners;122;29242;27;2799,3;11,4;54418;52904;7;A. James Teague;Chairman &  Chief Executive Officer;Energy;Pipelines;13;Houston;TX;29.7604267;-95.3698028
106;Travelers Cos.;99;28902;4,6;2056;-31,8;103483;37691;308;Alan D. Schnitzer;Chairman &  Chief Executive Officer;Financials;Insurance: Property and Casualty (Stock);24;New York;NY;40.7127753;-74.0059728
107;Hewlett Packard Enterprise;59;28871;-42,4;344;-89,1;61406;27243;66;Antonio Neri;President, Chief Executive Officer &  Director;Technology;Computers, Office Equipment;2;Palo Alto;CA;37.4418834;-122.1430195
108;Philip Morris International;104;28748;7,7;6035;-13,4;42968;154514;806;Andr? Calantzopoulos;Chairman &  Chief Executive Officer;Food, Beverages &  Tobacco;Tobacco;10;New York;NY;40.7127753;-74.0059728
109;Twenty-First Century Fox;101;285;4,3;2952;7,2;50724;67969;217;James R. Murdoch;Chief Executive Officer &  Director;Media;Entertainment;14;New York;NY;40.7127753;-74.0059728
110;AbbVie;111;28216;10,1;5309;-10,8;70786;15018;29;Richard A. Gonzalez;Chairman &  Chief Executive Officer;Health Care;Pharmaceuticals;5;North Chicago;IL;42.325578;-87.8411818
111;Abbott Laboratories;135;2739;31,3;477;-65,9;7625;10464;99;Miles D. White;Chairman &  Chief Executive Officer;Health Care;Medical Products and Equipment;24;Lake Bluff;IL;42.304505;-87.8960712
112;Progressive;120;26839;14,5;1592,2;54,4;38701;35478;33656;Susan Patricia Griffith;President, Chief Executive Officer &  Director;Financials;Insurance: Property and Casualty (Stock);24;Mayfield;OH;41.5519952;-81.4392828
113;Arrow Electronics;118;26813;12,5;402;-23,1;16463;675;188;Michael J. Long;Chairman, President &  Chief Executive Officer;Wholesalers;Wholesalers: Electronics and Office Equipment;24;Centennial;CO;39.5807452;-104.8771726
114;Kraft Heinz;106;26232;-1;10999;202,8;120232;7592;39;Bernardo Hees;Chief Executive Officer;Food, Beverages &  Tobacco;Food Consumer Products;24;Pittsburgh;PA;40.4406248;-79.9958864
115;Plains GP Holdings;141;26223;29,9;-731;-877,7;26753;6328;485;Greg L. Armstrong;Chairman &  Chief Executive Officer;Energy;Pipelines;5;Houston;TX;29.7604267;-95.3698028
116;Gilead Sciences;92;26107;-14,1;4628;-65,7;70283;98298;10;John F. Milligan IV;President, Chief Executive Officer &  Director;Health Care;Pharmaceuticals;10;San Mateo;CA;37.5585465;-122.2710788
117;Mondelez International;109;25896;-0,1;2922;76,1;63109;62066;83;Dirk Van de Put;Chairman &  Chief Executive Officer;Food, Beverages &  Tobacco;Food Consumer Products;11;Deerfield;IL;42.1711365;-87.8445119
118;Northrop Grumman;114;25803;5,3;2015;-8,4;34917;60778;70;Wesley G. Bush;Chairman &  Chief Executive Officer;Aerospace &  Defense;Aerospace and Defense;24;Falls Church;VA;38.882334;-77.1710914
119;Raytheon;116;25348;5,3;2024;-8,5;3086;62265;64;Thomas A. Kennedy;Chairman &  Chief Executive Officer;Aerospace &  Defense;Aerospace and Defense;24;Waltham;MA;42.3764852;-71.2356113
120;Macys;110;24837;-3,7;1547;149,9;19381;9065;130;Jeffrey Gennette;Chairman &  Chief Executive Officer;Retailing;General Merchandisers;24;Cincinnati;OH;39.1031182;-84.5120196
121;US Foods Holding;124;24147;5,4;444,3;111,8;9037;7065;25204;Pietro Satriano;Chairman, President &  Chief Executive Officer;Wholesalers;Wholesalers: Food and Grocery;7;Rosemont;IL;41.9867507;-87.8721602
122;U.S. Bancorp;125;23996;5,5;6218;5,6;46204;83367;72402;Andrew J. Cecere;President, Chief Executive Officer &  Director;Financials;Commercial Banks;20;Minneapolis;MN;44.977753;-93.2650108
123;Dollar General;128;23471;6,8;1539;23;12517;25141;129;Todd J. Vasos;Chairman &  Chief Executive Officer;Retailing;Specialty Retailers: Other;20;Goodlettsville;TN;36.3231066;-86.7133302
124;International Paper;133;23302;10,5;2144;137,2;33903;22063;56;Mark S. Sutton;Chairman &  Chief Executive Officer;Materials;Packaging, Containers;24;Memphis;TN;35.1495343;-90.0489801
125;Duke Energy;121;23189;-0,8;3059;42,1;137914;54276;2906;Lynn J. Good;Chairman, President &  Chief Executive Officer;Energy;Utilities: Gas and Electric;24;Charlotte;NC;35.2270869;-80.8431267
126;Southern;145;23031;15,8;842;-65,6;111005;45024;31344;Thomas A. Fanning;Chairman, President &  Chief Executive Officer;Energy;Utilities: Gas and Electric;24;Atlanta;GA;33.7489954;-84.3879824
127;Marriott International;163;22894;34,1;1372;75,9;23948;48531;177;Arne M. Sorenson;President, Chief Executive Officer &  Director;Hotels, Restaurants &  Leisure;Hotels, Casinos, Resorts;20;Bethesda;MD;38.984652;-77.0947092
128;Avnet;108;22872;-12,8;525,3;3,7;97;5009;157;William J. Amelio;Chief Executive Officer &  Director;Wholesalers;Wholesalers: Electronics and Office Equipment;24;Phoenix;AZ;33.4483771;-112.0740373
129;Eli Lilly;132;22871;7,8;-204,1;-107,5;44981;84542;40655;David A. Ricks;Chairman, President &  Chief Executive Officer;Health Care;Pharmaceuticals;24;Indianapolis;IN;39.768403;-86.158068
130;Amgen;123;22849;-0,6;1979;-74,4;79954;122842;208;Robert A. Bradway;Chairman, President &  Chief Executive Officer;Health Care;Pharmaceuticals;19;Thousand Oaks;CA;34.1705609;-118.8375937
131;McDonalds;112;2282;-7,3;5192,3;10,8;33804;124244;235;Stephen J. Easterbrook;President, Chief Executive Officer &  Director;Hotels, Restaurants &  Leisure;Food Services;24;Oak Brook;IL;41.8397865;-87.9535534
132;Starbucks;131;22387;5;2884,7;2,4;14366;8137;277;Keven R. Johnson;President, Chief Executive Officer &  Director;Hotels, Restaurants &  Leisure;Food Services;16;Seattle;WA;47.6062095;-122.3320708
133;Qualcomm;119;22291;-5,4;2466;-56,8;65486;82027;338;Steven M. Mollenkopf;Chairman &  Chief Executive Officer;Technology;Semiconductors and Other Electronic Components;19;San Diego;CA;32.715738;-117.1610838
134;Dollar Tree;136;22246;7,4;1714,3;91,3;16333;22523;1162;Gary M. Philbin;President, Chief Executive Officer &  Director;Retailing;Specialty Retailers: Other;10;Chesapeake;VA;36.7682088;-76.2874927
135;PBF Energy;172;21787;36,8;415,5;143,3;8118;3752;3165;Thomas J. Nimbley;Chairman &  Chief Executive Officer;Energy;Petroleum Refining;6;Parsippany-Troy Hills;NJ;40.8652865;-74.4173877
136;Icahn Enterprises;168;21744;33;2430;0;31801;9901;89034;Keith Cozza;President, Chief Executive Officer &  Director;Financials;Diversified Financials;10;New York;NY;40.7127753;-74.0059728
137;Aflac;126;21667;-4;4604;73,1;137217;34038;11318;Daniel P. Amos;Chairman, President &  Chief Executive Officer;Financials;Insurance: Life, Health (stock);24;Columbus;GA;32.4609764;-84.9877094
138;AutoNation;129;21535;-0,3;434,6;1;10272;4296;26;Michael J. Jackson;Chairman, President &  Chief Executive Officer;Retailing;Automotive Retailing, Services;21;Fort Lauderdale;FL;26.1224386;-80.1373174
139;Penske Automotive Group;142;21389;6,2;613,3;78,9;10541;3817;26;Roger S. Penske;Chairman &  Chief Executive Officer;Retailing;Automotive Retailing, Services;20;Bloomfield Hills;MI;42.583645;-83.2454883
140;Whirlpool;137;21253;2,6;350;-60,6;20038;10824;92;Marc R. Bitzer;President, Chief Executive Officer &  Director;Industrials;Electronics, Electrical Equip.;24;Benton Harbor;MI;42.1167065;-86.4541894
141;Union Pacific;143;2124;6,5;10712;153,1;57806;104261;41992;Lance M. Fritz;Chairman, President &  Chief Executive Officer;Transportation;Railroads;24;Omaha;NE;41.2565369;-95.9345034
142;Southwest Airlines;138;21171;3,7;3488;55,4;2511;33678;5611;Gary C. Kelly;Chairman &  Chief Executive Officer;Transportation;Airlines;24;Dallas;TX;32.7766642;-96.7969879
143;ManpowerGroup;146;21034;7;545,4;22,9;8884;7614;29;Jonas Prising;Chairman &  Chief Executive Officer;Business Services;Temporary Help;24;Milwaukee;WI;43.0389025;-87.9064736
144;Thermo Fisher Scientific;154;20918;14,5;2225;10,1;56669;82952;661;Marc N. Casper;President, Chief Executive Officer &  Director;Technology;Scientific,Photographic and  Control Equipment;16;Waltham;MA;42.3764852;-71.2356113
145;Bristol-Myers Squibb;147;20776;6,9;1007;-77,4;33551;103415;237;Giovanni Caforio;Chairman &  Chief Executive Officer;Health Care;Pharmaceuticals;24;New York;NY;40.7127753;-74.0059728
146;Halliburton;173;2062;29,8;-463;0;25085;41068;55;Jeffrey A. Miller;President, Chief Executive Officer &  Director;Energy;Oil and Gas Equipment, Services;24;Houston;TX;29.7604267;-95.3698028
147;Tenet Healthcare;134;20613;-2,2;-704;0;23385;2452;11198;Ronald A. Rittenmeyer;Chairman &  Chief Executive Officer;Health Care;Health Care: Medical Facilities;24;Dallas;TX;32.7766642;-96.7969879
148;Lear;151;20467;10,3;1313,4;34,7;11946;12453;165;Raymond E. Scott;President, Chief Executive Officer &  Director;Motor Vehicles &  Parts;Motor Vehicles and Parts;24;Southfield;MI;42.4733688;-83.2218731
149;Cummins;159;20428;16,7;999;-28,3;18075;26757;586;N. Thomas Linebarger;Chairman &  Chief Executive Officer;Industrials;Industrial Machinery;24;Columbus;IN;39.2014404;-85.9213796
150;Micron Technology;226;20322;63,9;5089;0;35336;6047;341;Sanjay Mehrotra;President, Chief Executive Officer &  Director;Technology;Semiconductors and Other Electronic Components;21;Boise;ID;43.6150186;-116.2023137
151;Nucor;169;20252;25;1318,7;65,6;15841;19432;251;John J. Ferriola;Chairman, President &  Chief Executive Officer;Materials;Metals;24;Charlotte;NC;35.2270869;-80.8431267
152;Molina Healthcare;156;19883;11,8;-512;-1084,6;8471;4867;20;Joseph M. Zubretsky;President, Chief Executive Officer &  Director;Health Care;Health Care: Insurance and Managed Care;7;Long Beach;CA;33.7700504;-118.1937395
153;Fluor;149;19521;2,5;191,4;-32;9328;8006;56706;David T. Seaton;Chairman &  Chief Executive Officer;Engineering &  Construction;Engineering, Construction;17;Irving;TX;32.8140177;-96.9488945
154;Altria Group;148;19494;0,8;10222;-28,2;43202;118436;83;Howard A. Willard III;Chairman &  Chief Executive Officer;Food, Beverages &  Tobacco;Tobacco;24;Richmond;VA;37.5407246;-77.4360481
155;Paccar;164;19456;14,2;1675,2;221,1;2344;23298;25;Ronald E. Armstrong;Chairman &  Chief Executive Officer;Industrials;Construction and Farm Machinery;24;Bellevue;WA;47.6101497;-122.2015159
156;Hartford Financial Services;153;19228;5,1;-3131;-449,4;22526;18392;164;Christopher J. Swift;Chairman &  Chief Executive Officer;Financials;Insurance: Property and Casualty (Stock);23;Hartford;CT;41.7658043;-72.6733723
157;Kohls;150;19095;2,2;859;54,5;1334;11021;85;Michelle D. Gass;Chairman &  Chief Executive Officer;Retailing;General Merchandisers;21;Menomonee Falls;WI;43.1788967;-88.1173132
158;Western Digital;217;19093;46,9;397;64;2986;27456;67629;Stephen D. Milligan;Chairman &  Chief Executive Officer;Technology;Computers, Office Equipment;15;San Jose;CA;37.3382082;-121.8863286
159;Jabil;152;19063,1;3,9;129,1;-49,2;11096;5035;170000;Mark T. Mondello;Chairman &  Chief Executive Officer;Technology;Semiconductors and Other Electronic Components;17;St. Petersburg;FL;27.7676008;-82.6402915
160;Community Health Systems;130;18477;-13,6;-2459;0;1745;454;86;Wayne T. Smith;Chairman &  Chief Executive Officer;Health Care;Health Care: Medical Facilities;12;Franklin;TN;35.9250637;-86.8688899
161;Visa;187;18358;21,7;6699;11,8;67977;270222;15;Alfred F. Kelly Jr.;Chairman &  Chief Executive Officer;Business Services;Financial Data Services;10;SF;CA;37.7749295;-122.4194155
162;Danaher;144;1833;-7,9;2492,1;-2,4;46649;68385;67;Thomas P. Joyce Jr.;President, Chief Executive Officer &  Director;Health Care;Medical Products and Equipment;20;Leavenworth;WA;47.7510741;-120.7401385
163;Kimberly-Clark;155;18259;0,3;2278;5,2;15151;38553;42;Thomas J. Falk;Chairman &  Chief Executive Officer;Household Products;Household and Personal Products;24;Irving;TX;32.8140177;-96.9488945
164;AECOM;161;18203;4,6;339,4;253,1;14397;5671;87;Michael S. Burke;Chairman &  Chief Executive Officer;Engineering &  Construction;Engineering, Construction;10;Los Angeles;CA;34.0522342;-118.2436849
165;PNC Financial Services;166;18035;9,8;5338;36,8;380768;71323;51632;William S. Demchak;Chairman, President &  Chief Executive Officer;Financials;Commercial Banks;24;Pittsburgh;PA;40.4406248;-79.9958864
166;CenturyLink;160;17656;1,1;1389;121,9;75611;17578;51;Jeffrey K. Storey;President, Chief Executive Officer &  Director;Telecommunications;Telecommunications;9;Monroe;LA;32.5093109;-92.1193012
167;NextEra Energy;170;17195;6,4;5378;84,7;97827;76895;14;James L. Robo;Chairman, President &  Chief Executive Officer;Energy;Utilities: Gas and Electric;24;North Palm Beach;FL;26.8797819;-80.0533743
168;PG& E Corp.;157;17135;-3;1646;18,2;68012;22664;23;Geisha J. Williams;President, Chief Executive Officer &  Director;Energy;Utilities: Gas and Electric;24;SF;CA;37.7749295;-122.4194155
169;Synnex;198;17046;21,2;301,2;28,2;7699;4702;1136;Dennis Polk;President, Chief Executive Officer &  Director;Wholesalers;Wholesalers: Electronics and Office Equipment;12;Fremont;CA;37.5482697;-121.9885719
170;WellCare Health Plans;195;17007;19,5;373,7;54,4;8365;8622;89;Kenneth A. Burdick;Chairman &  Chief Executive Officer;Health Care;Health Care: Insurance and Managed Care;10;Tampa;FL;27.950575;-82.4571776
171;Performance Food Group;171;16762;4,1;96,3;41;3804;3104;14;George L. Holm;President, Chief Executive Officer &  Director;Wholesalers;Wholesalers: Food and Grocery;10;Richmond;VA;37.5407246;-77.4360481
172;Sears Holdings;127;16702;-24,6;-383;0;7262;288;89;Edward S. Lampert;Chairman &  Chief Executive Officer;Retailing;General Merchandisers;24;Hoffman Estates;IL;42.0629915;-88.1227199
173;Synchrony Financial;185;16695;10,4;1935;-14;95808;2549;16;Margaret M. Keane;President, Chief Executive Officer &  Director;Financials;Diversified Financials;2;Stamford;CT;41.0534302;-73.5387341
174;CarMax;174;16637;5,1;627;0,6;16279;11202;24344;William D. Nash;President, Chief Executive Officer &  Director;Retailing;Automotive Retailing, Services;15;Richmond;VA;37.5407246;-77.4360481
175;Bank of New York Mellon;177;16621;6;4090;15,3;371758;51919;52500;Charles W. Scharf;Chairman &  Chief Executive Officer;Financials;Commercial Banks;24;New York City;NY;40.7127753;-74.0059728
176;Freeport-McMoRan;175;16416;4;1817;0;37302;25439;252;Richard C. Adkerson;Vice Chairman, President &  Chief Executive Officer;Energy;Mining, Crude-Oil Production;13;Phoenix;AZ;33.4483771;-112.0740373
177;Genuine Parts;180;16309;6,3;616,8;-10,3;12412;13183;48;Paul D. Donahue;President, Chief Executive Officer &  Director;Wholesalers;Wholesalers: Diversified;24;Atlanta;GA;33.7489954;-84.3879824
178;Emerson Electric;139;16301;-19,6;1518;-7,2;19589;43359;765;David N. Farr;Chairman &  Chief Executive Officer;Industrials;Industrial Machinery;24;St. Louis;MO;38.6270025;-90.1994042
179;DaVita;181;16038;5,5;663,6;-24,6;18948;12001;745;Kent J. Thiry;Chairman &  Chief Executive Officer;Health Care;Health Care: Medical Facilities;12;Denver;CO;39.7392358;-104.990251
180;Supervalu;158;16009;-8,7;650;265,2;358;585;29;Mark Gross;President, Chief Executive Officer &  Director;Food &  Drug Stores;Food and Drug Stores;24;Eden Prairie;MN;44.8546856;-93.470786
181;Gap;178;15855;2,2;848;25,4;7989;12147;135;Arthur L. Peck;President, Chief Executive Officer &  Director;Retailing;Specialty Retailers: Apparel;24;SF;CA;37.7749295;-122.4194155
182;General Mills;165;1562;-5,7;1657,5;-2,4;21813;26716;38;Jeffrey L. Harmening;Chairman &  Chief Executive Officer;Food, Beverages &  Tobacco;Food Consumer Products;24;Minneapolis;MN;44.977753;-93.2650108
183;Nordstrom;188;15478;4,9;437;23,4;8115;8123;76;Blake W. Nordstrom;Co-President &  Director;Retailing;General Merchandisers;24;Seattle;WA;47.6062095;-122.3320708
184;Colgate-Palmolive;182;15454;1,7;2024;-17,1;12676;62607;359;Ian M. Cook;Chairman, President &  Chief Executive Officer;Household Products;Household and Personal Products;24;New York;NY;40.7127753;-74.0059728
185;American Electric Power;167;15425;-5,8;1912,6;213,1;64729;33766;17666;Nicholas K. Akins;Chairman, President &  Chief Executive Officer;Energy;Utilities: Gas and Electric;24;Columbus;OH;39.9611755;-82.9987942
186;XPO Logistics;191;15381;5,2;340,2;393;12602;1221;95;Bradley S. Jacobs;Chairman &  Chief Executive Officer;Transportation;Transportation and Logistics;3;Greenwich;CT;41.0262417;-73.6281964
187;Goodyear Tire & Rubber;184;15377;1,4;346;-72,6;17064;6392;64;Richard J. Kramer;Chairman, President &  Chief Executive Officer;Motor Vehicles &  Parts;Motor Vehicles and Parts;24;Akron;OH;41.0814447;-81.5190053
188;Omnicom Group;179;15274;-0,9;1088,4;-5,2;24931;16734;773;John D. Wren;President, Chief Executive Officer &  Director;Business Services;Advertising, marketing;22;New York;NY;40.7127753;-74.0059728
189;CDW;199;15192;8,7;523;23,2;6957;10717;8726;Thomas E. Richards;Chairman, President &  Chief Executive Officer;Technology;Information Technology Services;14;Lincolnshire;IL;42.1900249;-87.9084039
190;Sherwin-Williams;236;14984;26,4;1772,3;56,5;19958;36899;52695;John G. Morikis;Chairman, President &  Chief Executive Officer;Chemicals;Chemicals;24;Cleveland;OH;41.49932;-81.6943605
191;PPG Industries;183;14967;-1,4;1591;81,4;16538;27824;472;Michael H. McGarry;Chairman &  Chief Executive Officer;Chemicals;Chemicals;24;Pittsburgh;PA;40.4406248;-79.9958864
192;Texas Instruments;206;14961;11,9;3682;2,4;17642;102135;29714;Brian T. Crutcher;Chairman, President &  Chief Executive Officer;Technology;Semiconductors and Other Electronic Components;24;Dallas;TX;32.7766642;-96.7969879
193;C.H. Robinson Worldwide;212;14869;13,1;504,9;-1,7;4236;13153;15074;John P. Wiehoff;Chairman, President &  Chief Executive Officer;Transportation;Transportation and Logistics;17;Eden Prairie;MN;44.8546856;-93.470786
194;WestRock;190;1486;1;708,2;0;25089;16372;448;Steven C. Voorhees;President, Chief Executive Officer &  Director;Materials;Packaging, Containers;7;Atlanta;GA;33.7489954;-84.3879824
195;Cognizant Technology Solutions;205;1481;9,8;1504;-3,2;15221;47338;260;Francisco D'Souza;Chairman &  Chief Executive Officer;Technology;Information Technology Services;8;Teaneck;NJ;40.8932469;-74.0116536
196;Newell Brands;208;14742;11,1;2748,8;420,8;33136;12363;49;Michael B. Polk;Chairman &  Chief Executive Officer;Household Products;Home Equipment, Furnishings;23;Hoboken;NJ;40.7439905;-74.0323626
197;CBS;193;1471;2,3;357;-71,7;20843;19668;14715;Leslie Moonves;Chairman, President &  Chief Executive Officer;Media;Entertainment;24;New York;NY;40.7127753;-74.0059728
198;Envision Healthcare;538;14701;220,4;-228;0;16573;4647;5775;Christopher A. Holden;President, Chief Executive Officer &  Director;Health Care;Health Care: Pharmacy and Other Services;1;Nashville;TN;36.1626638;-86.7816016
199;Monsanto;204;1464;8,4;2260;69,2;21333;51444;219;Hugh Grant;Chairman &  Chief Executive Officer;Chemicals;Chemicals;15;St. Louis;MO;38.6270025;-90.1994042
200;Aramark;192;14604;1,3;373,9;29,9;11006;9725;215;Eric J. Foss;Chairman, President &  Chief Executive Officer;Business Services;Diversified Outsourcing Services;24;Philadelphia;PA;39.9525839;-75.1652215
201;Applied Materials;265;14537;34,3;3434;99,5;19419;58429;184;Gary E. Dickerson;President, Chief Executive Officer &  Director;Technology;Semiconductors and Other Electronic Components;23;Santa Clara;CA;37.3541079;-121.9552356
202;Waste Management;201;14485;6,4;1949;64,9;21829;36372;423;James C. Fish Jr.;President, Chief Executive Officer &  Director;Business Services;Waste Management;20;Houston;TX;29.7604267;-95.3698028
203;DISH Network;186;14391;-4,7;2098,7;44,8;29774;17682;17;W. Erik Carlson;President, Chief Executive Officer &  Director;Telecommunications;Telecommunications;17;Englewood;CO;39.6477653;-104.9877597
204;Illinois Tool Works;202;14314;5,3;1687;-17,1;1678;53142;50;E. Scott Santi;Chairman, President &  Chief Executive Officer;Industrials;Industrial Machinery;24;Glenview;IL;42.0697509;-87.7878408
205;Lincoln National;207;14257;7;2079;74,4;281763;15946;9047;Dennis R. Glass;President, Chief Executive Officer &  Director;Financials;Insurance: Life, Health (stock);24;Wayne;PA;40.0462208;-75.3599105
206;HollyFrontier;274;14251;35,3;805,4;0;10692;865;3522;George J. Damiris;President, Chief Executive Officer &  Director;Energy;Petroleum Refining;11;Dallas;TX;32.7766642;-96.7969879
207;CBRE Group;214;1421;8,7;691,5;20,9;11484;16042;80;Robert E. Sulentic;President, Chief Executive Officer &  Director;Financials;Real estate;11;Los Angeles;CA;34.0522342;-118.2436849
208;Textron;200;14198;3;307;-68,1;1534;15293;37;Scott C. Donnelly;Chairman, President &  Chief Executive Officer;Aerospace &  Defense;Aerospace and Defense;24;Providence;RI;41.8239891;-71.4128343
209;Ross Stores;219;14135;9,9;1362,8;21,9;5722;298;827;Barbara Rentler;Chairman &  Chief Executive Officer;Retailing;Specialty Retailers: Apparel;16;Dublin;CA;37.7021521;-121.9357918
210;Principal Financial;227;14093;13,7;2310,4;75,5;253941;17643;15378;Daniel J. Houston;Chairman, President &  Chief Executive Officer;Financials;Insurance: Life, Health (stock);24;Des Moines;IA;41.6005448;-93.6091064
211;D.R. Horton;232;14091;15,9;1038,4;17,2;12185;1648;7735;David V. Auld;President, Chief Executive Officer &  Director;Engineering &  Construction;Homebuilders;16;Arlington;TX;32.735687;-97.1080656
212;Marsh & McLennan;210;14024;6,2;1492;-15,6;20429;41924;64;Daniel S. Glaser;President, Chief Executive Officer &  Director;Financials;Diversified Financials;24;New York;NY;40.7127753;-74.0059728
213;Devon Energy;231;13949;14,4;898;0;30241;16725;3414;David A. Hager;President, Chief Executive Officer &  Director;Energy;Mining, Crude-Oil Production;17;Oklahoma City;OK;35.4675602;-97.5164276
214;AES;194;1385;-3,1;-1161;0;33112;751;105;Andr?s R. Gluski;President, Chief Executive Officer &  Director;Energy;Utilities: Gas and Electric;18;Arlington;VA;38.8816208;-77.0909809
215;Ecolab;211;13838;5,2;1508,4;22,7;19962;39524;484;Douglas M. Baker Jr.;Chairman &  Chief Executive Officer;Chemicals;Chemicals;16;St Paul;MN;44.9537029;-93.0899578
216;Land O'Lakes;209;1374;3,8;314,2;28,3;9509;0;10;Christopher J. Policinski;President, Chief Executive Officer &  Director;Food, Beverages &  Tobacco;Food Consumer Products;16;Arden Hills;MN;45.0502435;-93.1566112
217;Loews;213;13735;4,8;1164;78;79586;16134;181;James S. Tisch;President, Chief Executive Officer &  Director;Financials;Insurance: Property and Casualty (Stock);24;New York;NY;40.7127753;-74.0059728
218;Kinder Morgan;215;13705;5;183;-74,2;79055;33223;10897;Steven J. Kean;President, Chief Executive Officer &  Director;Energy;Pipelines;15;Houston;TX;29.7604267;-95.3698028
219;FirstEnergy;196;13627;-3,7;-1724;0;42257;16175;15617;Charles E. Jones;President, Chief Executive Officer &  Director;Energy;Utilities: Gas and Electric;23;Akron;OH;41.0814447;-81.5190053
220;Occidental Petroleum;278;13274;27,7;1311;0;42026;49738;11;Vicki A. Hollub;President, Chief Executive Officer &  Director;Energy;Mining, Crude-Oil Production;24;Houston;TX;29.7604267;-95.3698028
221;Viacom;224;13263;6,2;1874;30,3;23698;12919;112;Robert M. Bakish;President, Chief Executive Officer &  Director;Media;Entertainment;13;New York;NY;40.7127753;-74.0059728
222;PayPal Holdings;264;13094;20,8;1795;28,1;40774;91056;187;Daniel H. Schulman;President, Chief Executive Officer &  Director;Business Services;Financial Data Services;3;San Jose;CA;37.3382082;-121.8863286
223;NGL Energy Partners;237;13022;10,9;137;0;632;1332;27;H. Michael Krimbill;Chief Executive Officer &  Director;Energy;Energy;4;Tulsa;OK;36.1539816;-95.992775
224;Celgene;254;13003;15,8;2940;47,1;30141;67102;7467;Mark J. Alles;Chairman &  Chief Executive Officer;Health Care;Pharmaceuticals;7;Summit;NJ;40.7146376;-74.3646122
225;Arconic;228;1296;4,6;-74;0;18718;11124;415;Charles P. Blankenship;Chairman &  Chief Executive Officer;Aerospace &  Defense;Aerospace and Defense;24;New York;NY;40.7127753;-74.0059728
226;Kellogg;216;12923;-0,7;1269;82,9;1635;22532;32944;Steven A. Cahillane;Chairman, President &  Chief Executive Officer;Food, Beverages &  Tobacco;Food Consumer Products;24;Battle Creek;MI;42.3211522;-85.1797142
227;Las Vegas Sands;249;12882;12,9;2806;68;20687;56721;505;Sheldon G. Adelson;Chairman &  Chief Executive Officer;Hotels, Restaurants &  Leisure;Hotels, Casinos, Resorts;9;Las Vegas;NV;36.1699412;-115.1398296
228;Stanley Black & Decker;250;12747;11,7;1226;27;1908;2361;57765;James M. Loree;President, Chief Executive Officer &  Director;Household Products;Home Equipment, Furnishings;11;New Britain;CT;41.6612104;-72.7795419
229;Booking Holdings;268;12681;18;2340,8;9,6;25451;100459;229;Glenn D. Fogel;President, Chief Executive Officer &  Director;Technology;Internet Services and Retailing;6;Norwalk;CT;41.117744;-73.4081575
230;Lennar;260;12646;15,5;810,5;-11,1;18745;18738;9111;Richard Beckwitt;Chief Executive Officer &  Director;Engineering &  Construction;Homebuilders;14;Miami;FL;25.7616798;-80.1917902
231;L Brands;220;12632;0,5;983;-15,1;8149;10655;592;Leslie H. Wexner;Chairman, President &  Chief Executive Officer;Retailing;Specialty Retailers: Apparel;24;Columbus;OH;39.9611755;-82.9987942
232;DTE Energy;272;12607;18,6;1134;30,6;33767;1876;102;Gerard M. Anderson;Chairman &  Chief Executive Officer;Energy;Utilities: Gas and Electric;24;Detroit;MI;42.331427;-83.0457538
233;Dominion Energy;238;12586;7,2;2999;41,3;76585;45344;16200;Thomas F. Farrell II;Chairman, President &  Chief Executive Officer;Energy;Utilities: Gas and Electric;24;Richmond;VA;37.5407246;-77.4360481
234;Reinsurance Group of America;246;12516;8,6;1822,2;159,8;60515;993;264;Anna Manning;President, Chief Executive Officer &  Director;Financials;Insurance: Life, Health (stock);9;Chesterfield;MO;38.6631083;-90.5770675
235;J.C. Penney;221;12506;-0,3;-116;-11700;8413;943;98;Jeffrey A. Davis/Joseph M. McFarland/Therace M. Risch;Chairman &  Chief Executive Officer;Retailing;General Merchandisers;24;Plano;TX;33.0198431;-96.6988856
236;Mastercard;267;12497;16;3915;-3,5;21329;184161;134;Ajay Banga;President, Chief Executive Officer &  Director;Business Services;Financial Data Services;10;Harrison;NY;41.0400135;-73.7144477
237;BlackRock;255;12491;12;4970;56,7;220217;87065;139;Laurence D. Fink;Chairman &  Chief Executive Officer;Financials;Securities;11;New York;NY;40.7127753;-74.0059728
238;Henry Schein;243;12462;7,7;406,3;-19,8;7811;1033;22;Stanley M. Bergman;Chairman &  Chief Executive Officer;Wholesalers;Wholesalers: Health Care;15;Melville;NY;40.7934322;-73.4151214
239;Guardian Life Ins. Co. of America;218;12455;-3,6;455,3;72,5;75038;0;9283;Deanna M. Mulligan;President, Chief Executive Officer &  Director;Financials;Insurance: Life, Health (Mutual);24;New York;NY;40.7127753;-74.0059728
240;Stryker;252;12444;9,9;1020;-38,1;22197;60041;33;Kevin A. Lobo;Chairman &  Chief Executive Officer;Health Care;Medical Products and Equipment;16;Kalamazoo;MI;42.2917069;-85.5872286
241;Jefferies Financial Group;262;12408;14,1;171,7;32,1;47169;8098;127;Richard B. Handler;Chairman &  Chief Executive Officer;Financials;Diversified Financials;6;New York;NY;40.7127753;-74.0059728
242;VF;230;124;1,6;614,9;-42,8;9959;29403;69;Steven E. Rendle;Chairman, President &  Chief Executive Officer;Apparel;Apparel;24;Greensboro;NC;36.0726354;-79.7919754
243;ADP;240;1238;6,1;1733,4;16,1;3718;50302;58;Carlos A. Rodriguez;President, Chief Executive Officer &  Director;Business Services;Diversified Outsourcing Services;24;Roseland;NJ;40.8206555;-74.2937594
244;Edison International;235;1232;3,8;565;-56,9;5258;20741;12521;Pedro J. Pizarro;President, Chief Executive Officer &  Director;Energy;Utilities: Gas and Electric;24;Rosemead;CA;34.0805651;-118.072846
245;Biogen;248;12274;7,2;2539,1;-31,4;23653;5793;73;Michel Vounatsos;Chairman &  Chief Executive Officer;Health Care;Pharmaceuticals;9;Cambridge;MA;42.3736158;-71.1097335
246;United States Steel;279;1225;19,4;387;0;9862;62;292;David B. Burritt;President, Chief Executive Officer &  Director;Materials;Metals;16;Pittsburgh;PA;40.4406248;-79.9958864
247;Core-Mark Holding;247;12225;6,2;33,5;-38,2;1783;981;8413;Thomas B. Perkins;Chairman &  Chief Executive Officer;Wholesalers;Wholesalers: Food and Grocery;9;South San Francisco;CA;37.654656;-122.4077498
248;Bed Bath & Beyond;233;12216;0,9;685,1;-18,6;6846;2989;65;Steven H. Temares;Chief Executive Officer &  Director;Retailing;Specialty Retailers: Other;15;Union;NJ;40.6975898;-74.2631635
249;Oneok;312;12174;36,5;387,8;10,2;16846;23373;247;Terry K. Spencer;President, Chief Executive Officer &  Director;Energy;Pipelines;16;Tulsa;OK;36.1539816;-95.992775
250;BB& T Corp.;245;12156;5,4;2394;-1,3;221642;40454;36484;Kelly S. King;Chairman &  Chief Executive Officer;Financials;Commercial Banks;20;Winston-Salem;NC;36.0998596;-80.244216
251;Becton Dickinson;225;12093;-3,1;1100;12,7;37734;57695;41933;Vincent A. Forlenza;Chairman &  Chief Executive Officer;Health Care;Medical Products and Equipment;24;Franklin Lakes;NJ;41.0167639;-74.2057011
252;Ameriprise Financial;239;12075;2,9;1480;12,6;14747;21613;13312;James M. Cracchiolo;Chairman &  Chief Executive Officer;Financials;Diversified Financials;12;Minneapolis;MN;44.977753;-93.2650108
253;Farmers Insurance Exchange;222;12072;-3,5;-65,4;0;16165;0;13015;Jeffrey J. Dailey;President, Chief Executive Officer &  Director;Financials;Insurance: Property and Casualty (Mutual);4;Los Angeles;CA;34.165357;-118.6089752
254;First Data;242;12052;4;1465;248,8;48269;14865;22;Frank J. Bisignano;Chairman &  Chief Executive Officer;Business Services;Financial Data Services;24;New York;NY;40.7127753;-74.0059728
255;Consolidated Edison;234;12033;-0,3;1525;22,5;48111;24192;15591;John McAvoy;Chairman, President &  Chief Executive Officer;Energy;Utilities: Gas and Electric;24;New York;NY;40.7127753;-74.0059728
256;Parker-Hannifin;251;12029;5,9;983,4;21,9;1549;22755;5669;Thomas L. Williams;Chairman &  Chief Executive Officer;Industrials;Industrial Machinery;24;Cleveland;OH;41.49932;-81.6943605
257;Anadarko Petroleum;344;11908;51,3;-456;0;42086;31131;44;R. A. Walker;Chairman, President &  Chief Executive Officer;Energy;Mining, Crude-Oil Production;18;The Woodlands;TX;30.1658207;-95.4612625
258;Estee Lauder;253;11824;5;1249;12,1;11568;55064;46;Fabrizio Freda;President, Chief Executive Officer &  Director;Household Products;Household and Personal Products;23;New York;NY;40.7127753;-74.0059728
259;State Street Corp.;271;11774;10,7;2177;1,6;238425;36688;36643;Joseph L. Hooley;Chairman &  Chief Executive Officer;Financials;Commercial Banks;23;Boston;MA;42.3600825;-71.0588801
260;Tesla;383;11759;68;-1961,4;0;28655;44955;37543;Elon Musk;Chairman &  Chief Executive Officer;Motor Vehicles &  Parts;Motor Vehicles and Parts;2;Palo Alto;CA;37.4418834;-122.1430195
261;Netflix;314;11693;32,4;558,9;199,4;19013;128167;51;Reed Hastings;Chairman, President &  Chief Executive Officer;Technology;Internet Services and Retailing;4;Los Gatos;CA;37.2358078;-121.9623751
262;Alcoa;300;11652;25;217;0;17447;8372;146;Roy C. Harvey;President, Chief Executive Officer &  Director;Materials;Metals;2;Pittsburgh;PA;40.4406248;-79.9958864
263;Discover Financial Services;277;11545;10;2099;-12,3;100087;25431;165;David W. Nelms;Chairman &  Chief Executive Officer;Financials;Commercial Banks;10;Riverwoods;IL;42.1675254;-87.897014
264;Praxair;275;11437;8,6;1247;-16,9;20436;41434;26461;Stephen F. Angel;Chairman &  Chief Executive Officer;Chemicals;Chemicals;24;Danbury;CT;41.394817;-73.4540111
265;CSX;257;11408;3,1;5471;219,2;35739;49428;24006;James M. Foote;President, Chief Executive Officer &  Director;Transportation;Railroads;24;Jacksonville;FL;30.3321838;-81.655651
266;Xcel Energy;256;11404;2,7;1148;2,2;4303;23107;11105;Benjamin G.S. Fowke III;Chairman, President &  Chief Executive Officer;Energy;Utilities: Gas and Electric;22;Minneapolis;MN;44.977753;-93.2650108
267;Unum Group;258;11287;2,2;994,2;6,7;64013;1053;94;Richard P. McKenney;President, Chief Executive Officer &  Director;Financials;Insurance: Life, Health (stock);23;Chattanooga;TN;35.0456297;-85.3096801
268;Universal Health Services;276;11279;7,3;752,3;7,1;10762;11163;723;Alan B. Miller;Chairman &  Chief Executive Officer;Health Care;Health Care: Medical Facilities;15;King of Prussia;PA;40.1012856;-75.3835525
269;NRG Energy;229;11275;-8,7;-2153;0;23318;9698;594;Mauricio Gutierrez;President, Chief Executive Officer &  Director;Energy;Energy;12;Princeton;NJ;40.3572976;-74.6672226
270;EOG Resources;356;11208;46,5;2582,6;0;29833;60913;2664;William R. Thomas;Chairman &  Chief Executive Officer;Energy;Mining, Crude-Oil Production;10;Houston;TX;29.7604267;-95.3698028
271;Sempra Energy;280;11207;10,1;256;-81,3;50454;29351;16046;J. Walker Martin;Chairman &  Chief Executive Officer;Energy;Utilities: Gas and Electric;20;San Diego;CA;32.715738;-117.1610838
272;Toys 'R'?Us;244;11146;-3,4;-612;0;7262;0;65;David A. Brandon;Chairman &  Chief Executive Officer;Retailing;Specialty Retailers: Other;24;Wayne;NJ;40.9253725;-74.2765441
273;Group 1 Automotive;261;11124;2,2;213,4;45,1;4871;1366;14108;Earl J. Hesterberg;President, Chief Executive Officer &  Director;Retailing;Automotive Retailing, Services;18;Houston;TX;29.7604267;-95.3698028
274;Entergy;263;11075;2,1;411,6;0;46707;14298;13504;Leo P. Denault;Chairman &  Chief Executive Officer;Energy;Utilities: Gas and Electric;24;New Orleans;LA;29.9510658;-90.0715323
275;Molson Coors Brewing;522;11003;125,2;1414,2;-28,4;30247;16238;172;Mark R. Hunter;President, Chief Executive Officer &  Director;Food, Beverages &  Tobacco;Beverages;8;Denver;CO;39.7392358;-104.990251
276;L3 Technologies;273;11002;3,8;677;-4,6;12729;16283;38;Christopher E. Kubasik;President, Chief Executive Officer &  Director;Aerospace &  Defense;Aerospace and Defense;16;New York;NY;40.7127753;-74.0059728
277;Ball;306;10983;21,2;374;42,2;17169;1392;183;John A. Hayes;Chairman, President &  Chief Executive Officer;Materials;Packaging, Containers;22;Broomfield;CO;39.9205411;-105.0866504
278;AutoZone;270;10889;2,4;1280,9;3,2;926;1745;70035;William C. Rhodes III;Chairman, President &  Chief Executive Officer;Retailing;Specialty Retailers: Other;20;Memphis;TN;35.1495343;-90.0489801
279;Murphy USA;291;10853;12,7;245,3;10,7;2331;244;69;R. Andrew Clyde;President, Chief Executive Officer &  Director;Retailing;Specialty Retailers: Other;5;El Dorado;AR;33.20763;-92.6662674
280;MGM Resorts International;297;10774;13,9;1960,3;78;29159;19844;685;James J. Murren;Chairman &  Chief Executive Officer;Hotels, Restaurants &  Leisure;Hotels, Casinos, Resorts;18;Las Vegas;NV;36.1699412;-115.1398296
281;Office Depot;203;10752;-20,9;181;-65,8;6323;1195;45;Gerry P. Smith;Chairman &  Chief Executive Officer;Retailing;Specialty Retailers: Other;24;Boca Raton;FL;26.3683064;-80.1289321
282;Huntsman;289;10592;9,7;636;95,1;10244;709;10;Peter R. Huntsman;Chairman, President &  Chief Executive Officer;Chemicals;Chemicals;13;The Woodlands;TX;30.1658207;-95.4612625
283;Baxter International;281;10561;3,9;717;-85,6;17111;34979;47;Jos? E. Almeida;Chairman, President &  Chief Executive Officer;Health Care;Medical Products and Equipment;24;Deerfield;IL;42.1711365;-87.8445119
284;Norfolk Southern;284;10551;6,7;5404;224;35711;41226;2711;James A. Squires;Chairman, President &  Chief Executive Officer;Transportation;Railroads;24;Norfolk;VA;36.8507689;-76.2858726
285;salesforce.com;326;1048;24,9;127,5;-29;2101;85074;29;Marc R. Benioff;Chairman &  Chief Executive Officer;Technology;Computer Software;4;SF;CA;37.7749295;-122.4194155
286;Laboratory Corp. of America;290;10441;8,3;1268,2;73,2;16568;16482;60;David P. King;Chairman, President &  Chief Executive Officer;Health Care;Health Care: Pharmacy and Other Services;9;Burlington;NC;36.0956918;-79.4377991
287;W.W. Grainger;282;10425;2,8;585,7;-3,3;5804;15823;2505;Donald G. MacPherson;Chairman &  Chief Executive Officer;Wholesalers;Wholesalers: Diversified;24;Lake Forest;IL;42.2586342;-87.840625
288;Qurate Retail;269;10404;-2,3;2441;97,7;24122;12587;28255;Gregory B. Maffei;Chairman;Retailing;Internet Services and Retailing;14;Englewood;CO;39.6477653;-104.9877597
289;Autoliv;283;10383;3,1;427,1;-24,7;855;1271;67352;Jan Carlson;Chairman, President &  Chief Executive Officer;Motor Vehicles &  Parts;Motor Vehicles and Parts;20;Auburn Hills;MI;42.6875323;-83.2341028
290;Live Nation Entertainment;330;10337;23,7;-6;-304,5;7504;8772;1505;Michael Rapino;President, Chief Executive Officer &  Director;Media;Entertainment;9;Beverly Hills;CA;34.0736204;-118.4003563
291;Xerox;162;10265;-40,1;195;0;15946;733;361;John Visentin;Chairman &  Chief Executive Officer;Technology;Computers, Office Equipment;24;Norwalk;CT;41.117744;-73.4081575
292;Leidos Holdings;381;1017;44,4;366;50;899;9918;31;Roger A. Krone;Chairman &  Chief Executive Officer;Technology;Information Technology Services;18;Reston;VA;38.9586307;-77.3570028
293;Corning;298;10116;7,7;-497;-113,5;27494;23677;462;Wendell P. Weeks;Chairman, President &  Chief Executive Officer;Industrials;Electronics, Electrical Equip.;23;Corning;NY;42.1428521;-77.0546903
294;Lithia Motors;318;10087;16,2;245,2;24,4;4683;2515;12899;Bryan B. DeBoer;President, Chief Executive Officer &  Director;Retailing;Automotive Retailing, Services;4;Medford;OR;42.3265152;-122.8755949
295;Expedia Group;317;1006;14,7;378;34,1;18516;16764;22615;Mark D. Okerstrom;President, Chief Executive Officer &  Director;Retailing;Internet Services and Retailing;4;Bellevue;WA;47.6101497;-122.2015159
296;Republic Services;299;10042;7;1278,4;108,7;21147;21832;35;Donald W. Slager;President, Chief Executive Officer &  Director;Business Services;Waste Management;9;Phoenix;AZ;33.4483771;-112.0740373
297;Jacobs Engineering Group;259;10023;-8,6;293,7;39,6;7381;838;4975;Steven J. Demetriou;Chairman, President &  Chief Executive Officer;Engineering &  Construction;Engineering, Construction;18;Dallas;TX;32.7766642;-96.7969879
298;Sonic Automotive;287;9867;1,4;93;-0,2;3819;804;975;B. Scott Smith;President, Chief Executive Officer &  Director;Retailing;Automotive Retailing, Services;19;Charlotte;NC;35.2270869;-80.8431267
299;Ally Financial;286;9866;0,3;929;-12,9;167148;11767;79;Jeffrey J. Brown;Chairman &  Chief Executive Officer;Financials;Diversified Financials;11;Detroit;MI;42.331427;-83.0457538
300;LKQ;304;9848;8,4;533,7;15;9367;1175;43;Dominick P. Zarcone;President, Chief Executive Officer &  Director;Wholesalers;Wholesalers: Diversified;5;Chicago;IL;41.8781136;-87.6297982
301;BorgWarner;305;9799;8;439,9;271,2;9788;10586;29;James R. Verrier;President, Chief Executive Officer &  Director;Motor Vehicles &  Parts;Motor Vehicles and Parts;12;Auburn Hills;MI;42.6875323;-83.2341028
302;Fidelity National Financial;293;9769;2,3;771;18,6;9151;10983;24525;Raymond R. Quirk;Chairman &  Chief Executive Officer;Financials;Insurance: Property and Casualty (Stock);11;Jacksonville;FL;30.3321838;-81.655651
303;SunTrust Banks;303;9741;6,3;2273;21;205962;31863;23785;William H. Rogers Jr.;Chairman &  Chief Executive Officer;Financials;Commercial Banks;24;Atlanta;GA;33.7489954;-84.3879824
304;IQVIA Holdings;390;9739;41,6;1309;1038,3;22742;20433;55000;Ari Bousbib;Chairman, President &  Chief Executive Officer;Health Care;Health Care: Pharmacy and Other Services;5;Durham;NC;35.980513;-78.90511
305;Reliance Steel & Aluminum;320;9721;12,9;613,4;101,6;7751;6244;149;Gregg J. Mollins;President, Chief Executive Officer &  Director;Materials;Metals;12;Los Angeles;CA;34.0522342;-118.2436849
306;Nvidia;387;9714;40,6;3047;82,9;11241;140112;11528;Jen-Hsun Huang;President, Chief Executive Officer &  Director;Technology;Semiconductors and Other Electronic Components;2;Santa Clara;CA;37.3541079;-121.9552356
307;Voya Financial;266;966;-10,4;-2992;0;222532;8686;63;Rodney O. Martin Jr.;Chairman &  Chief Executive Officer;Financials;Diversified Financials;4;New York;NY;40.7127753;-74.0059728
308;CenterPoint Energy;362;9614;27,7;1792;314,8;22736;11822;7977;Scott M. Prochazka;President, Chief Executive Officer &  Director;Energy;Utilities: Gas and Electric;24;Houston;TX;29.7604267;-95.3698028
309;eBay;310;9567;6,5;-1016;-114;25981;40726;141;Devin N. Wenig;President, Chief Executive Officer &  Director;Technology;Internet Services and Retailing;13;San Jose;CA;37.3382082;-121.8863286
310;Eastman Chemical;309;9549;6;1384;62,1;15999;15073;14;Mark J. Costa;Chairman &  Chief Executive Officer;Chemicals;Chemicals;24;Kingsport;TN;36.548434;-82.5618186
311;American Family Insurance Group;315;9545;8,1;155,6;-52,2;24233;0;11307;Jack C. Salzwedel;Chairman &  Chief Executive Officer;Financials;Insurance: Property and Casualty (Stock);22;Madison;WI;43.0730517;-89.4012302
312;Steel Dynamics;347;9539;22,7;812,7;112,7;6856;10444;7635;Mark D. Millett;President, Chief Executive Officer &  Director;Materials;Metals;9;Fort Wayne;IN;41.079273;-85.1393513
313;Pacific Life;302;951;3,7;1365;65,7;157877;0;3578;James T. Morris;Chairman, President &  Chief Executive Officer;Financials;Insurance: Life, Health (stock);22;Newport Beach;CA;33.6188829;-117.9298493
314;Chesapeake Energy;343;9496;20,6;949;0;12425;2746;32;Robert D. Lawler;President, Chief Executive Officer &  Director;Energy;Mining, Crude-Oil Production;13;Oklahoma City;OK;35.4675602;-97.5164276
315;Mohawk Industries;311;9491;5,9;971,6;4,4;12095;17283;388;Jeffrey S. Lorberbaum;Chairman &  Chief Executive Officer;Household Products;Home Equipment, Furnishings;19;Calhoun;GA;34.502587;-84.9510542
316;Quanta Services;355;9467;23,7;315;58,8;648;5281;328;Earl C. Austin Jr.;President, Chief Executive Officer &  Director;Engineering &  Construction;Engineering, Construction;6;Houston;TX;29.7604267;-95.3698028
317;Advance Auto Parts;292;9374;-2;475,5;3,5;8482;877;555;Thomas R. Greco;President, Chief Executive Officer &  Director;Retailing;Specialty Retailers: Other;16;Roanoke;VA;37.2709704;-79.9414266
318;Owens & Minor;288;9318;-4,2;72,8;-33,1;3376;961;86;P. Cody Phipps;Chairman, President &  Chief Executive Officer;Wholesalers;Wholesalers: Health Care;24;Mechanicsville;VA;37.6087561;-77.3733139
319;United Natural Foods;325;9275;9,5;130,2;3,5;2887;2165;97;Steven L. Spinner;Chairman, President &  Chief Executive Officer;Wholesalers;Wholesalers: Food and Grocery;6;Providence;RI;41.8239891;-71.4128343
320;Tenneco;322;9274;7,8;207;-41,9;4842;2822;32;Brian J. Kesseler;Chief Executive Officer &  Director;Motor Vehicles &  Parts;Motor Vehicles and Parts;24;Lake Forest;IL;42.2586342;-87.840625
321;Conagra Brands;197;9235;-34,7;639,3;0;10096;14776;126;Sean M. Connolly;President, Chief Executive Officer &  Director;Food, Beverages &  Tobacco;Food Consumer Products;24;Chicago;IL;41.8781136;-87.6297982
322;GameStop;321;9225;7,2;34,7;-90,2;5042;1279;395;Shane S. Kim;Interim Chief Executive Officer;Retailing;Specialty Retailers: Other;12;Grapevine;TX;32.9342919;-97.0780654
323;Hormel Foods;295;9168;-3,7;846,7;-4,9;6976;18174;202;James P. Snee;Chairman, President &  Chief Executive Officer;Food, Beverages &  Tobacco;Food Consumer Products;24;Austin;MN;43.6666296;-92.9746367
324;Hilton Worldwide Holdings;241;914;-21,6;1259;261,8;14308;24957;163;Christopher J. Nassetta;President, Chief Executive Officer &  Director;Hotels, Restaurants &  Leisure;Hotels, Casinos, Resorts;15;McLean;VA;38.9338676;-77.1772604
325;Frontier Communications;313;9128;2,6;-1804;0;24884;582;22736;Daniel J. McCarthy;President, Chief Executive Officer &  Director;Telecommunications;Telecommunications;5;Norwalk;CT;41.117744;-73.4081575
326;Fidelity National Information Services;301;9123;-1,3;1319;132,2;24517;31893;53;Gary A. Norcross;President, Chief Executive Officer &  Director;Business Services;Financial Data Services;9;Jacksonville;FL;30.3321838;-81.655651
327;Public Service Enterprise Group;306;9084;0,3;1574;77,5;42716;25359;12945;Ralph Izzo;Chairman, President &  Chief Executive Officer;Energy;Utilities: Gas and Electric;24;Newark;NJ;40.735657;-74.1723667
328;Boston Scientific;327;9048;7,9;104;-70;19042;37688;29;Michael F. Mahoney;Chairman, President &  Chief Executive Officer;Health Care;Medical Products and Equipment;15;Marlboro;MA;42.3459271;-71.5522874
329;OReilly Automotive;323;8978;4,5;1133,8;9,3;7572;20607;60365;Gregory D. Johnson;President, Chief Executive Officer &  Director;Retailing;Specialty Retailers: Other;9;Springfield;MO;37.2089572;-93.2922989
330;Charles Schwab;357;896;17,2;2354;24,6;243274;70313;176;Walter W. Bettinger II;President, Chief Executive Officer &  Director;Financials;Securities;20;SF;CA;37.7749295;-122.4194155
331;Global Partners;334;8921;8,3;58,8;0;232;522;2;Eric Slifka;President, Chief Executive Officer &  Director;Wholesalers;Wholesalers: Diversified;12;Waltham;MA;42.3764852;-71.2356113
332;PVH;335;8915;8,7;537,8;-2;11886;11649;2805;Emanuel Chirico;Chairman &  Chief Executive Officer;Apparel;Apparel;8;New York;NY;40.7127753;-74.0059728
333;Avis Budget Group;319;8848;2,2;361;121,5;17699;3792;263;Larry D. De Shon;President, Chief Executive Officer &  Director;Retailing;Automotive Retailing, Services;21;Parsippany-Troy Hills;NJ;40.8652865;-74.4173877
334;Targa Resources;402;8815;31,7;54;0;14389;9629;213;Joe Bob Perkins;Chairman &  Chief Executive Officer;Energy;Pipelines;10;Houston;TX;29.7604267;-95.3698028
335;Hertz Global Holdings;296;8803;-7,1;327;0;20058;1662;37;Kathryn V. Marinello;President, Chief Executive Officer &  Director;Retailing;Automotive Retailing, Services;11;Estero;FL;26.438136;-81.8067523
336;Calpine;400;8752;30,3;-339;-468,5;16453;0;229;John B. Hill III;President, Chief Executive Officer &  Director;Energy;Energy;17;Houston;TX;29.7604267;-95.3698028
337;Mutual of Omaha Insurance;342;8732;10,6;862,6;141,9;42429;0;5896;James T. Blackledge;Chairman, President &  Chief Executive Officer;Financials;Insurance: Life, Health (stock);22;Omaha;NE;41.2565369;-95.9345034
338;Crown Holdings;333;8698;5;323;-34,9;10663;6816;24342;Timothy J. Donahue;President, Chief Executive Officer &  Director;Materials;Packaging, Containers;24;Philadelphia;PA;39.9525839;-75.1652215
339;Peter Kiewit Sons;324;8678;1,2;371;-6,3;571;0;22;Bruce E. Grewcock;President, Chief Executive Officer &  Director;Engineering &  Construction;Engineering, Construction;19;Omaha;NE;41.2565369;-95.9345034
340;Dicks Sporting Goods;340;8591;8,4;323,4;12,5;4204;3765;303;Edward W. Stack;Chairman &  Chief Executive Officer;Retailing;Specialty Retailers: Other;9;Coraopolis;PA;40.5184013;-80.1667247
341;PulteGroup;353;8573;11,8;447,2;-25,8;9687;8439;481;Ryan R. Marshall;President, Chief Executive Officer &  Director;Engineering &  Construction;Homebuilders;16;Atlanta;GA;33.7489954;-84.3879824
342;Navistar International;337;857;5,7;30;0;6135;3451;114;Troy A. Clarke;Chairman, President &  Chief Executive Officer;Industrials;Construction and Farm Machinery;22;Lisle;IL;41.801141;-88.0747875
343;Thrivent Financial for Lutherans;316;8528;-2,8;558,4;-5;95001;0;3622;Bradford L. Hewitt;Chief Executive Officer &  Director;Financials;Insurance: Life, Health (Mutual);24;Minneapolis;MN;44.977753;-93.2650108
344;DCP Midstream;;8462;465,3;229;-26,6;13878;5033;265;Wouter T. van Kempen;Chairman, President &  Chief Executive Officer;Energy;Pipelines;1;Denver;CO;39.7392358;-104.990251
345;Air Products & Chemicals;294;8442;-11,4;3000,4;375,4;18467;34818;1515;Seifi Ghasemi;Chairman, President &  Chief Executive Officer;Chemicals;Chemicals;24;Allentown;PA;40.6022939;-75.4714098
346;Veritiv;331;8365;0,5;-13,3;-163,3;2708;617;89;Mary A. Laschinger;Chairman &  Chief Executive Officer;Wholesalers;Wholesalers: Diversified;3;Atlanta;GA;33.7489954;-84.3879824
347;AGCO;370;8307;12,1;186,4;16,4;7972;5157;20462;Martin H. Richenhagen;Chairman, President &  Chief Executive Officer;Industrials;Construction and Farm Machinery;17;Duluth;GA;34.0028786;-84.1446376
348;Genworth Financial;329;8295;-0,9;817;0;105297;1413;35;Thomas J. McInerney;President, Chief Executive Officer &  Director;Financials;Insurance: Life, Health (stock);13;Richmond;VA;37.5407246;-77.4360481
349;Univar;338;8254;2,2;119,8;0;5733;392;86;David C. Jukes;President, Chief Executive Officer &  Director;Wholesalers;Wholesalers: Diversified;3;Downers Grove;IL;41.8089191;-88.0111746
350;News Corp.;332;8139;-2,2;-738;-512,3;14552;9272;26;Robert J. Thomson;Chairman &  Chief Executive Officer;Media;Publishing, Printing;4;New York;NY;40.7127753;-74.0059728
351;SpartanNash;350;8128;5,1;-52,8;-193;2056;620;1195;David M. Staples;President, Chief Executive Officer &  Director;Wholesalers;Wholesalers: Food and Grocery;8;Byron Center;MI;42.8122508;-85.7228061
352;Westlake Chemical;507;8041;58,4;1304;226,9;12076;14385;8799;Albert Yuan Chao;President, Chief Executive Officer &  Director;Chemicals;Chemicals;1;Houston;TX;29.7604267;-95.3698028
353;Williams;367;8031;7,1;2174;0;46352;20567;5425;Alan S. Armstrong;President, Chief Executive Officer &  Director;Energy;Energy;24;Tulsa;OK;36.1539816;-95.992775
354;Lam Research;440;8014;36,1;1697,8;85,7;12123;33105;94;Martin B. Anstice;Chairman &  Chief Executive Officer;Technology;Semiconductors and Other Electronic Components;3;Fremont;CA;37.5482697;-121.9885719
355;Alaska Air Group;438;7933;33,8;1034;27;1074;7646;23156;Bradley D. Tilden;Chairman, President &  Chief Executive Officer;Transportation;Airlines;5;Seattle;WA;47.6062095;-122.3320708
356;Jones Lang LaSalle;391;7932;16,6;254,2;-20,1;8015;793;819;Christian Ulbrich;President, Chief Executive Officer &  Director;Financials;Real estate;4;Chicago;IL;41.8781136;-87.6297982
357;Anixter International;359;7927;4;109;-9,5;4252;2522;89;Robert J. Eck;Chairman &  Chief Executive Officer;Wholesalers;Wholesalers: Electronics and Office Equipment;16;Glenview;IL;42.0697509;-87.7878408
358;Campbell Soup;339;789;-0,9;887;57,5;7726;13021;18;Denise M. Morrison;President, Chief Executive Officer &  Director;Food, Beverages &  Tobacco;Food Consumer Products;24;Camden;NJ;39.9259463;-75.1196199
359;Interpublic Group;345;7882;0,5;579;-4,8;12695;8854;502;Michael I. Roth;Chairman &  Chief Executive Officer;Business Services;Advertising, marketing;21;New York;NY;40.7127753;-74.0059728
360;Dover;392;783;15,2;811,7;59,5;10658;15183;29;Richard J. Tobin;President, Chief Executive Officer &  Director;Industrials;Industrial Machinery;24;Downers Grove;IL;41.8089191;-88.0111746
361;Zimmer Biomet Holdings;352;7824;1,8;1813,8;492,9;25965;22151;182;Bryan C. Hanson;President, Chief Executive Officer &  Director;Health Care;Medical Products and Equipment;3;Warsaw;IN;41.2381;-85.8530469
362;Dean Foods;351;7795;1,1;61,6;-48,6;2504;787;16;Ralph P. Scozzafava;Chairman &  Chief Executive Officer;Food, Beverages &  Tobacco;Food Consumer Products;20;Dallas;TX;32.7766642;-96.7969879
363;Foot Locker;348;7782;0,2;284;-57,2;3961;5379;32175;Richard A. Johnson;Chairman, President &  Chief Executive Officer;Retailing;Specialty Retailers: Apparel;24;New York;NY;40.7127753;-74.0059728
364;Eversource Energy;358;7752;1,5;988;4,8;3622;18671;8084;James J. Judge;Chairman, President &  Chief Executive Officer;Energy;Utilities: Gas and Electric;23;Springfield;MA;42.1014831;-72.589811
365;Alliance Data Systems;378;7719;8,1;788,7;52,9;30685;11806;20;Edward J. Heffernan;President, Chief Executive Officer &  Director;Business Services;Financial Data Services;4;Plano;TX;33.0198431;-96.6988856
366;Fifth Third Bancorp;389;7713;12;2194;40,3;142193;21812;18125;Greg D. Carmichael;Chairman, President &  Chief Executive Officer;Financials;Commercial Banks;19;Cincinnati;OH;39.1031182;-84.5120196
367;Quest Diagnostics;366;7709;2,6;772;19,7;10503;13619;45;Stephen H. Rusckowski;Chairman, President &  Chief Executive Officer;Health Care;Health Care: Pharmacy and Other Services;18;Secaucus;NJ;40.7895453;-74.0565298
368;EMCOR Group;360;7688;1,8;227,2;24,9;3966;4549;32;Anthony J. Guzzi;President, Chief Executive Officer &  Director;Engineering &  Construction;Engineering, Construction;18;Norwalk;CT;41.117744;-73.4081575
369;W.R. Berkley;354;7685;0,4;549,1;-8,8;243;8836;7722;W. Robert Berkley Jr.;President, Chief Executive Officer &  Director;Financials;Insurance: Property and Casualty (Stock);15;Greenwich;CT;41.0262417;-73.6281964
370;WESCO International;373;7679;4,7;163,5;60,9;4736;292;91;John J. Engel;Chairman, President &  Chief Executive Officer;Wholesalers;Wholesalers: Diversified;20;Pittsburgh;PA;40.4406248;-79.9958864
371;Coty;558;765;75,9;-422,2;-369,1;22548;13723;22;Camillo Pane;Chairman &  Chief Executive Officer;Household Products;Household and Personal Products;1;New York;NY;40.7127753;-74.0059728
372;WEC Energy Group;368;7649;2,4;1203,7;28,2;31591;19784;8129;Gale E. Klappa;Chairman &  Chief Executive Officer;Energy;Utilities: Gas and Electric;9;Milwaukee;WI;43.0389025;-87.9064736
373;Masco;372;7644;3,9;533;8,6;5488;1259;26;Keith J. Allman;President, Chief Executive Officer &  Director;Household Products;Home Equipment, Furnishings;24;Livonia;MI;42.36837;-83.3527097
374;DXC Technology;;7607;7,1;-123;-149;8663;2872;60;J. Michael Lawrie;Chairman, President &  Chief Executive Officer;Technology;Information Technology Services;1;Tysons;VA;38.9187222;-77.2310925
375;Auto-Owners Insurance;398;7604;12,2;645,7;-8,6;23694;0;5227;Jeffrey S. Tagsold;Chief Executive Officer &  Director;Financials;Insurance: Property and Casualty (Mutual);16;Lansing;MI;42.732535;-84.5555347
376;Jones Financial (Edward Jones);403;7597;14,6;872;16,9;17176;0;45000;James D. Weddle;Chief Executive Officer &  Managing Partner;Financials;Securities;6;Des Peres;MO;38.59722;-90.448126
377;Liberty Media;491;7594;43,9;1354;99,1;41996;13816;4393;Gregory B. Maffei;President, Chief Executive Officer &  Director;Media;Entertainment;2;Englewood;CO;39.6477653;-104.9877597
378;Erie Insurance Group;382;7535;7,4;857,5;15,6;2067;0;526;Timothy G. NeCastro;Chief Executive Officer;Financials;Insurance: Property and Casualty (Mutual);15;Erie;PA;42.1292241;-80.085059
379;Hershey;369;7515;1;783;8,7;5554;20774;16135;Michele G. Buck;President, Chief Executive Officer &  Director;Food, Beverages &  Tobacco;Food Consumer Products;24;Hershey;PA;40.2859239;-76.6502468
380;PPL;365;7447;-0,9;1128;-40,7;41479;19635;12512;William H. Spence;Chairman, President &  Chief Executive Officer;Energy;Utilities: Gas and Electric;24;Allentown;PA;40.6022939;-75.4714098
381;Huntington Ingalls Industries;380;7441;5,3;479;-16,4;6374;11539;38;C. Michael Petters;President, Chief Executive Officer &  Director;Aerospace &  Defense;Aerospace and Defense;6;Newport News;VA;37.0870821;-76.4730122
382;Mosaic;377;7409;3,4;-107,2;-136;18633;9358;85;James C. O'Rourke;President, Chief Executive Officer &  Director;Chemicals;Chemicals;13;Plymouth;MN;45.0105194;-93.4555093
383;J.M. Smucker;346;7392;-5,4;592,3;-14;1564;14087;714;Mark T. Smucker;President, Chief Executive Officer &  Director;Food, Beverages &  Tobacco;Food Consumer Products;8;Orrville;OH;40.8436663;-81.7640212
384;Delek US Holdings;480;735;35,7;288,8;0;5935;3416;3941;Ezra Uzi Yemin;Chairman, President &  Chief Executive Officer;Energy;Petroleum Refining;4;Brentwood;TN;36.0331164;-86.7827772
385;Newmont Mining;328;7348;-12,3;-98;0;20563;20853;12569;Gary J. Goldberg;President, Chief Executive Officer &  Director;Energy;Mining, Crude-Oil Production;15;Greenwood Village;CO;39.6172101;-104.9508141
386;Constellation Brands;408;7332;12;1535,1;45,5;18602;44379;87;Robert S. Sands;Chairman &  Chief Executive Officer;Food, Beverages &  Tobacco;Beverages;6;Victor;NY;42.9825633;-77.4088794
387;Ryder System;394;733;8;790,6;201,2;11452;3867;361;Robert E. Sanchez;Chairman, President &  Chief Executive Officer;Transportation;Trucking, Truck Leasing;24;Miami;FL;25.7616798;-80.1917902
388;National Oilwell Varco;375;7304;0,7;-237;0;20206;13993;31605;Clay C. Williams;Chairman, President &  Chief Executive Officer;Energy;Oil and Gas Equipment, Services;13;Houston;TX;29.7604267;-95.3698028
389;Adobe Systems;443;7302;24,7;1694;44,9;14536;106413;17973;Shantanu Narayen;Chairman, President &  Chief Executive Officer;Technology;Computer Software;2;San Jose;CA;37.3382082;-121.8863286
390;LifePoint Health;374;7263;-0,1;102,4;-16;6286;1832;42;William F. Carpenter III;Chairman &  Chief Executive Officer;Health Care;Health Care: Medical Facilities;4;Brentwood;TN;36.0331164;-86.7827772
391;Tractor Supply;396;7256;7;422,6;-3,3;2869;7807;21;Gregory A. Sandfort;Chairman &  Chief Executive Officer;Retailing;Specialty Retailers: Other;5;Brentwood;TN;36.0331164;-86.7827772
392;Thor Industries;540;7247;58,2;374,3;45,9;2558;6069;178;Robert W. Martin;President, Chief Executive Officer &  Director;Motor Vehicles &  Parts;Motor Vehicles and Parts;1;Elkhart;IN;41.6819935;-85.9766671
393;Dana;447;7209;23,7;111;-82,7;5644;3741;301;James K. Kamsickas;President, Chief Executive Officer &  Director;Motor Vehicles &  Parts;Motor Vehicles and Parts;24;Maumee;OH;41.5628294;-83.6538244
394;Weyerhaeuser;341;7196;-8,9;582;-43,3;18059;26463;93;Doyle R. Simons;President, Chief Executive Officer &  Director;Materials;Forest and Paper Products;24;Seattle;WA;47.6062095;-122.3320708
395;J.B. Hunt Transport Services;407;719;9,7;686,3;58,8;4465;12858;24681;John N. Roberts III;President, Chief Executive Officer &  Director;Transportation;Trucking, Truck Leasing;6;Lowell;AR;36.2553543;-94.1307587
396;Darden Restaurants;385;717;3,4;479,1;27,8;5504;10531;178729;Eugene I. Lee Jr.;President, Chief Executive Officer &  Director;Hotels, Restaurants &  Leisure;Food Services;22;Orlando;FL;28.5383355;-81.3792365
397;Yum China Holdings;399;7144;5,8;403;-19,7;4263;16009;450;Joey Wat;Chairman &  Chief Executive Officer;Hotels, Restaurants &  Leisure;Food Services;2;Plano;TX;33.0198431;-96.6988856
398;Blackstone Group;503;7119;38,9;1470,8;41,5;34429;21058;236;Stephen A. Schwarzman;Chairman &  Chief Executive Officer;Financials;Diversified Financials;3;New York;NY;40.7127753;-74.0059728
399;Berry Global Group;413;7095;9,3;340;44,1;8476;7191;23;Thomas E. Salmon;Chairman &  Chief Executive Officer;Materials;Packaging, Containers;2;Evansville;IN;37.9715592;-87.5710898
400;Builders FirstSource;421;7034;10,5;38,8;-73,1;3006;2264;15;M. Chad Crow;President, Chief Executive Officer &  Director;Materials;Building Materials, Glass;2;Dallas;TX;32.7766642;-96.7969879
401;Activision Blizzard;406;7017;6,2;273;-71,7;18668;51177;98;Robert A. Kotick;Chairman &  Chief Executive Officer;Technology;Entertainment;2;Santa Monica;CA;34.0194543;-118.4911912
402;JetBlue Airways;403;7015;5,8;1147;51,1;9781;654;17424;Robin Hayes;President, Chief Executive Officer &  Director;Transportation;Airlines;6;;NY;40.744679;-73.9485424
403;Amphenol;424;7011;11,5;650,5;-21;10004;26311;70;R. Adam Norwitt;President, Chief Executive Officer &  Director;Technology;Network and Other Communications Equipment;4;Wallingford;CT;41.4570108;-72.8230736
404;A-Mark Precious Metals;395;699;3;7,1;-23,6;479;86;126;Gregory N. Roberts;Chairman &  Chief Executive Officer;Materials;Miscellaneous;4;El Segundo;CA;33.9191799;-118.4164652
405;Spirit AeroSystems Holdings;393;6983;2,8;354,9;-24,4;5268;9595;155;Thomas C. Gentile III;President, Chief Executive Officer &  Director;Aerospace &  Defense;Aerospace and Defense;4;Wichita;KS;37.6871761;-97.330053
406;R.R. Donnelley & Sons;388;694;0,6;-34,4;0;3905;612;427;Daniel L. Knotts;President, Chief Executive Officer &  Director;Media;Publishing, Printing;24;Chicago;IL;41.8781136;-87.6297982
407;Harris;363;6939;-7,8;553;70,7;1009;19149;17;William M. Brown;Chairman, President &  Chief Executive Officer;Aerospace &  Defense;Aerospace and Defense;14;Melbourne;FL;28.0836269;-80.6081089
408;Expeditors Intl. of Washington;429;6921;13,5;489,3;13,6;3117;11087;165;Jeffrey S. Musser;President, Chief Executive Officer &  Director;Transportation;Transportation and Logistics;11;Seattle;WA;47.6062095;-122.3320708
409;Discovery;412;6873;5,8;-337;-128,2;22555;11156;7;David M. Zaslav;President, Chief Executive Officer &  Director;Media;Entertainment;5;Silver Spring;MD;38.9906657;-77.026088
410;Owens-Illinois;401;6869;2,5;180;-13,9;9756;3538;265;Andres A. Lopez;President, Chief Executive Officer &  Director;Materials;Packaging, Containers;24;Perrysburg;OH;41.556996;-83.627157
411;Sanmina;414;6869;6;138,8;-26,1;3847;1863;4125;Robert K. Eulau;Chairman &  Chief Executive Officer;Technology;Semiconductors and Other Electronic Components;18;San Jose;CA;37.3382082;-121.8863286
412;KeyCorp;479;6868;26,7;1296;63,8;137698;2057;18415;Beth E. Mooney;Chairman, President &  Chief Executive Officer;Financials;Commercial Banks;20;Cleveland;OH;41.49932;-81.6943605
413;American Financial Group;411;6865;5,6;475;-26,8;60658;9923;76;Carl H. Lindner lll/S. Craig Lindner;President, Co-Chief Executive Officer &  Director;Financials;Insurance: Property and Casualty (Stock);19;Cincinnati;OH;39.1031182;-84.5120196
414;Oshkosh;425;683;8,8;285,6;32;5099;5768;14;Wilson R. Jones;President, Chief Executive Officer &  Director;Industrials;Construction and Farm Machinery;11;Oshkosh;WI;44.0247062;-88.5426136
415;Rockwell Collins;492;6822;29,7;705;-3,2;17997;22108;29;Robert K. Ortberg;Chairman, President &  Chief Executive Officer;Aerospace &  Defense;Aerospace and Defense;7;Cedar Rapids;IA;41.9778795;-91.6656232
416;Kindred Healthcare;376;6768;-6,4;-698,4;0;5233;836;642;Benjamin A. Breier;President, Chief Executive Officer &  Director;Health Care;Health Care: Medical Facilities;15;Louisville;KY;38.2526647;-85.7584557
417;Insight Enterprises;473;6704;22,2;90,7;7,1;2686;1252;6697;Kenneth T. Lamneck;President, Chief Executive Officer &  Director;Technology;Information Technology Services;10;Tempe;AZ;33.4255104;-111.9400054
418;Dr Pepper Snapple Group;416;669;3,9;1076;27;10022;21278;21;Larry D. Young;President, Chief Executive Officer &  Director;Food, Beverages &  Tobacco;Beverages;10;Plano;TX;33.0198431;-96.6988856
419;American Tower;449;6664;15,2;1238,9;29,5;33214;64073;4752;James D. Taiclet Jr.;Chairman, President &  Chief Executive Officer;Financials;Real estate;2;Boston;MA;42.3600825;-71.0588801
420;Fortive;;6656;0;1044,5;0;10501;26979;26;James A. Lico;President, Chief Executive Officer &  Director;Industrials;Industrial Machinery;1;Everett;WA;47.9789848;-122.2020795
421;Ralph Lauren;371;6653;-10,2;-99,3;-125,1;5652;9088;1825;Patrice Louvet;President, Chief Executive Officer &  Director;Apparel;Apparel;10;New York;NY;40.7127753;-74.0059728
422;HRG Group;418;665;3,9;106;0;3585;3328;17113;Joseph S. Steinberg;Chairman &  Chief Executive Officer;Household Products;Household and Personal Products;5;New York;NY;40.7127753;-74.0059728
423;Ascena Retail Group;384;665;-4,9;-1067,3;0;3872;394;40;David R. Jaffe;Chairman &  Chief Executive Officer;Retailing;Specialty Retailers: Apparel;2;Mahwah;NJ;41.0886216;-74.1435843
424;United Rentals;452;6641;15,3;1346;137,8;1503;14537;148;Michael J. Kneeland;Chairman &  Chief Executive Officer;Business Services;Miscellaneous;5;Stamford;CT;41.0534302;-73.5387341
425;Caseys General Stores;423;6641;5,3;177,5;-21,5;302;412;25463;Terry W. Handley;President, Chief Executive Officer &  Director;Retailing;Specialty Retailers: Other;8;Ankeny;IA;41.7317884;-93.6001278
426;Graybar Electric;420;6631;3,9;71,6;-23,1;2261;0;85;Kathleen M. Mazzarella;Chairman, President &  Chief Executive Officer;Wholesalers;Wholesalers: Diversified;24;St. Louis;MO;38.6270025;-90.1994042
427;Avery Dennison;430;6614;8,7;281,8;-12,1;5137;9361;30;Mitchell R. Butier;President, Chief Executive Officer &  Director;Materials;Packaging, Containers;24;Glendale;CA;34.1425078;-118.255075
428;MasTec;502;6607;28,7;347,2;164,5;4067;3874;173;Jose R. Mas;Chief Executive Officer;Engineering &  Construction;Engineering, Construction;1;Coral Gables;FL;25.72149;-80.2683838
429;CMS Energy;419;6583;2,9;460;-16,5;2305;12793;7887;Patricia K. Poppe;President, Chief Executive Officer &  Director;Energy;Utilities: Gas and Electric;24;Jackson;MI;42.245869;-84.4013462
430;HD Supply Holdings;364;6534;-13,2;970;394,9;4318;704;11;Joseph J. DeAngelo;Chairman, President &  Chief Executive Officer;Wholesalers;Wholesalers: Diversified;6;Atlanta;GA;33.7489954;-84.3879824
431;Raymond James Financial;469;6525;18,2;636,2;20,2;34884;13019;127;Paul C. Reilly;Chairman &  Chief Executive Officer;Financials;Securities;3;St. Petersburg;FL;27.7676008;-82.6402915
432;NCR;409;6516;-0,4;232;-14,1;7654;3737;34;Michael D. Hayford;Chief Executive Officer &  Director;Technology;Computers, Office Equipment;21;Atlanta;GA;33.7489954;-84.3879824
433;Hanesbrands;432;6478;6,9;61,9;-88,5;6895;6638;672;Gerald W. Evans Jr.;Chairman &  Chief Executive Officer;Apparel;Apparel;4;Winston-Salem;NC;36.0998596;-80.244216
434;Asbury Automotive Group;410;6457;-1,1;139,1;-16,8;2357;1412;8;David W. Hult;President, Chief Executive Officer &  Director;Retailing;Automotive Retailing, Services;12;Duluth;GA;34.0028786;-84.1446376
435;Citizens Financial Group;451;6454;12;1652;58,1;152336;20474;17594;Bruce W. Van Saun;Chairman, President &  Chief Executive Officer;Financials;Commercial Banks;3;Providence;RI;41.8239891;-71.4128343
436;Packaging Corp. of America;450;6445;11,5;668,6;48,7;6198;10633;146;Mark W. Kowlzan;Chairman &  Chief Executive Officer;Materials;Packaging, Containers;4;Lake Forest;IL;42.2586342;-87.840625
437;Alleghany;428;6425;4,8;90,1;-80,3;25384;946;4402;Weston M. Hicks;President, Chief Executive Officer &  Director;Financials;Insurance: Property and Casualty (Stock);4;New York;NY;40.7127753;-74.0059728
438;Apache;488;6423;20;1304;0;21922;14678;3356;John J. Christmann IV;President, Chief Executive Officer &  Director;Energy;Mining, Crude-Oil Production;15;Houston;TX;29.7604267;-95.3698028
439;Dillards;417;6423;0,1;221,3;30,8;3673;2289;314;William T. Dillard II;Chairman &  Chief Executive Officer;Retailing;General Merchandisers;24;Little Rock;AR;34.7464809;-92.2895948
440;Assurant;361;6415;-14,8;519,6;-8,1;31843;4803;14175;Alan B. Colberg;President, Chief Executive Officer &  Director;Financials;Insurance: Property and Casualty (Stock);14;New York;NY;40.7127753;-74.0059728
441;Franklin Resources;405;6392;-3,4;1696,7;-1,7;17534;19133;9386;Gregory E. Johnson;Chairman &  Chief Executive Officer;Financials;Securities;13;San Mateo;CA;37.5629917;-122.3255254
442;Owens Corning;458;6384;12,5;289;-26,5;8632;8982;17;Michael H. Thaman;Chairman, President &  Chief Executive Officer;Materials;Building Materials, Glass;24;Toledo;OH;41.6528052;-83.5378674
443;Motorola Solutions;433;638;5,7;-155;-127,7;8208;17027;15;Gregory Q. Brown;Chairman &  Chief Executive Officer;Technology;Network and Other Communications Equipment;24;Chicago;IL;41.8781136;-87.6297982
444;NVR;446;6322;8,4;537,5;26,4;2989;10262;52;Paul C. Saville;President, Chief Executive Officer &  Director;Engineering &  Construction;Homebuilders;9;Reston;VA;38.9586307;-77.3570028
445;Rockwell Automation;442;6311;7,3;825,7;13,2;7162;2226;22;Blake D. Moret;Chairman, President &  Chief Executive Officer;Industrials;Electronics, Electrical Equip.;24;Milwaukee;WI;43.0389025;-87.9064736
446;TreeHouse Foods;427;6307;2,1;-286,2;0;5779;2159;13489;Steven Oakland;President, Chief Executive Officer &  Director;Food, Beverages &  Tobacco;Food Consumer Products;2;Oak Brook;IL;41.8397865;-87.9535534
447;Wynn Resorts;548;6306;41,2;747,2;208,8;12682;19778;252;Matthew O. Maddox;President, Chief Executive Officer &  Director;Hotels, Restaurants &  Leisure;Hotels, Casinos, Resorts;5;Las Vegas;NV;36.1699412;-115.1398296
448;Olin;467;6268;12,9;549,5;0;9218;5081;64;John E. Fischer;Chairman, President &  Chief Executive Officer;Chemicals;Chemicals;5;Clayton;MO;38.6425518;-90.3237263
449;American Axle & Manufacturing;593;6266;58,7;337,1;40;7883;1699;25;David C. Dauch;Chairman &  Chief Executive Officer;Motor Vehicles &  Parts;Motor Vehicles and Parts;4;Detroit;MI;42.331427;-83.0457538
450;Old Republic International;439;6263;6,1;560,5;20;19404;5778;87;Aldo C. Zucaro;Chairman &  Chief Executive Officer;Financials;Insurance: Property and Casualty (Stock);7;Chicago;IL;41.8781136;-87.6297982
451;Chemours;482;6183;14,5;746;10557,1;7293;884;7;Mark P. Vergnano;President, Chief Executive Officer &  Director;Chemicals;Chemicals;2;Wilmington;DE;39.7390721;-75.5397878
452;iHeartMedia;426;6178;-1,5;-704,4;0;12257;39;187;Robert W. Pittman;Chairman &  Chief Executive Officer;Media;Entertainment;18;San Antonio;TX;29.4241219;-98.4936282
453;Ameren;431;6177;1,7;523;-19,9;25945;1374;8615;Warner L. Baxter;Chairman, President &  Chief Executive Officer;Energy;Utilities: Gas and Electric;21;St. Louis;MO;38.6270025;-90.1994042
454;Arthur J. Gallagher;462;616;10,1;463,1;11,8;12897;12512;26783;J. Patrick Gallagher Jr.;Chairman, President &  Chief Executive Officer;Financials;Diversified Financials;3;Rolling Meadows;IL;42.0841936;-88.0131275
455;Celanese;484;614;13,9;843;-6,3;9538;13611;7592;Mark C. Rohr;Chairman, President &  Chief Executive Officer;Chemicals;Chemicals;13;Irving;TX;32.8140177;-96.9488945
456;Sealed Air;397;6131;-9,6;814,9;67,5;528;7162;15;Edward L. Doheny II;President, Chief Executive Officer &  Director;Materials;Packaging, Containers;21;Charlotte;NC;35.2270869;-80.8431267
457;UGI;457;6121;7,7;436,6;19,7;11582;7685;13;John L. Walsh;President, Chief Executive Officer &  Director;Energy;Energy;14;King of Prussia;PA;40.1012856;-75.3835525
458;Realogy Holdings;448;6114;5,2;431;102,3;7337;3568;118;Ryan M. Schneider;President, Chief Executive Officer &  Director;Financials;Real estate;8;Madison;NJ;40.7598227;-74.417097
459;Burlington Stores;463;611;9,3;384,9;78,3;2813;9018;40;Thomas A. Kingsbury;Chairman, President &  Chief Executive Officer;Retailing;Specialty Retailers: Apparel;3;Burlington;NJ;40.071222;-74.8648873
460;Regions Financial;436;6093;2,1;1263;8,6;124294;20861;21714;O.B. Grayson Hall Jr.;Chairman &  Chief Executive Officer;Financials;Commercial Banks;20;Birmingham;AL;33.5206608;-86.80249
461;AK Steel Holding;441;6081;3,4;6,2;0;4296;1428;92;Roger K. Newport;Chairman &  Chief Executive Officer;Materials;Metals;18;Beckett Ridge;OH;39.3321262;-84.4172666
462;Securian Financial Group;532;6067;27;418,9;68,7;51232;0;5;Christopher M. Hilger;Chairman, President &  Chief Executive Officer;Financials;Insurance: Life, Health (stock);1;St Paul;MN;44.9537029;-93.0899578
463;S& P Global;459;6063;7,1;1496;-29;9425;47643;204;Douglas L. Peterson;President, Chief Executive Officer &  Director;Business Services;Financial Data Services;24;New York;NY;40.7127753;-74.0059728
464;Markel;460;6062;8;395,3;-13,3;32805;16264;156;Thomas S. Gayner/Richard R. Whitt III;Co-Chief Executive Officer &  Director;Financials;Insurance: Property and Casualty (Stock);3;Glen Allen;VA;37.665978;-77.5063739
465;TravelCenters of America;470;6052;9,8;9,3;0;1618;144;19611;Andrew J. Rebholz;Chief Executive Officer &  Director;Retailing;Specialty Retailers: Other;11;Westlake;OH;41.4553232;-81.9179173
466;Conduent;;6022;0;181;0;7548;3923;90;Ashok Vemuri;Chairman &  Chief Executive Officer;Business Services;Diversified Outsourcing Services;1;Florham Park;NJ;40.787878;-74.3882072
467;M& T Bank Corp.;455;6019;5,2;1408,3;7,1;118594;27379;16354;Ren? F. Jones;Chairman &  Chief Executive Officer;Financials;Commercial Banks;3;Buffalo;NY;42.8864468;-78.8783689
468;Clorox;453;5973;3,7;701;8,2;4573;17225;81;Benno O. Dorer;Chairman &  Chief Executive Officer;Household Products;Household and Personal Products;19;Oakland;CA;37.8043637;-122.2711137
469;AmTrust Financial Services;475;5959;9,3;-348,9;-184,9;25219;2416;93;Barry D. Zyskind;Chairman, President &  Chief Executive Officer;Financials;Insurance: Property and Casualty (Stock);2;New York;NY;40.7127753;-74.0059728
470;KKR;656;593;71,4;1018,3;229,2;45835;9882;1184;Henry R. Kravis/George R. Roberts;Co-Chairman &  Co-Chief Executive Officer;Financials;Securities;6;New York;NY;40.7127753;-74.0059728
471;Ulta Beauty;524;5885;21,2;555,2;35,5;2909;12459;242;Mary N. Dillon;Chairman &  Chief Executive Officer;Retailing;Specialty Retailers: Other;1;Bolingbrook;IL;41.6986416;-88.0683955
472;Yum Brands;422;5878;-7,7;1340;-17,2;5311;28307;60;Greg Creed;Chief Executive Officer &  Director;Hotels, Restaurants &  Leisure;Food Services;20;Louisville;KY;38.2526647;-85.7584557
473;Regeneron Pharmaceuticals;523;5872;20,8;1198,5;33,8;8764;37087;62;Leonard S. Schleifer;President, Chief Executive Officer &  Director;Health Care;Pharmaceuticals;1;Tarrytown;NY;41.0762077;-73.8587461
474;Windstream Holdings;485;5853;8,6;-2116,6;0;11084;289;12979;Anthony W. Thomas;President, Chief Executive Officer &  Director;Telecommunications;Telecommunications;6;Little Rock;AR;34.7464809;-92.2895948
475;Magellan Health;526;5838;20,7;110,2;41,5;2957;2605;107;Barry M. Smith;Chairman &  Chief Executive Officer;Health Care;Health Care: Insurance and Managed Care;1;Scottsdale;AZ;33.4941704;-111.9260519
476;Western & Southern Financial;483;5836;8,1;310,4;28,7;46395;0;2226;John F. Barrett;Chairman, President &  Chief Executive Officer;Financials;Insurance: Life, Health (Mutual);14;Cincinnati;OH;39.1031182;-84.5120196
477;Intercontinental Exchange;437;5834;-2,1;2514;76,8;78264;42132;4952;Jeffrey C. Sprecher;Chairman &  Chief Executive Officer;Financials;Securities;2;Atlanta;GA;33.7489954;-84.3879824
478;Ingredion;456;5832;2,3;519;7;608;9313;11;James P. Zallie;President, Chief Executive Officer &  Director;Food, Beverages &  Tobacco;Food Production;7;Westchester;IL;41.8498339;-87.8806738
479;Wyndham Destinations;461;5821;4;871;42,6;10403;11411;392;Michael D. Brown;Chairman &  Chief Executive Officer;Hotels, Restaurants &  Leisure;Hotels, Casinos, Resorts;5;Parsippany-Troy Hills;NJ;40.8652865;-74.4173877
480;Toll Brothers;497;5815;12,5;535,5;40,1;9445;6566;45;Douglas C. Yearley Jr.;Chairman &  Chief Executive Officer;Engineering &  Construction;Homebuilders;6;Horsham;PA;40.1784422;-75.1285061
481;Seaboard;486;5809;8;247;-20,8;5161;4992;118;Steven J. Bresky;Chairman, President &  Chief Executive Officer;Food, Beverages &  Tobacco;Food Production;8;Merriam;KS;39.0236165;-94.6935701
482;Booz Allen Hamilton;481;5804;7,4;252,5;-14,1;3373;5617;233;Horacio D. Rozanski;President, Chief Executive Officer &  Director;Technology;Information Technology Services;8;McLean;VA;38.9338676;-77.1772604
483;First American Financial;464;5772;3,5;423;23,3;9573;6511;18705;Dennis J. Gilmore;Chairman &  Chief Executive Officer;Financials;Insurance: Property and Casualty (Stock);4;Santa Ana;CA;33.7454725;-117.867653
484;Cincinnati Financial;476;5732;5,2;1045;76,9;21843;12185;4925;Steven J. Johnston;President, Chief Executive Officer &  Director;Financials;Insurance: Property and Casualty (Stock);4;Fairfield;OH;39.3454673;-84.5603187
485;Avon Products;444;5716;-2,3;22;0;3698;1251;25;Jan Zijderveld;Chairman &  Chief Executive Officer;Household Products;Household and Personal Products;24;Rye;NY;40.9806535;-73.6837399
486;Northern Trust;501;5716;11,1;1199;16,1;138591;23264;181;Michael G. O'Grady;President, Chief Executive Officer &  Director;Financials;Commercial Banks;7;Chicago;IL;41.8781136;-87.6297982
487;Fiserv;471;5696;3,5;1246;34;10289;29466;24;Jeffery W. Yabuki;President, Chief Executive Officer &  Director;Business Services;Financial Data Services;8;Brookfield;WI;43.0605671;-88.1064787
488;Harley-Davidson;435;5647;-5,8;521,8;-24,6;9973;7198;58;Matthew S. Levatich;President, Chief Executive Officer &  Director;Transportation;Transportation Equipment;17;Milwaukee;WI;43.0389025;-87.9064736
489;Cheniere Energy;;5601;336,5;-393;0;27906;12703;123;Jack A. Fusco;President, Chief Executive Officer &  Director;Energy;Energy;1;Houston;TX;29.7604267;-95.3698028
490;Patterson;466;5593;0,7;170,9;-8,7;3508;2104;75;Mark S. Walchirk;President, Chief Executive Officer &  Director;Wholesalers;Wholesalers: Health Care;2;St Paul;MN;44.9537029;-93.0899578
491;Peabody Energy;533;5579;18,3;0;0;8181;4649;71;Glenn L. Kellow;President, Chief Executive Officer &  Director;Energy;Mining, Crude-Oil Production;13;St. Louis;MO;38.6270025;-90.1994042
492;ON Semiconductor;598;5543;41,9;810,7;345,2;7195;10406;34;Keith D. Jackson;President, Chief Executive Officer &  Director;Technology;Semiconductors and Other Electronic Components;1;Phoenix;AZ;33.4483771;-112.0740373
493;Simon Property Group;477;5539;1,9;1948;5,9;32258;47861;415;David E. Simon;Chairman &  Chief Executive Officer;Financials;Real estate;5;Indianapolis;IN;39.768403;-86.158068
494;Western Union;478;5524;1,9;-557,1;-320;9231;8857;115;Hikmet Ersek;President, Chief Executive Officer &  Director;Business Services;Financial Data Services;12;Englewood;CO;39.6477653;-104.9877597
495;NetApp;468;5519;-0,5;509;122,3;9493;16528;101;George Kurian;President, Chief Executive Officer &  Director;Technology;Computers, Office Equipment;7;Sunnyvale;CA;37.36883;-122.0363496
496;Polaris Industries;537;5505;19,8;172,5;-19;309;7224;11;Scott W. Wine;Chairman &  Chief Executive Officer;Transportation;Transportation Equipment;1;Medina;MN;45.0352411;-93.5824586
497;Pioneer Natural Resources;606;5455;42,7;833;0;17003;29254;3836;Timothy L. Dove;President, Chief Executive Officer &  Director;Energy;Mining, Crude-Oil Production;2;Irving;TX;32.8140177;-96.9488945
498;ABM Industries;500;5454;6;3,8;-93,4;3813;22;140;Scott B. Salmirs;President, Chief Executive Officer &  Director;Business Services;Diversified Outsourcing Services;3;New York;NY;40.7127753;-74.0059728
499;Vistra Energy;499;543;5,2;-254;0;146;8925;415;Curtis A. Morgan;President, Chief Executive Officer &  Director;Energy;Energy;2;Irving;TX;32.8140177;-96.9488945
500;Cintas;520;5429;10,7;480,7;-30,7;6844;18165;42;Scott D. Farmer;Chairman &  Chief Executive Officer;Business Services;Diversified Outsourcing Services;1;Cincinnati;OH;39.1031182;-84.5120196
501;Hess;525;5405;11,6;-4074;0;23112;15948;2075;John B. Hess;Chairman &  Chief Executive Officer;Energy;Mining, Crude-Oil Production;0;New York;NY;40.7127753;-74.0059728
502;Host Hotels & Resorts;472;5387;-1,8;564;-26;11693;13822;205;James F. Risoleo;President, Chief Executive Officer &  Director;Financials;Real estate;0;Bethesda;MD;38.984652;-77.0947092
503;Kelly Services;490;5374;1,8;71,6;-40,7;2378;1116;78;George S. Corona;President, Chief Executive Officer &  Director;Business Services;Temporary Help;0;Troy;MI;42.6064095;-83.1497751
504;Genesis Healthcare;454;5374;-6,3;-579;0;4788;241;687;George V. Hager Jr.;Chief Executive Officer &  Director;Health Care;Health Care: Medical Facilities;0;Kennett Square;PA;39.8467767;-75.7116032
505;Michaels Cos.;496;5362;3,2;390,5;3,3;23;3586;305;Carl S. Rubin;Chairman &  Chief Executive Officer;Retailing;Specialty Retailers: Other;0;Irving;TX;32.8140177;-96.9488945
506;Advanced Micro Devices;565;5329;24,7;43;0;354;974;89;Lisa T. Su;President, Chief Executive Officer &  Director;Technology;Semiconductors and Other Electronic Components;0;Santa Clara;CA;37.3541079;-121.9552356
507;Zoetis;521;5307;8,6;864;5,2;8586;40524;92;Juan Ram?n Alaix;Chairman &  Chief Executive Officer;Health Care;Pharmaceuticals;0;Parsippany-Troy Hills;NJ;40.8652865;-74.4173877
508;Williams-Sonoma;506;5292;4,1;259,5;-15;2786;4441;1935;Laura J. Alber;President, Chief Executive Officer &  Director;Retailing;Specialty Retailers: Other;0;SF;CA;37.7749295;-122.4194155
509;Fortune Brands Home & Security;511;5283;6;472,6;14,4;5511;8717;2387;Christopher J. Klein;Chairman &  Chief Executive Officer;Household Products;Home Equipment, Furnishings;0;Deerfield;IL;42.1711365;-87.8445119
510;Big Lots;495;5271;1,4;189,8;24,2;1652;183;229;Lisa M. Bachmann;Executive V.P.-Principal Executive Officer;Retailing;Specialty Retailers: Other;0;Columbus;OH;39.9611755;-82.9987942
511;Robert Half International;493;5267;0,3;290,6;-15,4;1868;7194;172;Harold M. Messmer Jr.;Chairman &  Chief Executive Officer;Business Services;Temporary Help;0;Menlo Park;CA;37.4529598;-122.1817252
512;Post Holdings;508;5226;4;48,3;0;11877;4968;1141;Robert V. Vitale;President, Chief Executive Officer &  Director;Food, Beverages &  Tobacco;Food Consumer Products;0;St. Louis;MO;38.6270025;-90.1994042
513;Hasbro;509;521;3,8;396,6;-28,1;529;10468;54;Brian D. Goldner;Chairman &  Chief Executive Officer;Household Products;Toys, Sporting Goods;0;Pawtucket;RI;41.878711;-71.3825558
514;Hanover Insurance Group;517;5184;4,8;186,2;20,1;1547;5017;46;John C. Roche;President, Chief Executive Officer &  Director;Financials;Insurance: Property and Casualty (Stock);0;Worcester;MA;42.2625932;-71.8022934
515;Navient;514;5179;4,3;292;-57,1;114991;3456;67;John F. Remondi;President, Chief Executive Officer &  Director;Financials;Diversified Financials;0;Wilmington;DE;39.7390721;-75.5397878
516;Intuit;527;5177;7,2;971;-0,8;4068;44397;82;Brad D. Smith;Chairman, President &  Chief Executive Officer;Technology;Computer Software;0;Mountain View;CA;37.3860517;-122.0838511
517;Domtar;505;5157;1,2;-258;-301,6;5212;2667;10;John D. Williams;President, Chief Executive Officer &  Director;Materials;Forest and Paper Products;0;Fort Mill;SC;35.0073697;-80.9450759
518;Marathon Oil;536;5153;10,8;-5723;0;22012;13707;23;Lee M. Tillman;President, Chief Executive Officer &  Director;Energy;Mining, Crude-Oil Production;0;Houston;TX;29.7604267;-95.3698028
519;Cerner;530;5142;7,2;867;36,2;6469;19291;26;D. Brent Shafer;Chairman &  Chief Executive Officer;Health Care;Health Care: Pharmacy and Other Services;0;North Kansas City;MO;39.1429081;-94.5729781
520;Analog Devices;660;5108;49,3;727,3;-15,6;21141;337;153;Vincent T. Roche;President, Chief Executive Officer &  Director;Technology;Semiconductors and Other Electronic Components;0;Norwood;MA;42.1943909;-71.1989695
521;Telephone & Data Systems;504;5044;-1,2;153;255,8;9295;3115;99;LeRoy T. Carlson Jr.;President, Chief Executive Officer &  Director;Telecommunications;Telecommunications;0;Chicago;IL;41.8781136;-87.6297982
522;Essendant;487;5037;-6,2;-267;-518,1;1774;294;64;Richard D. Phillips;President, Chief Executive Officer &  Director;Wholesalers;Wholesalers: Electronics and Office Equipment;0;Deerfield;IL;42.1711365;-87.8445119
523;Sonoco Products;531;5037;5,3;175,3;-38,8;4558;4829;21;Robert C. Tiede;President, Chief Executive Officer &  Director;Materials;Packaging, Containers;0;Hartsville;SC;34.3740431;-80.0734005
524;Juniper Networks;510;5027;0,7;306,2;-48,3;9834;8364;9381;Rami Rahim;Chairman &  Chief Executive Officer;Technology;Network and Other Communications Equipment;0;Sunnyvale;CA;37.36883;-122.0363496
525;Commercial Metals;535;4999;7,5;46,3;-15,4;2975;2394;8797;Barbara R. Smith;Chairman, President &  Chief Executive Officer;Materials;Metals;0;Irving;TX;32.8140177;-96.9488945
526;CSRA;570;4993;17,5;304;248,8;4888;6759;185;Lawrence B. Prior III;Chief Executive Officer &  Director;Technology;Information Technology Services;0;Falls Church;VA;38.882334;-77.1710914
527;Under Armour;528;4977;3,1;-48,3;-118,8;4006;6756;1135;Kevin A. Plank;Chairman &  Chief Executive Officer;Apparel;Apparel;0;Baltimore;MD;39.2903848;-76.6121893
528;RPM International;529;4958;3;181,8;-48,7;509;6372;14318;Frank C. Sullivan;Chairman &  Chief Executive Officer;Chemicals;Chemicals;0;Medina;OH;41.143245;-81.8552196
529;Total System Services;579;4928;18,2;586,2;83,4;6332;15676;118;M. Troy Woods;Chairman, President &  Chief Executive Officer;Business Services;Financial Data Services;0;Columbus;GA;32.4609764;-84.9877094
530;Levi Strauss;542;4904;7,7;281,4;-3,3;3355;0;138;Charles V. Bergh;President, Chief Executive Officer &  Director;Apparel;Apparel;0;SF;CA;37.7749295;-122.4194155
531;Brunswick;547;4898;9,1;146,4;-47;3358;5188;15116;Mark D. Schwabero;Chairman &  Chief Executive Officer;Transportation;Transportation Equipment;0;Libertyville;IL;42.2333571;-87.9259058
532;YRC Worldwide;534;4891;4,1;-10,8;-150,2;1586;299;32;Darren D. Hawkins;Chief Executive Officer;Transportation;Trucking, Truck Leasing;0;Overland Park;KS;38.9822282;-94.6707917
533;Mattel;474;4882;-10,5;-1053,8;-431,4;6239;4523;28;Ynon Kreiz;Chief Executive Officer;Household Products;Toys, Sporting Goods;0;El Segundo;CA;33.9191799;-118.4164652
534;FM Global;557;4875;11,5;254,1;-68,1;23247;0;5441;Thomas A. Lawson;Chairman, President &  Chief Executive Officer;Financials;Insurance: Property and Casualty (Stock);0;Johnston;RI;41.8205199;-71.512617
535;NiSource;545;4875;8,5;128,5;-61,2;19962;8068;8175;Joseph Hamrock;President, Chief Executive Officer &  Director;Energy;Utilities: Gas and Electric;0;Merrillville;IN;41.4828144;-87.3328139
536;Caesars Entertainment;541;4852;6,5;-375;0;25512;7838;65;Mark P. Frissora;President, Chief Executive Officer &  Director;Hotels, Restaurants &  Leisure;Hotels, Casinos, Resorts;0;Las Vegas;NV;36.1699412;-115.1398296
537;Electronic Arts;556;4845;10,2;967;-16,3;7718;37188;88;Andrew Wilson;Chief Executive Officer &  Director;Technology;Entertainment;0;Redwood City;CA;37.4852152;-122.2363548
538;Dynegy;561;4842;12,1;76;0;11771;1952;2489;Curtis A. Morgan;CEO-Vistra Energy;Energy;Energy;0;Houston;TX;29.7604267;-95.3698028
539;McCormick;553;4834;9,6;477,4;1,1;10386;13964;117;Lawrence E. Kurzius;Chairman, President &  Chief Executive Officer;Food, Beverages &  Tobacco;Food Consumer Products;0;Sparks Glencoe;MD;39.5309389;-76.6458043
540;T. Rowe Price;573;4793;13,5;1497,8;23,3;7535;26409;6881;William J. Stromberg;President, Chief Executive Officer &  Director;Financials;Securities;0;Baltimore;MD;39.2903848;-76.6121893
541;Orbital ATK;549;4764;6,9;310;5,8;5666;7665;139;Blake Larson;President, Chief Executive Officer &  Director;Aerospace &  Defense;Aerospace and Defense;0;Sterling;VA;38.9624899;-77.4380485
542;Tutor Perini;513;4757;-4,3;148,4;54,9;4264;1098;10061;Ronald N. Tutor;Chairman &  Chief Executive Officer;Engineering &  Construction;Engineering, Construction;0;Los Angeles;CA;34.3058279;-118.4571974
543;Brookdale Senior Living;512;4747;-4,6;-571,4;0;7675;1252;6255;Lucinda M. Baier;President, Chief Executive Officer &  Director;Health Care;Health Care: Medical Facilities;0;Brentwood;TN;36.0331164;-86.7827772
544;Huntington Bancshares;610;474;25,3;1186;66,6;104185;16209;1577;Stephen D. Steinour;Chairman, President &  Chief Executive Officer;Financials;Commercial Banks;0;Columbus;OH;39.9611755;-82.9987942
545;Wayfair;666;4721;39,7;-244,6;0;1213;5977;7751;Niraj S. Shah;Co-Chairman, President &  Chief Executive Officer;Technology;Internet Services and Retailing;0;Boston;MA;42.3600825;-71.0588801
546;Rush Enterprises;575;4714;11,8;172,1;324,2;289;1609;6825;W. M. Rush;Chairman, President &  Chief Executive Officer;Retailing;Automotive Retailing, Services;0;New Braunfels;TX;29.7030024;-98.1244531
547;Xylem;611;4707;24,8;331;27,3;686;13839;162;Patrick K. Decker;President, Chief Executive Officer &  Director;Industrials;Industrial Machinery;0;Rye Brook;NY;41.0192641;-73.6834621
548;Neiman Marcus Group;515;4706;-4,9;-531,8;0;7704;0;137;Geoffroy van Raemdonck;Chairman &  Chief Executive Officer;Retailing;Specialty Retailers: Apparel;0;Dallas;TX;32.7766642;-96.7969879
549;Hyatt Hotels;552;4685;5,8;249;22,1;7672;9054;45;Mark S. Hoplamazian;President, Chief Executive Officer &  Director;Hotels, Restaurants &  Leisure;Hotels, Casinos, Resorts;0;Chicago;IL;41.8781136;-87.6297982
550;Sprouts Farmers Market;585;4665;15,3;158,4;27,5;1582;3122;27;Amin N. Maredia;Chairman &  Chief Executive Officer;Food &  Drug Stores;Food and Drug Stores;0;Phoenix;AZ;33.4483771;-112.0740373
551;Diebold Nixdorf;672;4609;38;-233,1;0;525;117;23;Gerrard B. Schmid;President, Chief Executive Officer &  Director;Technology;Computers, Office Equipment;0;North Canton;OH;40.875891;-81.4023356
552;Roper Technologies;609;4608;21,6;971,8;47,5;14316;28862;14236;Brian D. Jellison;Chairman, President &  Chief Executive Officer;Technology;Scientific,Photographic and  Control Equipment;0;Sarasota;FL;27.3364347;-82.5306527
553;Smart & Final Stores;559;4571;5,3;-138,9;-1172,9;181;412;757;David G. Hirz;President, Chief Executive Officer &  Director;Food &  Drug Stores;Food and Drug Stores;0;Commerce;CA;34.0005691;-118.1597929
554;CommScope Holding;518;4561;-7,4;193,8;-13;7042;767;20;Marvin S. Edwards Jr.;President, Chief Executive Officer &  Director;Technology;Network and Other Communications Equipment;0;Newton;NC;35.7344538;-81.3444573
555;Tapestry;546;4488,3;-0,1;591;28,3;5831,6;14988;12450;Victor Luis;Chairman &  Chief Executive Officer;Apparel;Apparel;0;New York City;NY;40.7127753;-74.0059728
556;Diplomat Pharmacy;554;4485;1,7;15,5;-45,1;194;1493;2298;Brian Griffin;Interim Chief Executive Officer &  Director;Health Care;Health Care: Pharmacy and Other Services;0;Flint;MI;43.0125274;-83.6874562
557;Chipotle Mexican Grill;599;4476;14,7;176,3;668,4;2046;9025;6889;Brian R. Niccol;Chairman &  Chief Executive Officer;Hotels, Restaurants &  Leisure;Food Services;0;Denver;CO;39.7392358;-104.990251
558;Agilent Technologies;576;4472;6,4;684;48,1;8426;21574;135;Michael R. McMullen;President, Chief Executive Officer &  Director;Technology;Scientific,Photographic and  Control Equipment;0;Santa Clara;CA;37.3541079;-121.9552356
559;Science Applications International;551;4454;0,3;179;25,2;2073;3332;15391;Anthony J. Moraco;Chairman &  Chief Executive Officer;Technology;Information Technology Services;0;Reston;VA;38.9586307;-77.3570028
560;MDU Resources Group;569;4444;4,5;281,2;336,4;6335;55;1014;David L. Goodin;President, Chief Executive Officer &  Director;Energy;Energy;0;Bismarck;ND;46.8083268;-100.7837392
561;Select Medical Holdings;563;4444;3,7;177,2;53,5;5127;2313;3605;David S. Chernow;President, Chief Executive Officer &  Director;Health Care;Health Care: Medical Facilities;0;Mechanicsburg;PA;40.2142565;-77.0085876
562;Boise Cascade;597;4432;13,3;83;116,9;1607;15;637;Thomas K. Corrick;Chairman &  Chief Executive Officer;Wholesalers;Wholesalers: Diversified;0;Boise;ID;43.6150186;-116.2023137
563;National General Holdings;643;4431;24,7;105,8;-39,8;844;2598;757;Barry Karfunkel;President, Chief Executive Officer &  Director;Financials;Insurance: Property and Casualty (Stock);0;New York;NY;40.7127753;-74.0059728
564;SCANA;572;4407;4,3;-119;-120;18739;5356;5228;Jimmy E. Addison;President, Chief Executive Officer &  Director;Energy;Utilities: Gas and Electric;0;Cayce;SC;33.9657091;-81.0739827
565;Graphic Packaging Holding;562;4404;2,5;300,2;31,7;4863;4754;13;Michael P. Doss;President, Chief Executive Officer &  Director;Materials;Packaging, Containers;0;Atlanta;GA;33.7489954;-84.3879824
566;Fastenal;591;4391;10,8;578,6;15,8;2911;15703;20565;Daniel L. Florness;President, Chief Executive Officer &  Director;Wholesalers;Wholesalers: Diversified;0;Winona;MN;44.0553908;-91.6663523
567;Schneider National;;4384;8,4;389,9;148,6;3331;461;196;Christopher B. Lofgren;President, Chief Executive Officer &  Director;Transportation;Trucking, Truck Leasing;0;Green Bay;WI;44.5133188;-88.0132958
568;Laureate Education;571;4378;3,2;91,5;-75,4;7392;2578;545;Eilif Serck-Hanssen;Chairman &  Chief Executive Officer;Business Services;Education;0;Baltimore;MD;39.2903848;-76.6121893
569;Beacon Roofing Supply;582;4377;6;100,9;12,2;345;3609;5406;Paul M. Isabella;President, Chief Executive Officer &  Director;Wholesalers;Wholesalers: Diversified;0;Herndon;VA;38.9695545;-77.3860976
570;KB Home;634;4369;21,5;180,6;71;5042;2468;1915;Jeffrey T. Mezger;Chairman, President &  Chief Executive Officer;Engineering &  Construction;Homebuilders;0;Los Angeles;CA;34.0522342;-118.2436849
571;Equinix;624;4368;19,3;233;83,7;18692;33128;7273;Peter F. Van Camp;Chairman, President &  Interim Chief Executive Officer;Financials;Real estate;0;Redwood City;CA;37.4852152;-122.2363548
572;Terex;445;4363;-25,3;128,7;0;3463;303;107;John L. Garrison Jr.;President, Chief Executive Officer &  Director;Industrials;Construction and Farm Machinery;0;Westport;CT;41.1414717;-73.3579049
573;Crown Castle International;596;4356;11,1;444,6;24,5;3223;45452;45;Jay A. Brown;President, Chief Executive Officer &  Director;Financials;Real estate;0;Houston;TX;29.7604267;-95.3698028
574;CACI International;615;4355;16,3;163,7;14,6;3911;3727;186;Kenneth Asbury;President, Chief Executive Officer &  Director;Technology;Information Technology Services;0;Arlington;VA;38.8816208;-77.0909809
575;Watsco;574;4342;2,9;208,2;13,9;2047;6752;52;Albert H. Nahmad;Chairman &  Chief Executive Officer;Wholesalers;Wholesalers: Diversified;0;Miami;FL;25.7616798;-80.1917902
576;Coca-Cola Bottling;701;4324;37;96,5;92,5;3073;1615;155;J. Frank Harrison III;Chairman &  Chief Executive Officer;Food, Beverages &  Tobacco;Beverages;0;Charlotte;NC;35.2270869;-80.8431267
577;Welltower;564;4317;0,8;522,8;-51,5;27944;20246;392;Thomas J. DeRosa;Chairman &  Chief Executive Officer;Financials;Real estate;0;Toledo;OH;41.6528052;-83.5378674
578;ADT;;4316;46,3;342,6;0;17015;5941;18;Timothy J. Whall;President, Chief Executive Officer &  Director;Business Services;Diversified Outsourcing Services;0;Boca Raton;FL;26.3683064;-80.1289321
579;Ametek;604;43;12;681,5;33,1;7796;1759;169;David A. Zapico;Chairman &  Chief Executive Officer;Technology;Scientific,Photographic and  Control Equipment;0;Berwyn;PA;40.045824;-75.4395931
580;CNO Financial Group;590;4297;7,8;175,6;-51;3311;363;33;Gary C. Bhojwani;Chairman &  Chief Executive Officer;Financials;Insurance: Life, Health (stock);0;Carmel;IN;39.978371;-86.1180435
581;Camping World Holdings;648;4285;21,8;28,4;-85,2;2562;3084;10227;Marcus A. Lemonis;Chairman &  Chief Executive Officer;Retailing;Automotive Retailing, Services;0;Lincolnshire;IL;42.1900249;-87.9084039
582;LPL Financial Holdings;584;4282;5,7;238,9;24,5;5359;551;3736;Dan H. Arnold;President, Chief Executive Officer &  Director;Financials;Securities;0;Boston;MA;42.3600825;-71.0588801
583;Noble Energy;653;4256;21,9;-1118;0;21476;14913;2277;David L. Stover;Chairman, President &  Chief Executive Officer;Energy;Mining, Crude-Oil Production;0;Houston;TX;29.7604267;-95.3698028
584;Bloomin Brands;568;4213;-0,9;100,2;140,1;2573;2256;94;Elizabeth A. Smith;Chairman, President &  Chief Executive Officer;Hotels, Restaurants &  Leisure;Food Services;0;Tampa;FL;27.950575;-82.4571776
585;Moodys;631;4204;16,6;1000,6;275,3;8594;30826;11896;Raymond W. McDaniel Jr.;President, Chief Executive Officer &  Director;Business Services;Financial Data Services;0;New York;NY;40.7127753;-74.0059728
586;Symantec;465;4191;-24,7;-106;-104,3;18174;16067;13;Gregory S. Clark;Chairman &  Chief Executive Officer;Technology;Computer Software;0;Mountain View;CA;37.3860517;-122.0838511
587;Amkor Technology;600;4187;7,5;260,7;58,8;4522;2425;293;Stephen D. Kelley;President, Chief Executive Officer &  Director;Technology;Semiconductors and Other Electronic Components;0;Tempe;AZ;33.4255104;-111.9400054
588;Skechers U.S.A.;638;4181;16,9;179,2;-26,4;2735;6231;815;Robert Greenberg;Chairman &  Chief Executive Officer;Apparel;Apparel;0;Manhattan Beach;CA;33.8847361;-118.4109089
589;KBR;567;4171;-2,3;434;0;3674;2271;20;Stuart Bradie;President, Chief Executive Officer &  Director;Engineering &  Construction;Engineering, Construction;0;Houston;TX;29.7604267;-95.3698028
590;Tiffany;588;417;4,2;370,1;-17;5468;12149;131;Alessandro Bogliolo;Chairman &  Chief Executive Officer;Retailing;Specialty Retailers: Other;0;New York;NY;40.7127753;-74.0059728
591;Torchmark;580;4156;0;1454,5;164,6;23475;9583;3102;Gary L. Coleman/Larry M. Hutchison;Co-Chairman &  Co-Chief Executive Officer;Financials;Insurance: Life, Health (stock);0;McKinney;TX;33.1972465;-96.6397822
592;Broadridge Financial Solutions;749;4143;43;326,8;6,3;315;12796;10;Richard J. Daly;Chairman &  Chief Executive Officer;Business Services;Financial Data Services;0;Lake Success;NY;40.7706572;-73.7176312
593;Quad/Graphics;560;4131,4;-4,6;107,2;138,8;2452,4;1336;21100;J. Joel Quadracci;Chairman, President &  Chief Executive Officer;Media;Publishing, Printing;0;Sussex;WI;43.13418;-88.22294
594;CF Industries Holdings;622;413;12,1;357,7;0;13463;8805;295;W. Anthony Will;President, Chief Executive Officer &  Director;Chemicals;Chemicals;0;Deerfield;IL;42.1711365;-87.8445119
595;Carlisle;623;409;11,3;365,5;46,1;53;6408;148;D. Christian Koch;President, Chief Executive Officer &  Director;Materials;Building Materials, Glass;0;Scottsdale;AZ;33.4941704;-111.9260519
596;Silgan Holdings;629;409;13,2;269,7;75,8;4645;3074;12515;Anthony J. Allott;President, Chief Executive Officer &  Director;Materials;Packaging, Containers;0;Stamford;CT;41.0534302;-73.5387341
597;Bemis;587;4046;1;94;-60,2;37;4002;16582;William F. Austen;President, Chief Executive Officer &  Director;Materials;Packaging, Containers;0;Neenah;WI;44.1858193;-88.462609
598;CA;583;4036;-0,4;775;-1;1261;14134;118;Michael P. Gregoire;Chairman &  Chief Executive Officer;Technology;Computer Software;0;New York;NY;40.7127753;-74.0059728
599;Hub Group;640;4035;12,9;135,2;80,7;1671;1439;4377;David P. Yeager;Chairman &  Chief Executive Officer;Transportation;Transportation and Logistics;0;Oak Brook;IL;41.8397865;-87.9535534
600;Worldpay;637;4027;12,5;130,1;-39;8667;25915;356;Charles D. Drucker/Philip E.R. Jansen;Chairman &  Co-Chief Executive Officer;Business Services;Financial Data Services;0;Cincinnati;OH;39.2807348;-84.3173878
601;Ingles Markets;608;4003;5,5;53,9;-0,6;1733;686;1725;James W. Lanning;President, Chief Executive Officer &  Director;Food &  Drug Stores;Food and Drug Stores;0;Black Mountain;NC;35.6178951;-82.3212302
602;Snap-on;618;4;7,8;557,7;2,1;5249;8367;126;Nicholas T. Pinchuk;Chairman, President &  Chief Executive Officer;Industrials;Industrial Machinery;0;Kenosha;WI;42.5847425;-87.8211854
603;Dentsply Sirona;614;3993;6,6;-1550;-460,5;10375;11439;161;Donald M. Casey Jr.;Chairman &  Chief Executive Officer;Health Care;Medical Products and Equipment;0;York;PA;39.9625984;-76.727745
604;Calumet Specialty Products;632;3992;10,9;-103,8;0;2689;541;16;Timothy Go;Chief Executive Officer;Energy;Petroleum Refining;0;Indianapolis;IN;39.768403;-86.158068
605;Global Payments;669;3975;17,9;468,4;132,2;12998;17789;10;Jeffrey S. Sloan;Chairman &  Chief Executive Officer;Business Services;Financial Data Services;0;Atlanta;GA;33.7489954;-84.3879824
606;Encompass Health;619;3971,4;7,1;256,3;3,5;4893,7;5611;30935;Mark J. Tarr;President, Chief Executive Officer &  Director;Health Care;Health Care: Medical Facilities;0;Birmingham;AL;33.5206608;-86.80249
607;Martin Marietta Materials;607;3966;3,8;713,3;67,7;8993;13019;8406;C. Howard Nye;Chairman, President &  Chief Executive Officer;Materials;Building Materials, Glass;0;Raleigh;NC;35.7795897;-78.6381787
608;Nasdaq;620;3965;7;734;579,6;15786;14361;4734;Adena T. Friedman;President, Chief Executive Officer &  Director;Financials;Securities;0;New York;NY;40.7127753;-74.0059728
609;Leggett & Platt;613;3944;5,2;292,6;-24,2;3551;5842;222;Karl G. Glassman;President, Chief Executive Officer &  Director;Household Products;Home Equipment, Furnishings;0;Carthage;MO;37.176447;-94.3102228
610;Universal Forest Products;687;3941;21,6;119,5;18,1;1465;1986;10;Matthew J. Missad;Chairman &  Chief Executive Officer;Materials;Building Materials, Glass;0;Grand Rapids;MI;42.9633599;-85.6680863
611;Sally Beauty Holdings;592;3938;-0,4;215,1;-3,5;2123;2058;21755;Christian A. Brickman;President, Chief Executive Officer &  Director;Retailing;Specialty Retailers: Other;0;Denton;TX;33.2148412;-97.1330683
612;Flowers Foods;594;3921;-0,2;150,1;-8,3;266;4604;98;Allen L. Shiver;President, Chief Executive Officer &  Director;Food, Beverages &  Tobacco;Food Consumer Products;0;Thomasville;GA;30.8365815;-83.9787808
613;Barnes & Noble;555;3895;-11,5;22;0;1933;360;18592;Demos Parneros;Chief Executive Officer &  Director;Retailing;Specialty Retailers: Other;0;New York;NY;40.7127753;-74.0059728
614;American Equity Investment Life;883;3892;75,3;174,6;109,8;62031;2639;515;John M. Matovina;Chairman, President &  Chief Executive Officer;Financials;Insurance: Life, Health (stock);0;West Des Moines;IA;41.5772115;-93.711332
615;Vulcan Materials;635;389;8,3;601,2;43,3;9505;1511;8287;J. Thomas Hill;Chairman, President &  Chief Executive Officer;Materials;Building Materials, Glass;0;Birmingham;AL;33.5206608;-86.80249
616;Taylor Morrison Home;644;3885;9,4;91,2;73,4;4326;261;18;Sheryl D. Palmer;Chairman, President &  Chief Executive Officer;Engineering &  Construction;Homebuilders;0;Scottsdale;AZ;33.4941704;-111.9260519
617;Westinghouse Air Brake;742;3882;32,4;262,3;-14;658;7822;18;Raymond T. Betler;President, Chief Executive Officer &  Director;Industrials;Industrial Machinery;0;Wilmerding;PA;40.3909023;-79.8100472
618;Crestwood Equity Partners;805;3881;54;-191,9;0;4285;1824;954;Robert G Phillips;Chairman, President &  Chief Executive Officer;Energy;Energy;0;Houston;TX;29.7604267;-95.3698028
619;Iron Mountain;649;3846;9,1;183,8;75,4;10972;9375;24;William L. Meaney;President, Chief Executive Officer &  Director;Business Services;Diversified Outsourcing Services;0;Boston;MA;42.3600825;-71.0588801
620;Lennox International;627;384;5,4;305,7;10;1892;8415;1145;Todd M. Bluedorn;Chairman &  Chief Executive Officer;Industrials;Industrial Machinery;0;Richardson;TX;32.9483335;-96.7298519
621;General Cable;603;3837;-0,5;-56,6;0;2235;1499;85;Massimo Battaini;President, Chief Executive Officer &  Director;Industrials;Electronics, Electrical Equip.;0;Highland Heights;KY;39.0331169;-84.4518854
622;American Eagle Outfitters;630;3796;5,1;204,2;-3,9;1816;354;241;Jay L. Schottenstein;Chairman &  Chief Executive Officer;Retailing;Specialty Retailers: Apparel;0;Pittsburgh;PA;40.4406248;-79.9958864
623;Church & Dwight;652;3776;8,1;743,4;62;6015;12294;47;Matthew T. Farrell;President, Chief Executive Officer &  Director;Household Products;Household and Personal Products;0;Ewing Township;NJ;40.2599864;-74.7909125
624;Platform Specialty Products;636;3776;5,3;-296,2;0;10252;2774;785;Rakesh Sachdev;Chief Executive Officer &  Director;Chemicals;Chemicals;0;West Palm Beach;FL;26.7153424;-80.0533746
625;JELD-WEN Holding;;3764;2,4;10,8;-97,1;2863;3257;21;Gary S. Michel;Chairman &  Interim Chief Executive Officer;Materials;Building Materials, Glass;0;Charlotte;NC;35.2270869;-80.8431267
626;OneMain Holdings;602;3756;-3,3;183;-14,9;19433;4062;101;Jay N. Levine;President, Chief Executive Officer &  Director;Financials;Diversified Financials;0;Evansville;IN;37.9715592;-87.5710898
627;Colfax;626;3737;2,5;151,1;17,9;671;3934;143;Matthew L. Trerotola;President, Chief Executive Officer &  Director;Industrials;Industrial Machinery;0;Annapolis Junction;MD;39.1202934;-76.7769324
628;Zebra Technologies;639;3722;4,1;17;0;4275;7412;7;Anders Gustafsson;Chairman &  Chief Executive Officer;Industrials;Electronics, Electrical Equip.;0;Lincolnshire;IL;42.1900249;-87.9084039
629;Andersons;595;3686;-6,1;42,5;266,7;2162;943;1819;Patrick E. Bowe;President, Chief Executive Officer &  Director;Food, Beverages &  Tobacco;Food Production;0;Maumee;OH;41.5628294;-83.6538244
630;TD Ameritrade Holding;674;3685;10,5;872;3,6;38627;33605;10412;Timothy D. Hockey;President, Chief Executive Officer &  Director;Financials;Securities;0;Omaha;NE;41.2565369;-95.9345034
631;Carlyle Group;869;3676;61,6;244,1;3714,1;12281;2145;16;Kewsong Lee/Glenn A. Youngkin;Co-Chief Executive Officer &  Director;Financials;Securities;0;Leavenworth;WA;47.7510741;-120.7401385
632;Hubbell;650;3669;4,7;243,1;-17;3721;6678;177;David G. Nord;Chairman, President &  Chief Executive Officer;Industrials;Electronics, Electrical Equip.;0;Shelton;CT;41.3164856;-73.0931641
633;Trinity Industries;539;3663;-20,2;702,5;104,5;9543;4921;15605;Timothy R. Wallace;Chairman, President &  Chief Executive Officer;Transportation;Transportation Equipment;0;Dallas;TX;32.7766642;-96.7969879
634;Darling Ingredients;665;3662;7,8;128,5;25,6;4958;2848;98;Randall C. Stuewe;Chairman &  Chief Executive Officer;Food, Beverages &  Tobacco;Food Production;0;Irving;TX;32.8140177;-96.9488945
635;Flowserve;589;3661;-8,3;2,7;-98;4911;5668;17;R. Scott Rowe;President, Chief Executive Officer &  Director;Industrials;Industrial Machinery;0;Irving;TX;32.8140177;-96.9488945
636;Antero Resources;;3656;109,5;615,1;0;15262;6283;593;Paul M. Rady;Chairman &  Chief Executive Officer;Energy;Mining, Crude-Oil Production;0;Denver;CO;39.7392358;-104.990251
637;Skyworks Solutions;680;3651;11;1010,2;1,5;4574;18264;84;Liam K. Griffin;President, Chief Executive Officer &  Director;Technology;Semiconductors and Other Electronic Components;0;Woburn;MA;42.4792618;-71.1522765
638;Landstar System;699;3649;15,1;177,1;28,9;1353;4604;1273;James B. Gattoni;President, Chief Executive Officer &  Director;Transportation;Trucking, Truck Leasing;0;Jacksonville;FL;30.3321838;-81.655651
639;Buckeye Partners;685;3648;12,3;478,8;-10,6;10305;5494;187;Clark C. Smith;Chairman, President &  Chief Executive Officer;Energy;Pipelines;0;Houston;TX;29.7604267;-95.3698028
640;MRC Global;726;3646;19,9;50;0;234;1517;358;Andrew R. Lane;President, Chief Executive Officer &  Director;Energy;Oil and Gas Equipment, Services;0;Houston;TX;29.7604267;-95.3698028
641;CME Group;633;3645;1,4;4063,4;164,9;75791;55058;283;Terrence A. Duffy;Chairman &  Chief Executive Officer;Financials;Securities;0;Chicago;IL;41.8781136;-87.6297982
642;Greif;676;3638;9,5;118,6;58,3;3232;2636;13;Peter G. Watson;President, Chief Executive Officer &  Director;Materials;Packaging, Containers;0;Delaware;OH;40.2986724;-83.067965
643;Nexeo Solutions;;3637;241,3;14,4;0;2254;960;264;David A. Bradley;President, Chief Executive Officer &  Director;Wholesalers;Wholesalers: Diversified;0;The Woodlands;TX;30.1658207;-95.4612625
644;Cooper-Standard Holdings;655;3618;4,2;135,3;-2,7;2726;22;32;Jeffrey S. Edwards;Chairman &  Chief Executive Officer;Motor Vehicles &  Parts;Motor Vehicles and Parts;0;Novi;MI;42.48059;-83.4754913
645;Urban Outfitters;645;3616;2;108,3;-50,4;1953;4001;1633;Richard A. Hayne;Chairman &  Chief Executive Officer;Retailing;Specialty Retailers: Apparel;0;Philadelphia;PA;39.9525839;-75.1652215
646;LSC Communications;625;3603;-1,4;-57;-153,8;2014;608;24;Thomas J. Quinlan III;Chairman, President &  Chief Executive Officer;Media;Publishing, Printing;0;Chicago;IL;41.8781136;-87.6297982
647;Sabre;668;3599;6,7;242,5;0;5649;5887;9;Sean E. Menke;President, Chief Executive Officer &  Director;Technology;Internet Services and Retailing;0;Southlake;TX;32.9412363;-97.1341783
648;Green Plains;662;3596;5,4;61,1;472,6;2785;688;1427;Todd A. Becker;President, Chief Executive Officer &  Director;Energy;Energy;0;Omaha;NE;41.2565369;-95.9345034
649;Hexion;659;3591;4,5;-234;0;2097;0;43;Craig A. Rogerson;Chairman, President &  Chief Executive Officer;Chemicals;Chemicals;0;Columbus;OH;39.9611755;-82.9987942
650;Stericycle;642;3581;0,5;42,4;-79,5;6988;5007;232;Charles A. Alutto;President, Chief Executive Officer &  Director;Business Services;Waste Management;0;Lake Forest;IL;42.2586342;-87.840625
651;Warner Music Group;686;3576;10,2;143;472;5718;0;452;Stephen F. Cooper;President, Chief Executive Officer &  Director;Media;Entertainment;0;New York;NY;40.7127753;-74.0059728
652;Ventas;658;3574;3,8;1356,5;108,9;23955;17643;493;Debra A. Cafaro;Chairman &  Chief Executive Officer;Financials;Real estate;0;Chicago;IL;41.8781136;-87.6297982
653;ScanSource;647;3568;0,8;69,2;8,8;1718;909;2;Michael L. Baur;Chief Executive Officer &  Director;Wholesalers;Wholesalers: Electronics and Office Equipment;0;Greenville;SC;34.8526176;-82.3940104
654;Pinnacle West Capital;651;3565;1,9;488,5;10,5;17019;8932;6292;Donald E. Brandt;Chairman, President &  Chief Executive Officer;Energy;Utilities: Gas and Electric;0;Phoenix;AZ;33.4483771;-112.0740373
655;Scripps Networks Interactive;664;3562;4,7;623,9;-7,4;6522;0;36;David M. Zaslav;CEO-Discovery;Media;Entertainment;0;Knoxville;TN;35.9606384;-83.9207392
656;Alexion Pharmaceuticals;714;3551;15,1;443,3;11;13583;24784;2525;Ludwig N. Hantson;Chairman &  Chief Executive Officer;Health Care;Pharmaceuticals;0;New Haven;CT;41.308274;-72.9278835
657;Pitney Bowes;663;355;4,2;261,3;181,6;6679;2038;147;Marc B. Lautenbach;President, Chief Executive Officer &  Director;Technology;Computers, Office Equipment;0;Stamford;CT;41.0534302;-73.5387341
658;CIT Group;550;3545;-20,4;468,2;0;49279;6649;4167;Ellen R. Alemany;Chairwoman &  CEO;Financials;Commercial Banks;0;New York;NY;40.7127753;-74.0059728
659;Country Financial;657;3542;2,4;187,3;39;14664;0;3834;Kurt F. Bock;Chief Executive Officer;Financials;Insurance: Property and Casualty (Mutual);0;Bloomington;IL;40.4842027;-88.9936873
660;CUNA Mutual Group;683;3541;8,2;303,2;36,2;20595;0;33;Robert N. Trunzo;President, Chief Executive Officer &  Director;Financials;Insurance: Life, Health (stock);0;Madison;WI;43.0730517;-89.4012302
661;Triumph Group;601;3533;-9,1;-43;0;4415;1252;14309;Daniel J. Crowley;President, Chief Executive Officer &  Director;Aerospace &  Defense;Aerospace and Defense;0;Berwyn;PA;40.045824;-75.4395931
662;TransDigm Group;698;3529;11,3;596,9;1,8;9976;16021;92;Kevin M. Stein;President, Chief Executive Officer &  Director;Aerospace &  Defense;Aerospace and Defense;0;Cleveland;OH;41.49932;-81.6943605
663;Allegheny Technologies;707;3525;12,5;-91,9;0;5185;2974;86;Richard J. Harshman;Chairman, President &  Chief Executive Officer;Materials;Metals;0;Pittsburgh;PA;40.4406248;-79.9958864
664;Resolute Forest Products;646;3513;-0,9;-84;0;4147;749;77;Yves Laflamme;President, Chief Executive Officer &  Director;Materials;Forest and Paper Products;0;Catawba;SC;34.8529233;-80.9111862
665;Acuity Brands;679;3505;6,5;321,7;10,6;29;5868;125;Vernon J. Nagel;Chairman, President &  Chief Executive Officer;Industrials;Electronics, Electrical Equip.;0;Atlanta;GA;33.7489954;-84.3879824
666;Abercrombie & Fitch;675;3493;5;7,1;79,3;2326;1651;225;Fran Horowitz-Bonadies;Chief Executive Officer &  Director;Retailing;Specialty Retailers: Apparel;0;New Albany;OH;40.0811745;-82.8087864
667;KLA-Tencor;733;348;16,6;926,1;31,5;5532;17073;599;Richard P. Wallace;President, Chief Executive Officer &  Director;Technology;Semiconductors and Other Electronic Components;0;Milpitas;CA;37.4323341;-121.8995741
668;Weis Markets;706;3467;10,5;98,4;12,9;1442;1102;23;Jonathan H. Weis;Chairman, President &  Chief Executive Officer;Food &  Drug Stores;Food and Drug Stores;0;Sunbury;PA;40.862585;-76.7944104
669;Puget Energy;700;346;9,4;175,2;-44;13691;0;314;Kimberly J. Harris;President, Chief Executive Officer &  Director;Energy;Utilities: Gas and Electric;0;Bellevue;WA;47.6101497;-122.2015159
670;Mednax;697;3458;8,6;320,4;-1,4;5867;5251;14;Roger J. Medel;Chief Executive Officer &  Director;Health Care;Health Care: Pharmacy and Other Services;0;Fort Lauderdale;FL;26.1669711;-80.256595
671;Kar Auction Services;702;3458;9,8;362;62,8;6984;7285;15488;James P. Hallett;Chairman &  Chief Executive Officer;Wholesalers;Wholesalers: Diversified;0;Carmel;IN;39.978371;-86.1180435
672;PolyOne;673;3452;3,4;-57,7;-134,9;2705;34;64;Robert M. Patterson;Chairman, President &  Chief Executive Officer;Chemicals;Chemicals;0;Avon Lake;OH;41.5053178;-82.0282001
673;FMC;681;3442;4,8;535,8;156,2;9206;10297;7;Pierre R. Brondeau;Chairman, President &  Chief Executive Officer;Chemicals;Chemicals;0;Philadelphia;PA;39.9525839;-75.1652215
674;Edwards Lifesciences;734;3435;15,9;583,6;2,5;5696;29372;122;Michael A. Mussallem;Chairman &  Chief Executive Officer;Health Care;Medical Products and Equipment;0;Irvine;CA;33.6845673;-117.8265049
675;Microchip Technology;897;3426;57,6;164,6;-49,2;7687;2141;12656;Steve Sanghi;Chairman &  Chief Executive Officer;Technology;Semiconductors and Other Electronic Components;0;Chandler;AZ;33.3061605;-111.8412502
676;Amerco;682;3422;4,5;398,4;-18,5;9406;6767;20376;Edward J. Shoen;Chairman, President &  Chief Executive Officer;Transportation;Trucking, Truck Leasing;0;Reno;NV;39.5296329;-119.8138027
677;Mercury General;689;3416;5,8;144,9;98,3;5101;2538;43;Gabriel Tirador;President, Chief Executive Officer &  Director;Financials;Insurance: Property and Casualty (Stock);0;Los Angeles;CA;34.0522342;-118.2436849
678;American National Insurance;688;3411;5,7;493,7;172,7;26387;315;4621;James E. Pozzi;President, Chief Executive Officer &  Director;Financials;Insurance: Life, Health (stock);0;Galveston;TX;29.3013479;-94.7976958
679;Carters;694;34;6,3;302,8;17,3;2068;4902;209;Michael D. Casey;Chairman &  Chief Executive Officer;Apparel;Apparel;0;Atlanta;GA;33.7489954;-84.3879824
680;International Flavors & Fragrances;711;3399;9,1;295,7;-27;4599;10804;73;Andreas Fibig;Chairman &  Chief Executive Officer;Chemicals;Chemicals;0;New York;NY;40.7127753;-74.0059728
681;Aarons;692;3384;5,5;292,5;110;2692;3266;119;John W. Robinson III;President, Chief Executive Officer &  Director;Retailing;Specialty Retailers: Other;0;Atlanta;GA;33.7489954;-84.3879824
682;Alliant Energy;677;3382;1,9;457,3;23,1;14188;9453;3989;Patricia L. Kampling;Chairman &  Chief Executive Officer;Energy;Utilities: Gas and Electric;0;Madison;WI;43.0730517;-89.4012302
683;EQT;;3378;110;1508,5;0;29523;12565;2067;David L. Porges;Chairman, President &  Chief Executive Officer;Energy;Energy;0;Pittsburgh;PA;40.4406248;-79.9958864
684;Monster Beverage;721;3369;10,5;820,7;15,2;4791;32404;2589;Rodney C. Sacks;Chairman &  Chief Executive Officer;Food, Beverages &  Tobacco;Beverages;0;Corona;CA;33.8752935;-117.5664384
685;BMC Stock Holdings;712;3366;8,8;57,4;86;1473;1314;91;David L. Keltner;President, Chief Executive Officer &  Director;Wholesalers;Wholesalers: Diversified;0;Atlanta;GA;33.7489954;-84.3879824
686;Ryerson Holding;753;3365;17,7;17,1;-8,6;1712;303;36;Edward J. Lehner;President, Chief Executive Officer &  Director;Materials;Metals;0;Chicago;IL;41.8781136;-87.6297982
687;Equifax;703;3362;6,9;587,3;20,2;7233;14152;103;Mark W. Begor;Chairman &  Chief Executive Officer;Business Services;Financial Data Services;0;Atlanta;GA;33.7489954;-84.3879824
688;Regal Beloit;690;336;4,2;213;4,7;4388;3225;236;Mark J. Gliebe;Chairman &  Chief Executive Officer;Industrials;Electronics, Electrical Equip.;0;Beloit;WI;42.5083482;-89.0317765
689;Old Dominion Freight Line;731;3358;12,3;463,8;56,8;3068;12107;19183;Greg C. Gantt;President, Chief Executive Officer &  Director;Transportation;Trucking, Truck Leasing;0;Thomasville;NC;35.8826369;-80.0819879
690;American Water Works;678;3357;1,7;426;-9;19482;14622;69;Susan N. Story;President, Chief Executive Officer &  Director;Energy;Miscellaneous;0;Voorhees Township;NJ;39.8519447;-74.961517
691;BGC Partners;771;3353;23,2;51,5;-49,8;5457;4119;9238;Howard W. Lutnick;Chairman &  Chief Executive Officer;Financials;Securities;0;New York;NY;40.7127753;-74.0059728
692;Brinks;730;3347;10,8;16,7;-51,6;306;3609;6215;Douglas A. Pertz;President, Chief Executive Officer &  Director;Business Services;Diversified Outsourcing Services;0;Richmond;VA;37.5407246;-77.4360481
692;Meritor;730;3347;10,8;16,7;-51,6;306;3609;6215;Douglas A. Pertz;President, Chief Executive Officer &  Director;Business Services;Diversified Outsourcing Services;0;Richmond;VA;37.5407246;-77.4360481
694;Sentry Insurance Group;720;3346;9,3;288,5;30,1;17302;0;4139;Peter G. McPartland;Chairman, President &  Chief Executive Officer;Financials;Insurance: Property and Casualty (Mutual);0;Stevens Point;WI;44.5235792;-89.574563
695;Sanderson Farms;758;3342;18,7;279,7;48;1733;2718;14669;Joe F. Sanderson Jr.;Chairman &  Chief Executive Officer;Food, Beverages &  Tobacco;Food Production;0;Laurel;MS;31.6940509;-89.1306124
696;KapStone Paper & Packaging;715;3316;7,7;243,5;182,3;3324;3341;64;Matthew Kaplan;President, Chief Executive Officer &  Director;Materials;Packaging, Containers;0;Northbrook;IL;42.1275267;-87.8289548
697;Gartner;821;3312;35,5;3,3;-98,3;7283;10684;15131;Eugene A. Hall;Chief Executive Officer;Technology;Information Technology Services;0;Stamford;CT;41.0534302;-73.5387341
698;IAC/InterActiveCorp;705;3307,2;5,3;304,9;0;5867,8;12926;7000;Joseph Levin;Chief Executive Officer &  Director;Technology;Internet Services and Retailing;0;New York City;NY;40.7127753;-74.0059728
699;Tailored Brands;667;3304;-2,2;96,7;287,5;2;1234;182;Douglas S. Ewert;Chairman &  Chief Executive Officer;Retailing;Specialty Retailers: Apparel;0;Houston;TX;29.7604267;-95.3698028
700;WABCO Holdings;759;3304;17,6;406,1;82,1;4323;7194;14631;Jacques Esculier;Chairman &  Chief Executive Officer;Motor Vehicles &  Parts;Motor Vehicles and Parts;0;Rochester Hills;MI;42.6583661;-83.1499322
701;Insperity;739;33;12,2;84,4;27,9;1064;2921;29;Paul J. Sarvadi;Chairman &  Chief Executive Officer;Business Services;Diversified Outsourcing Services;0;Houston;TX;30.0575359;-95.1902986
702;Comerica;736;3289;11,1;743;55,8;71567;16562;7999;Ralph W. Babb Jr.;Chairman &  Chief Executive Officer;Financials;Commercial Banks;0;Dallas;TX;32.7766642;-96.7969879
703;TriNet Group;717;3275;7;178;189,9;2593;3245;27;Burton M. Goldfield;President, Chief Executive Officer &  Director;Business Services;Diversified Outsourcing Services;0;San Leandro;CA;37.7249296;-122.1560768
704;Avaya Holdings;621;3272;-11,6;0;0;5898;2459;87;James M. Chirico Jr.;President, Chief Executive Officer &  Director;Technology;Information Technology Services;0;Santa Clara;CA;37.3541079;-121.9552356
705;Ashland Global Holdings;516;326;-34,1;1;0;8618;4343;65;William A. Wulfsohn;Chairman &  Chief Executive Officer;Chemicals;Chemicals;0;Covington;KY;39.0836712;-84.5085536
706;Meritage Homes;725;3241;6,6;143,3;-4,2;3251;1839;1605;Steven J. Hilton;Chairman &  Chief Executive Officer;Engineering &  Construction;Homebuilders;0;Scottsdale;AZ;33.4941704;-111.9260519
707;SkyWest;710;3204;2,7;428,9;0;5458;2838;163;Russell A. Childs;President, Chief Executive Officer &  Director;Transportation;Airlines;0;St. George;UT;37.0965278;-113.5684164
708;USG;566;3204;-24,9;88;-82,7;3851;5664;68;Jennifer F. Scanlon;President, Chief Executive Officer &  Director;Materials;Building Materials, Glass;0;Chicago;IL;41.8781136;-87.6297982
709;Southwestern Energy;823;3203;31,5;1046;0;7521;2542;1575;William J. Way;President, Chief Executive Officer &  Director;Energy;Mining, Crude-Oil Production;0;Spring;TX;30.0799405;-95.4171601
710;Keysight Technologies;745;3189;9,3;102;-69,6;5933;9825;126;Ronald S. Nersesian;President, Chief Executive Officer &  Director;Technology;Scientific,Photographic and  Control Equipment;0;Santa Rosa;CA;38.440429;-122.7140548
711;Regal Entertainment Group;696;3163;-1,1;112,3;-34,1;2843;0;26047;Nisan Cohen;President, Chief Executive Officer &  Director;Media;Entertainment;0;Knoxville;TN;35.9606384;-83.9207392
712;Mutual of America Life Insurance;770;3163;16,1;26,2;56,7;21194;0;1079;John R. Greed;Chairman, President &  Chief Executive Officer;Financials;Insurance: Life, Health (Mutual);0;New York;NY;40.7127753;-74.0059728
713;Paychex;737;3151;6,8;817,3;8;6834;22128;137;Martin Mucci;President, Chief Executive Officer &  Director;Business Services;Diversified Outsourcing Services;0;Rochester;NY;43.1565779;-77.6088465
714;Brinker International;684;3151;-3,3;150,8;-24,9;1414;1673;57906;Wyman T. Roberts;President, Chief Executive Officer &  Director;Hotels, Restaurants &  Leisure;Food Services;0;Dallas;TX;32.7766642;-96.7969879
715;Penn National Gaming;728;3148;3,7;473,5;333,1;5235;2407;18754;Timothy J. Wilmott;Chairman &  Chief Executive Officer;Hotels, Restaurants &  Leisure;Hotels, Casinos, Resorts;0;Wyomissing;PA;40.329537;-75.9652117
716;Gannett;722;3147;3,2;6,9;-86,9;257;1126;19;Robert J. Dickey;President, Chief Executive Officer &  Director;Media;Publishing, Printing;0;McLean;VA;38.9338676;-77.1772604
717;Visteon;693;3146;-1,9;176;134,7;2304;3409;10;Sachin S. Lawande;President, Chief Executive Officer &  Director;Motor Vehicles &  Parts;Motor Vehicles and Parts;0;Van Buren Charter Township;MI;42.2203171;-83.4838244
718;Pinnacle Foods;708;3144;0,5;532;152;6578;644;49;Mark A. Clouse;Chairman &  Chief Executive Officer;Food, Beverages &  Tobacco;Food Consumer Products;0;Parsippany-Troy Hills;NJ;40.8652865;-74.4173877
719;Intuitive Surgical;773;3129;15,7;660;-10,3;5758;46675;4444;Gary S. Guthart;President, Chief Executive Officer &  Director;Health Care;Medical Products and Equipment;0;Sunnyvale;CA;37.36883;-122.0363496
720;Continental Resources;945;3121;57,6;789,4;0;142;22119;1127;Harold G. Hamm;Chairman &  Chief Executive Officer;Energy;Mining, Crude-Oil Production;0;Oklahoma City;OK;35.4675602;-97.5164276
721;Service Corp. International;729;3095;2,1;546,7;208,8;12865;6959;19468;Thomas L. Ryan;Chairman &  Chief Executive Officer;Business Services;Miscellaneous;0;Houston;TX;29.7604267;-95.3698028
722;Scientific Games;750;3084;6,9;-242,3;0;7725;3743;86;Barry L. Cottle;President, Chief Executive Officer &  Director;Hotels, Restaurants &  Leisure;Hotels, Casinos, Resorts;0;Las Vegas;NV;36.1699412;-115.1398296
723;Albemarle;654;3072;-12;54,9;-91,5;7751;10269;54;Luther C. Kissam IV;Chairman, President &  Chief Executive Officer;Chemicals;Chemicals;0;Charlotte;NC;35.2270869;-80.8431267
724;Atmos Energy;670;3063;-8,6;396,4;13,2;1075;9348;4565;Michael E. Haefner;President, Chief Executive Officer &  Director;Energy;Utilities: Gas and Electric;0;Dallas;TX;32.7766642;-96.7969879
725;Hologic;755;3059;8;755,5;128,4;798;10331;6233;Stephen P. MacMillan;Chairman, President &  Chief Executive Officer;Health Care;Medical Products and Equipment;0;Marlboro;MA;42.3459271;-71.5522874
726;H& R Block;727;3036;-0,1;408,9;9,3;2694;5316;449;Jeffrey J. Jones II;President, Chief Executive Officer &  Director;Financials;Diversified Financials;0;KCMO;MO;39.0997265;-94.5785667
727;Qorvo;787;3033;16,2;-16,6;0;6522;8912;86;Robert A. Bruggeworth;President, Chief Executive Officer &  Director;Technology;Semiconductors and Other Electronic Components;0;Greensboro;NC;36.0726354;-79.7919754
728;Steelcase;718;3032;-0,9;124,6;-26,8;1792;158;1265;James P. Keane;President, Chief Executive Officer &  Director;Household Products;Home Equipment, Furnishings;0;Grand Rapids;MI;42.9633599;-85.6680863
729;Univision Communications;724;3016;-0,8;654,9;199,2;9599;0;45;Vincent Sadusky;President, Chief Executive Officer &  Director;Media;Entertainment;0;New York;NY;40.7127753;-74.0059728
730;Worthington Industries;757;3014;6,9;204,5;42,3;2325;2644;10;John P. McConnell;Chairman &  Chief Executive Officer;Materials;Metals;0;Columbus;OH;39.9611755;-82.9987942
731;Timken;781;3004;12,5;203,4;33,3;3402;3556;15006;Richard G. Kyle;President, Chief Executive Officer &  Director;Industrials;Industrial Machinery;0;North Canton;OH;40.875891;-81.4023356
732;A.O. Smith;776;2997;11,6;296,5;-9,2;3197;10908;161;Ajita G. Rajendra;Chairman &  Chief Executive Officer;Industrials;Electronics, Electrical Equip.;0;Milwaukee;WI;43.0389025;-87.9064736
733;PriceSmart;748;2997;3,1;90,7;2,3;1178;254;7903;Jose Luis Laparte;President, Chief Executive Officer &  Director;Retailing;General Merchandisers;0;San Diego;CA;32.715738;-117.1610838
734;Stifel Financial;785;2997;13,4;182,9;124,3;21384;4256;71;Ronald J. Kruszewski;Co-Chairman &  Chief Executive Officer;Financials;Securities;0;St. Louis;MO;38.6270025;-90.1994042
735;Brown-Forman;713;2994;-3,1;669;-37,3;4625;2616;457;Paul C. Varga;Chairman &  Chief Executive Officer;Food, Beverages &  Tobacco;Beverages;0;Louisville;KY;38.2526647;-85.7584557
736;Cinemark Holdings;744;2992;2,5;264,2;3,6;4471;4388;19915;Mark Zoradi;Chairman &  Chief Executive Officer;Media;Entertainment;0;Plano;TX;33.0198431;-96.6988856
737;Granite Construction;808;299;18,9;69,1;21;1872;2228;36;James H. Roberts;President, Chief Executive Officer &  Director;Engineering &  Construction;Engineering, Construction;0;Watsonville;CA;36.910231;-121.7568946
738;Dycom Industries;780;2978;0,8;151,3;-3,7;1841;3357;14365;Steven E. Nielsen;Chairman, President &  Chief Executive Officer;Engineering &  Construction;Engineering, Construction;0;Palm Beach Gardens;FL;26.8233946;-80.1386547
739;Clean Harbors;764;2945;6,9;100,7;0;3707;2758;127;Alan S. McKim;Chairman, President &  Chief Executive Officer;Business Services;Waste Management;0;Norwell;MA;42.1615157;-70.7927832
740;First Solar;738;2941;-0,3;-165,6;0;6865;7416;41;Mark R. Widmar;Chairman &  Chief Executive Officer;Energy;Energy;0;Tempe;AZ;33.4255104;-111.9400054
741;Scotts Miracle-Gro;740;2936;0;218,3;-30,8;2747;4881;47;James S. Hagedorn;Chairman &  Chief Executive Officer;Chemicals;Chemicals;0;Marysville;OH;40.2364486;-83.3671432
742;Cracker Barrel Old Country Store;747;2926;0,5;201,9;6,7;1522;3821;73;Sandra B. Cochran;President, Chief Executive Officer &  Director;Hotels, Restaurants &  Leisure;Food Services;0;Lebanon;TN;36.2081098;-86.2911024
743;Triple-S Management;732;2916;-2,3;54,5;212,5;3117;616;3517;Roberto Garcia-Rodriguez;President, Chief Executive Officer &  Director;Health Care;Health Care: Insurance and Managed Care;0;San Juan;Puerto Rico;18.4655394;-66.1057355
744;First Republic Bank;842;2912;22,6;757,7;12,5;87781;14982;4025;James H. Herbert II;Chairman &  Chief Executive Officer;Financials;Commercial Banks;0;SF;CA;37.7749295;-122.4194155
745;ServiceMaster Global Holdings;768;2912;6;510;229;5646;6882;13;Nikhil Varty;Chairman &  Chief Executive Officer;Business Services;Diversified Outsourcing Services;0;Memphis;TN;35.1495343;-90.0489801
746;PC Connection;775;2912;8,1;54,9;14;748;671;2505;Timothy J. McGrath;President, Chief Executive Officer &  Director;Retailing;Specialty Retailers: Other;0;Merrimack;NH;42.8678693;-71.4948322
747;Genesco;751;2907;1,3;-111,8;-214,8;1315;809;1935;Robert J. Dennis;Chairman, President &  Chief Executive Officer;Retailing;Specialty Retailers: Apparel;0;Nashville;TN;36.1626638;-86.7816016
748;Medical Mutual of Ohio;762;2895;5;8,1;-80;2234;0;2244;Richard A. Chiricosta;Chairman, President &  Chief Executive Officer;Financials;Insurance: Life, Health (Mutual);0;Cleveland;OH;41.49932;-81.6943605
749;MSC Industrial Direct;752;2888;0,8;231,4;0,1;2099;5178;6563;Erik Gershwind;President, Chief Executive Officer &  Director;Wholesalers;Wholesalers: Diversified;0;Melville;NY;40.7934322;-73.4151214
750;Legg Mason;783;2887;8,5;227,3;0;829;3437;3338;Joseph A. Sullivan;Chairman, President &  Chief Executive Officer;Financials;Securities;0;Baltimore;MD;39.2903848;-76.6121893
751;Hyster-Yale Materials Handling;792;2885;12,3;48,6;13,6;1648;1157;68;Alfred M. Rankin Jr.;Chairman, President &  Chief Executive Officer;Industrials;Industrial Machinery;0;Cleveland;OH;41.49932;-81.6943605
752;Apollo Global Management;881;2884;29,8;629,1;56,2;6991;597;1047;Leon D. Black;Chairman &  Chief Executive Officer;Financials;Securities;0;New York;NY;40.7127753;-74.0059728
753;Citrix Systems;661;2883;-15,7;-20,7;-103,9;582;12635;75;David J. Henshall;President, Chief Executive Officer &  Director;Technology;Computer Software;0;Fort Lauderdale;FL;26.1224386;-80.1373174
754;Acadia Healthcare;754;2877;0,9;199,8;3153,1;6425;3459;3405;Joey A. Jacobs;Chairman &  Chief Executive Officer;Health Care;Health Care: Medical Facilities;0;Franklin;TN;35.9250637;-86.8688899
755;Varian Medical Systems;691;2862;-11,1;249,6;-38;3179;11198;66;Dow R. Wilson;President, Chief Executive Officer &  Director;Health Care;Medical Products and Equipment;0;Palo Alto;CA;37.4418834;-122.1430195
756;Groupon;704;2859;-9;14;0;1678;2437;6672;Rich Williams;Chairman &  Chief Executive Officer;Technology;Internet Services and Retailing;0;Chicago;IL;41.8781136;-87.6297982
757;Aleris;782;2858;7,3;-210,6;0;2644;0;54;Sean M. Stack;Chairman, President &  Chief Executive Officer;Materials;Metals;0;Cleveland;OH;41.49932;-81.6943605
758;Sprague Resources;837;2855;19,5;29,5;190,2;1363;542;981;David C. Glendon;President, Chief Executive Officer &  Director;Wholesalers;Wholesalers: Diversified;0;Portsmouth;NH;43.0717552;-70.7625532
759;Cooper Tire & Rubber;743;2855;-2,4;95,4;-61,6;2608;1491;9204;Bradley E. Hughes;President, Chief Executive Officer &  Director;Motor Vehicles &  Parts;Motor Vehicles and Parts;0;Findlay;OH;41.04422;-83.6499321
760;Hain Celestial Group;;2853;-1,1;67,4;42,2;2931;3333;7825;Irwin D. Simon;Chairman, President &  Chief Executive Officer;Food, Beverages &  Tobacco;Food Consumer Products;0;Lake Success;NY;40.7706572;-73.7176312
761;Penn Mutual Life Insurance;799;2851;12,4;594;181,8;3166;0;3089;Eileen C. McDonnell;Chairman &  Chief Executive Officer;Financials;Insurance: Life, Health (stock);0;Horsham;PA;40.1784422;-75.1285061
762;Colony NorthStar;;2842;613,2;-197,9;-568;24786;3038;544;Richard B. Saltzman;President, Chief Executive Officer &  Director;Financials;Real estate;0;Los Angeles;CA;34.0522342;-118.2436849
763;ArcBest;774;2827;4,7;59,7;220,2;1366;822;13;Judy R. McReynolds;Chairman, President &  Chief Executive Officer;Transportation;Trucking, Truck Leasing;0;Fort Smith;AR;35.3859242;-94.3985475
764;Presidio;;2818;2,8;4,4;0;2651;1438;27;Robert Cagnazzi;Chairman, President &  Chief Executive Officer;Technology;Information Technology Services;0;New York;NY;40.7127753;-74.0059728
765;TRI Pointe Group;831;281;16,8;187,2;-4,1;3805;2487;1251;Douglas F. Bauer;Chairman &  Chief Executive Officer;Engineering &  Construction;Homebuilders;0;Irvine;CA;33.6845673;-117.8265049
766;Annaly Capital Management;853;2809;20,1;1569,6;9,5;10176;12095;152;Kevin G. Keyes;Chairman, President &  Chief Executive Officer;Financials;Diversified Financials;0;New York;NY;40.7127753;-74.0059728
767;G-III Apparel Group;838;2807;17,6;62,1;19,6;1915;1849;9961;Morris Goldfarb;Chairman &  Chief Executive Officer;Apparel;Apparel;0;New York;NY;40.7127753;-74.0059728
768;AMC Networks;763;2806;1,8;471,3;74,2;5033;314;2039;Joshua W. Sapan;President, Chief Executive Officer &  Director;Media;Entertainment;0;New York;NY;40.7127753;-74.0059728
769;Enable Midstream Partners;870;2803;23,4;436;39,7;11593;5935;163;Rodney J. Sailor;President, Chief Executive Officer &  Director;Energy;Pipelines;0;Oklahoma City;OK;35.4675602;-97.5164276
770;Ciena;788;2802;7,7;1262;1638,6;3952;3719;5737;Gary B. Smith;President, Chief Executive Officer &  Director;Technology;Network and Other Communications Equipment;0;Hanover;MD;39.1955042;-76.7228227
771;DSW;772;28;3,3;67,3;-46;1414;1798;12;Roger L. Rawlins;Chairman &  Chief Executive Officer;Retailing;Specialty Retailers: Apparel;0;Columbus;OH;39.9611755;-82.9987942
772;Convergys;746;2792;-4,2;121,4;-15,1;2415;2073;115;Andrea J. Ayers;President, Chief Executive Officer &  Director;Business Services;Diversified Outsourcing Services;0;Cincinnati;OH;39.1031182;-84.5120196
773;Park Hotels & Resorts;;2791;0;2625;0;9714;5435;520;Thomas J. Baltimore Jr.;Chairman, President &  Chief Executive Officer;Financials;Real estate;0;McLean;VA;38.9338676;-77.1772604
774;Pool;791;2788;8,5;191,6;28,7;1101;5931;4;Manuel J. Perez de la Mesa;President, Chief Executive Officer &  Director;Wholesalers;Wholesalers: Diversified;0;Covington;LA;30.4754702;-90.1009108
775;Fossil Group;723;2788;-8,4;-478,2;-706,3;1658;618;123;Kosta N. Kartsotis;Chairman &  Chief Executive Officer;Apparel;Apparel;0;Richardson;TX;32.9483335;-96.7298519
776;Dominos Pizza;815;2788;12,8;277,9;29,5;837;1006;142;J. Patrick Doyle;President, Chief Executive Officer &  Director;Hotels, Restaurants &  Leisure;Food Services;0;Ann Arbor;MI;42.2808256;-83.7430378
777;Crane;767;2786;1,4;171,8;39,9;3594;5547;106;Max H. Mitchell;President, Chief Executive Officer &  Director;Industrials;Industrial Machinery;0;Stamford;CT;41.0534302;-73.5387341
778;Caleres;790;2786;8;87,2;32,8;1489;1444;12;Diane M. Sullivan;Chairman, President &  Chief Executive Officer;Retailing;Specialty Retailers: Apparel;0;St. Louis;MO;38.6270025;-90.1994042
779;Tempur Sealy International;709;2754;-12;151,4;-20,6;2694;2461;7;Scott L. Thompson;Chairman, President &  Chief Executive Officer;Household Products;Home Equipment, Furnishings;0;Lexington;KY;38.0405837;-84.5037164
780;Tetra Tech;789;2753;6,6;117,9;40,7;1903;2734;16;Dan L. Batrack;Chairman, President &  Chief Executive Officer;Engineering &  Construction;Engineering, Construction;0;Pasadena;CA;34.1477849;-118.1445155
781;Illumina;833;2752;14,7;726;56,9;5257;34754;62;Francis A. deSouza;President, Chief Executive Officer &  Director;Technology;Scientific,Photographic and  Control Equipment;0;San Diego;CA;32.715738;-117.1610838
782;Valmont Industries;804;2746;8,9;116,2;-32,9;2602;3322;1069;Stephen G. Kaniewski;President, Chief Executive Officer &  Director;Materials;Metals;0;Omaha;NE;41.2565369;-95.9345034
783;Hill-Rom Holdings;784;2744;3,3;133,6;7,7;4529;5757;10;John P. Groetelaars;President, Chief Executive Officer &  Director;Health Care;Medical Products and Equipment;0;Chicago;IL;41.8781136;-87.6297982
784;Unisys;756;2742;-2,8;-65,3;0;2542;544;205;Peter A. Altabef;President, Chief Executive Officer &  Director;Technology;Information Technology Services;0;Blue Bell;PA;40.1523309;-75.266289
785;Zions Bancorp.;816;2736;10,8;592;26,2;66288;10362;10083;Harris H. Simmons;Chairman &  Chief Executive Officer;Financials;Commercial Banks;0;Salt Lake City;UT;40.7607793;-111.8910474
786;Sinclair Broadcast Group;769;2734;-0,1;576;134,8;6785;3185;89;Christopher S. Ripley;President, Chief Executive Officer &  Director;Media;Entertainment;0;Cockeysville;MD;39.4900013;-76.6585074
787;Louisiana-Pacific;878;2734;22,4;389,8;160,2;2449;4173;5;W. Bradley Southern;Chairman &  Chief Executive Officer;Materials;Building Materials, Glass;0;Nashville;TN;36.1626638;-86.7816016
788;Mettler-Toledo International;810;2725;8,6;376;-2,2;255;14635;146;Olivier A. Filliol;President, Chief Executive Officer &  Director;Technology;Scientific,Photographic and  Control Equipment;0;Columbus;OH;39.9611755;-82.9987942
789;Synopsys;827;2725;12,5;136,6;-48,8;5396;1238;11686;Aart J. de Geus/Chi-Foon Chan;Chairman &  Co-Chief Executive Officer;Technology;Computer Software;0;Mountain View;CA;37.3860517;-122.0838511
790;Kemper;803;2723;8;120,9;619,6;8376;2933;555;Joseph P. Lacher Jr.;President, Chief Executive Officer &  Director;Financials;Insurance: Property and Casualty (Stock);0;Chicago;IL;41.8781136;-87.6297982
791;Cabot;829;2717;12,7;241;61,7;3314;3444;45;Sean D. Keohane;President, Chief Executive Officer &  Director;Chemicals;Chemicals;0;Boston;MA;42.3600825;-71.0588801
792;Great Plains Energy;778;2708;1,2;-106,2;-136,6;12458;6856;2709;Terry D. Bassham;Chairman, President &  Chief Executive Officer;Energy;Utilities: Gas and Electric;0;KCMO;MO;39.0997265;-94.5785667
793;Rent-A-Center;735;2703;-8,8;6,7;0;1421;461;183;Mitchell E. Fadel;Chairman &  Chief Executive Officer;Retailing;Specialty Retailers: Other;0;Plano;TX;33.0198431;-96.6988856
794;Hawaiian Holdings;819;2696;10;364;54,6;286;1986;666;Peter R. Ingram;President, Chief Executive Officer &  Director;Transportation;Airlines;0;Honolulu;HI;21.3069444;-157.8583333
795;Revlon;855;2694;15,4;-183,2;0;3057;1085;78;Debra G. Perelman;Vice Chairman &  Chief Executive Officer;Household Products;Household and Personal Products;0;New York;NY;40.7127753;-74.0059728
796;Syneos Health;;2672;65,9;-138,5;-222,9;7286;3713;21;Alistair MacDonald;Chairman &  Chief Executive Officer;Health Care;Health Care: Pharmacy and Other Services;0;Raleigh;NC;35.7795897;-78.6381787
797;Public Storage;794;2669;4,2;1442,2;-0,8;10733;34885;56;Ronald L. Havner Jr.;Chairman &  Chief Executive Officer;Financials;Real estate;0;Glendale;CA;34.1425078;-118.255075
798;TTM Technologies;800;2659;4,9;124,2;256,3;2782;1582;29;Thomas T. Edman;President, Chief Executive Officer &  Director;Technology;Semiconductors and Other Electronic Components;0;Costa Mesa;CA;33.6412156;-117.9188221
799;Vectren;820;2657;8,5;216;2,1;6239;531;55;Carl L. Chapman;Chairman, President &  Chief Executive Officer;Energy;Utilities: Gas and Electric;0;Evansville;IN;37.9715592;-87.5710898
800;Trimble;844;2654;12,4;121,1;-8,5;4298;892;9523;Steven W. Berglund;President, Chief Executive Officer &  Director;Technology;Scientific,Photographic and  Control Equipment;0;Sunnyvale;CA;37.36883;-122.0363496
801;NOW;910;2648;25,7;-52;0;1749;1104;4463;Robert R. Workman;President, Chief Executive Officer &  Director;Wholesalers;Wholesalers: Diversified;0;Houston;TX;29.7604267;-95.3698028
802;Spirit Airlines;860;2648;14;420,6;58,8;4144;2577;61;Robert L. Fornaro;Chairman &  Chief Executive Officer;Transportation;Airlines;0;Miramar;FL;25.9860762;-80.3035602
803;ASGN;822;2626;7,6;157,7;62,2;181;4272;38;Peter T. Dameris;Chief Executive Officer &  Director;Business Services;Temporary Help;0;Calabasas;CA;34.1367208;-118.6614809
804;Lincoln Electric Holdings;868;2624;15,4;247,5;24,8;2407;5902;11;Christopher L. Mapes;Chairman, President &  Chief Executive Officer;Industrials;Industrial Machinery;0;Cleveland;OH;41.49932;-81.6943605
805;Prologis;801;2618;3,4;1652,3;36,6;29481;33578;1565;Hamid R. Moghadam;Chairman &  Chief Executive Officer;Financials;Real estate;0;SF;CA;37.7749295;-122.4194155
806;Range Resources;;2611;137,4;333,1;0;11729;3614;773;Jeffrey L. Ventura;Chairman, President &  Chief Executive Officer;Energy;Mining, Crude-Oil Production;0;Fort Worth;TX;32.7554883;-97.3307658
807;Teledyne Technologies;900;2604;21,1;227,2;19;3846;6682;1034;Robert Mehrabian;Chairman, President &  Chief Executive Officer;Aerospace &  Defense;Aerospace and Defense;0;Thousand Oaks;CA;34.1705609;-118.8375937
808;Vishay Intertechnology;858;2604;12,1;-20,3;-141,7;3459;2682;23;Gerald Paul;President, Chief Executive Officer &  Director;Technology;Semiconductors and Other Electronic Components;0;Malvern;PA;40.0362184;-75.5138118
809;Boston Properties;796;2602;2;462,4;-9,8;19372;19018;740;Owen D. Thomas;Chief Executive Officer;Financials;Real estate;0;Boston;MA;42.3600825;-71.0588801
810;Applied Industrial Technologies;806;2594;2,9;133,9;352,8;1388;2819;5554;Neil A. Schrimsher;President, Chief Executive Officer &  Director;Wholesalers;Wholesalers: Diversified;0;Cleveland;OH;41.49932;-81.6943605
811;Graham Holdings;813;2592;4,4;302;79,2;4938;3312;16153;Timothy J. O?Shaughnessy;President, Chief Executive Officer &  Director;Business Services;Education;0;Arlington;VA;38.8816208;-77.0909809
812;Amica Mutual Insurance;834;259;8;96,1;-38,9;6355;0;3693;Robert A. DiMuccio;Chairman, President &  Chief Executive Officer;Financials;Insurance: Property and Casualty (Mutual);0;Lincoln;RI;41.9110123;-71.4418101
813;Concho Resources;;2586;58,2;956;0;13732;22409;1203;Timothy A. Leach;Chairman &  Chief Executive Officer;Energy;Mining, Crude-Oil Production;0;Midland;TX;31.9973456;-102.0779146
814;ITT;830;2585;7,5;113,5;-39;37;4343;10;Denise L. Ramos;President, Chief Executive Officer &  Director;Industrials;Industrial Machinery;0;White Plains;NY;41.0339862;-73.7629097
815;Kansas City Southern;854;2583;10,7;962;101,2;9199;1132;713;Patrick J. Ottensmeyer;President, Chief Executive Officer &  Director;Transportation;Railroads;0;KCMO;MO;39.0997265;-94.5785667
816;MDC Holdings;857;2578;10,8;141,8;37,4;278;1567;1491;Larry A. Mizel;Chairman &  Chief Executive Officer;Engineering &  Construction;Homebuilders;0;Denver;CO;39.7392358;-104.990251
817;Evergy;793;2571;0,3;323,9;-6,5;11624;748;2205;Terry D. Bassham;President, Chief Executive Officer &  Director;Energy;Utilities: Gas and Electric;0;Topeka;KS;39.0473451;-95.6751576
818;Pinnacle Entertainment;840;2562;7,7;63,1;0;395;1753;15377;Anthony M. Sanfilippo;Chairman &  Chief Executive Officer;Hotels, Restaurants &  Leisure;Hotels, Casinos, Resorts;0;Las Vegas;NV;36.1699412;-115.1398296
819;Hawaiian Electric Industries;839;2556;7,3;165,3;-33,4;131;3742;388;Constance H. Lau;President, Chief Executive Officer &  Director;Energy;Utilities: Gas and Electric;0;Honolulu;HI;21.3069444;-157.8583333
820;TEGNA;671;255;-23,7;273,7;-37,3;4962;2456;5283;David T. Lougee;President, Chief Executive Officer &  Director;Media;Entertainment;0;McLean;VA;38.9338676;-77.1772604
821;Southwest Gas Holdings;817;2549;3,6;193,8;27,5;6237;3259;7771;John P. Hester;President, Chief Executive Officer &  Director;Energy;Utilities: Gas and Electric;0;Las Vegas;NV;36.1699412;-115.1398296
822;Vista Outdoor;872;2547;12,2;-274,5;-286,7;2977;936;64;Christopher T. Metz;Chairman &  Chief Executive Officer;Household Products;Miscellaneous;0;Farmington;UT;40.9804999;-111.8874392
823;Bon-Ton Stores;779;2541;-5;-90,7;0;1587;1;233;William X. Tracy;President, Chief Executive Officer &  Director;Retailing;General Merchandisers;0;York;PA;39.9625984;-76.727745
824;Super Micro Computer;884;253;14,2;69,3;-3,7;1489;828;2699;Charles Liang;Chairman, President &  Chief Executive Officer;Technology;Computers, Office Equipment;0;San Jose;CA;37.3382082;-121.8863286
825;Plexus;795;2528;-1,1;112,1;46,6;1976;2012;16;Todd P. Kelsey;President, Chief Executive Officer &  Director;Technology;Semiconductors and Other Electronic Components;0;Neenah;WI;44.1858193;-88.462609
826;TrueBlue;766;2509;-8,8;55,5;0;1109;1063;55;Steven C. Cooper;Chairman &  Chief Executive Officer;Business Services;Temporary Help;0;Tacoma;WA;47.2528768;-122.4442906
827;Magellan Midstream Partners;889;2508;13,7;869,5;8,3;7394;13315;1802;Michael N. Mears;Chairman, President &  Chief Executive Officer;Energy;Pipelines;0;Tulsa;OK;36.1539816;-95.992775
828;Toro;836;2505;4,7;267,7;15,9;1494;6621;6779;Richard M. Olson;Chairman, President &  Chief Executive Officer;Industrials;Construction and Farm Machinery;0;Bloomington;MN;44.840798;-93.2982799
829;Akamai Technologies;851;2503;7;218,3;-30,9;4603;12069;765;F. Thomson Leighton;Chief Executive Officer &  Director;Technology;Internet Services and Retailing;0;Cambridge;MA;42.3736158;-71.1097335
830;Moog;828;2498;3,5;141,3;11,5;3091;2949;10675;John R. Scannell;Chairman &  Chief Executive Officer;Aerospace &  Defense;Aerospace and Defense;0;Elma Center;NY;42.8212288;-78.6341996
831;Vertex Pharmaceuticals;;2489;46,2;263,5;0;3546;41379;23;Jeffrey M. Leiden;Chairman, President &  Chief Executive Officer;Health Care;Pharmaceuticals;0;Boston;MA;42.3600825;-71.0588801
832;Equity Residential;825;2471;1,9;603,5;-85,9;20571;22687;2683;David J. Neithercut;President, Chief Executive Officer &  Director;Financials;Real estate;0;Chicago;IL;41.8781136;-87.6297982
833;Selective Insurance Group;865;247;8,1;168,8;6,5;7686;3566;226;Gregory E. Murphy;Chairman &  Chief Executive Officer;Financials;Insurance: Property and Casualty (Stock);0;Branchville;NJ;41.1464852;-74.7523874
834;AptarGroup;856;2469;5,9;220;7;3138;56;132;Stephan B. Tanda;President, Chief Executive Officer &  Director;Materials;Packaging, Containers;0;Crystal Lake;IL;42.2411344;-88.3161965
835;Benchmark Electronics;863;2467;6,8;-32;-149,9;2097;1455;106;Paul J. Tufano;President, Chief Executive Officer &  Director;Technology;Semiconductors and Other Electronic Components;0;Scottsdale;AZ;33.4941704;-111.9260519
836;Columbia Sportswear;841;2466;3,7;105,1;-45,2;2213;5351;6188;Timothy P. Boyle;President, Chief Executive Officer &  Director;Apparel;Apparel;0;Portland;OR;45.5122308;-122.6587185
837;A. Schulman;811;2461;-1,4;33;0;1754;127;49;Joseph M. Gingo;Chairman, President &  Chief Executive Officer;Chemicals;Chemicals;0;Fairlawn;OH;41.127833;-81.609844
838;Verso;786;2461;-6,8;-30;0;1732;580;42;B. Christopher DiSantis;President, Chief Executive Officer &  Director;Materials;Forest and Paper Products;0;Miamisburg;OH;39.6428362;-84.2866083
839;Digital Realty Trust;901;2458;14,7;248,3;-41,7;21404;21701;1429;A. William Stein;Chairman &  Chief Executive Officer;Financials;Real estate;0;SF;CA;37.7749295;-122.4194155
840;GNC Holdings;797;2453;-3,4;-148,9;0;1517;323;115;Kenneth A. Martindale;Chairman &  Chief Executive Officer;Food &  Drug Stores;Food and Drug Stores;0;Pittsburgh;PA;40.4406248;-79.9958864
841;E*Trade Financial;930;2452;21;614;11,2;63365;14692;3607;Karl A. Roessner;Chairman &  Chief Executive Officer;Financials;Securities;0;New York;NY;40.7127753;-74.0059728
842;Hovnanian Enterprises;765;2452;-10,9;-332,2;0;1901;271;1905;Ara K. Hovnanian;Chairman, President &  Chief Executive Officer;Engineering &  Construction;Homebuilders;0;Red Bank;NJ;40.3470543;-74.0643065
843;Maximus;832;2451;2;209,4;17,4;1351;4353;204;Bruce L. Caswell;President, Chief Executive Officer &  Director;Technology;Information Technology Services;0;Reston;VA;38.9586307;-77.3570028
844;Twitter;802;2443;-3,4;-108,1;0;7413;21784;3372;Jack Dorsey;Chairman &  Chief Executive Officer;Technology;Internet Services and Retailing;0;SF;CA;37.7749295;-122.4194155
845;Par Pacific Holdings;974;2443;31;72,6;0;1347;784;905;William C. Pate;President, Chief Executive Officer &  Director;Energy;Petroleum Refining;0;Houston;TX;29.7604267;-95.3698028
846;Parexel International;824;2442;0,6;107,3;-30,7;2313;0;189;Jamie Macdonald;Chief Executive Officer;Health Care;Health Care: Pharmacy and Other Services;0;Waltham;MA;42.3764852;-71.2356113
847;RH;902;244;14,3;2,2;-59,6;1733;205;475;Gary G. Friedman;Chairman &  Chief Executive Officer;Retailing;Specialty Retailers: Other;0;Corte Madera;CA;37.9254806;-122.5274755
848;Nexstar Media Group;;2432;120,4;475;418,9;7482;3066;8737;Perry A. Sook;Chairman, President &  Chief Executive Officer;Media;Entertainment;0;Irving;TX;32.8140177;-96.9488945
849;Knight-Swift Transportation Holdings;586;2426;116,9;484,3;416;7683;8199;253;David A. Jackson;President, Chief Executive Officer &  Director;Transportation;Trucking, Truck Leasing;0;Phoenix;AZ;33.4483771;-112.0740373
850;Red Hat;920;2412;17,5;253,7;27,3;4535;26464;105;James M. Whitehurst;President, Chief Executive Officer &  Director;Technology;Computer Software;0;Raleigh;NC;35.7795897;-78.6381787
851;Belden;846;2389;1,4;93,2;-27,2;3841;2891;88;John S. Stroup;Chairman, President &  Chief Executive Officer;Industrials;Electronics, Electrical Equip.;0;St. Louis;MO;38.6270025;-90.1994042
852;Boyd Gaming;894;2384;9,1;189,2;-54,7;4686;3589;19707;Keith E. Smith;President, Chief Executive Officer &  Director;Hotels, Restaurants &  Leisure;Hotels, Casinos, Resorts;0;Las Vegas;NV;36.1699412;-115.1398296
853;Primoris Services;938;238;19,2;72,4;170,8;1256;1287;7102;David L. King;President, Chief Executive Officer &  Director;Engineering &  Construction;Engineering, Construction;0;Dallas;TX;32.7766642;-96.7969879
854;Gardner Denver;;2375;22,5;18,4;0;4621;6051;64;Vicente Reynal;Chairman &  Chief Executive Officer;Industrials;Industrial Machinery;0;Milwaukee;WI;43.0389025;-87.9064736
855;Donaldson;882;2372;6,8;232,8;22;198;5851;132;Tod E. Carpenter;Chairman, President &  Chief Executive Officer;Industrials;Industrial Machinery;0;Minneapolis;MN;44.977753;-93.2650108
856;Party City Holdco;866;2372;3,9;215,3;83,3;3455;1504;146;James M. Harrison;Chairman &  Chief Executive Officer;Retailing;Specialty Retailers: Other;0;Elmsford;NY;41.0550969;-73.8201337
857;J.Crew Group;826;237;-2,3;-125;0;1201;0;895;James W. Brett;Chairman &  Chief Executive Officer;Retailing;Specialty Retailers: Apparel;0;New York;NY;40.7127753;-74.0059728
858;EnerSys;861;2367;2,2;160,2;17,7;2293;2907;94;David M. Shaffer;President, Chief Executive Officer &  Director;Industrials;Electronics, Electrical Equip.;0;Reading;PA;40.3356483;-75.9268747
859;Guess;887;2364;7,9;-7,9;-134,7;1656;1667;147;Victor Herrero;Chairman &  Chief Executive Officer;Retailing;Specialty Retailers: Apparel;0;Los Angeles;CA;34.0522342;-118.2436849
860;Patterson-UTI Energy;;2357;157,3;5,9;0;5759;3892;8;William A. Hendricks Jr.;President, Chief Executive Officer &  Director;Energy;Oil and Gas Equipment, Services;0;Houston;TX;29.7604267;-95.3698028
861;WGL Holdings;848;2355;0,2;192,6;14,9;6626;4296;1586;Terry D. McCallister;Chairman &  Chief Executive Officer;Energy;Energy;0;Leavenworth;WA;47.7510741;-120.7401385
862;Wolverine World Wide;812;235;-5,8;0,3;-99,7;2399;2753;37;Blake W. Krueger;Chairman, President &  Chief Executive Officer;Apparel;Apparel;0;Rockford;MI;43.1200272;-85.5600316
863;Xilinx;885;2349;6,1;622,5;13;4741;18408;3831;Victor Peng;President, Chief Executive Officer &  Director;Technology;Semiconductors and Other Electronic Components;0;San Jose;CA;37.3382082;-121.8863286
864;Vornado Realty Trust;809;2345;-6,6;227,4;-74,9;17398;12786;3989;Steven Roth;Chairman &  Chief Executive Officer;Financials;Real estate;0;New York;NY;40.7127753;-74.0059728
865;Middleby;873;2336;3;298,1;4,9;334;6896;8493;Selim A. Bassoul;Chairman, President &  Chief Executive Officer;Industrials;Industrial Machinery;0;Elgin;IL;42.0354084;-88.2825668
866;MPM Holdings;879;2331;4,4;0;0;2717;1282;52;John G. Boss;President, Chief Executive Officer &  Director;Chemicals;Chemicals;0;Waterford;NY;42.7925777;-73.6812293
867;Cleveland-Cliffs;907;2330,2;10,5;367;110,8;2953,4;2067;2938;Lourenco C. Goncalves;Chairman, President &  Chief Executive Officer;Energy;Mining, Crude-Oil Production;0;Cleveland;OH;41.49932;-81.6943605
868;GGP;849;2328;-0,8;657,3;-49;2335;19581;17;Sandeep Mathrani;Chairman &  Chief Executive Officer;Financials;Real estate;0;Chicago;IL;41.8781136;-87.6297982
869;Cypress Semiconductor;959;2328;21;-80,9;0;3537;6021;6099;Hassane El-Khoury;President, Chief Executive Officer &  Director;Technology;Semiconductors and Other Electronic Components;0;San Jose;CA;37.3382082;-121.8863286
870;Arch Coal;946;2325;17,7;238,5;0;198;1913;379;John W. Eaves;Chairman &  Chief Executive Officer;Energy;Mining, Crude-Oil Production;0;St. Louis;MO;38.6270025;-90.1994042
871;GMS;976;2319;24,8;48,9;289,1;1393;1254;4464;G. Michael Callahan Jr.;President, Chief Executive Officer &  Director;Wholesalers;Wholesalers: Diversified;0;Tucker;GA;33.8545479;-84.2171424
872;Waters;899;2309;6,5;20,3;-96,1;534;15553;7;Christopher J. O'Connell;Chairman &  Chief Executive Officer;Technology;Scientific,Photographic and  Control Equipment;0;Milford;MA;42.1398577;-71.5163049
873;H.B. Fuller;913;2306;10,1;58,2;-53,1;4361;2513;5965;James J. Owens;President, Chief Executive Officer &  Director;Chemicals;Chemicals;0;St Paul;MN;44.9537029;-93.0899578
874;Affiliated Managers Group;892;2305;5;689,5;45,8;8702;10331;44;Nathaniel Dalton;Chairman &  Chief Executive Officer;Financials;Securities;0;West Palm Beach;FL;26.7153424;-80.0533746
875;PerkinElmer;875;2301;1,8;292,6;24,9;6092;8367;11;Robert F. Friel;Chairman, President &  Chief Executive Officer;Technology;Scientific,Photographic and  Control Equipment;0;Waltham;MA;42.3764852;-71.2356113
876;Edgewell Personal Care;845;2298;-2,7;5,7;-96,8;4189;2636;6;David P. Hatfield;Chairman, President &  Chief Executive Officer;Household Products;Household and Personal Products;0;Chesterfield;MO;38.6631083;-90.5770675
877;Maxim Integrated Products;891;2296;4,6;571,6;151,3;457;16935;704;Tun? Doluca;President, Chief Executive Officer &  Director;Technology;Semiconductors and Other Electronic Components;0;San Jose;CA;37.3382082;-121.8863286
878;Knights of Columbus;880;229;2,8;108,1;21,9;24954;0;926;Carl A. Anderson;Chairman &  Chief Executive Officer;Financials;Insurance: Life, Health (Mutual);0;New Haven;CT;41.308274;-72.9278835
879;IDEX;906;2287;8,2;337,3;24,4;34;10916;7167;Andrew K. Silvernail;Chairman, President &  Chief Executive Officer;Industrials;Industrial Machinery;0;Lake Forest;IL;42.2586342;-87.840625
880;DST Systems;847;2284;-3;451,5;5,7;2938;4962;142;William C. Stone;CEO-SS& C Technologies Holdings;Business Services;Financial Data Services;0;KCMO;MO;39.0997265;-94.5785667
881;Chicos FAS;814;2282;-7,8;101;10,7;1088;1152;1235;Shelley G. Broader;President, Chief Executive Officer &  Director;Retailing;Specialty Retailers: Apparel;0;Fort Myers;FL;26.640628;-81.8723084
882;Nu Skin Enterprises;888;2279;3,2;129,4;-9,5;159;3888;487;Ritch N. Wood;Chairman &  Chief Executive Officer;Household Products;Household and Personal Products;0;Provo;UT;40.2338438;-111.6585337
883;Herman Miller;874;2278;0,6;123,9;-9,4;1306;1907;7478;Brian C. Walker;President, Chief Executive Officer &  Director;Household Products;Home Equipment, Furnishings;0;Zeeland;MI;42.8125246;-86.018651
884;NLV Financial;943;2275;14,4;259,9;66,6;30209;0;1065;Mehran Assadi;President, Chief Executive Officer &  Director;Financials;Insurance: Life, Health (stock);0;Montpelier;VT;44.2600593;-72.5753869
885;Curtiss-Wright;908;2271;7,7;214,9;14,7;3236;5976;86;David C. Adams;Chairman &  Chief Executive Officer;Aerospace &  Defense;Aerospace and Defense;0;Charlotte;NC;35.2270869;-80.8431267
886;New Jersey Resources;970;2269;20,6;132,1;0,3;3929;3513;1052;Laurence M. Downes;Chairman, President &  Chief Executive Officer;Energy;Energy;0;Wall Township;NJ;40.1606666;-74.0679753
887;REV Group;957;2268;17,7;31,4;3,9;1254;1341;78;Timothy W. Sullivan;President, Chief Executive Officer &  Director;Motor Vehicles &  Parts;Motor Vehicles and Parts;0;Milwaukee;WI;43.0389025;-87.9064736
888;Mueller Industries;919;2266;10,2;85,6;-14,2;132;1505;4125;Gregory L. Christopher;Chairman &  Chief Executive Officer;Industrials;Industrial Machinery;0;Memphis;TN;35.1495343;-90.0489801
889;GEO Group;895;2263;3,9;146,2;-1,7;4227;2531;18512;George C. Zoley;Chairman &  Chief Executive Officer;Business Services;Miscellaneous;0;Boca Raton;FL;26.3683064;-80.1289321
890;Allison Transmission Holdings;984;2262;22,9;504;134,5;4205;5404;27;David S. Graziosi;Chairman &  Chief Executive Officer;Motor Vehicles &  Parts;Motor Vehicles and Parts;0;Indianapolis;IN;39.768403;-86.158068
891;OGE Energy;876;2261;0,1;619;83;10413;6544;2413;Sean R. Trauschke;Chairman, President &  Chief Executive Officer;Energy;Utilities: Gas and Electric;0;Oklahoma City;OK;35.4675602;-97.5164276
892;Cheesecake Factory;867;2261;-0,7;157,4;12,8;1333;2213;391;David M. Overton;Chairman &  Chief Executive Officer;Hotels, Restaurants &  Leisure;Food Services;0;Calabasas;CA;34.1372953;-118.6541895
893;PRA Health Sciences;;2259;24,7;86,9;27,5;3358;5292;158;Colin Shannon;Chairman, President &  Chief Executive Officer;Technology;Scientific,Photographic and  Control Equipment;0;Raleigh;NC;35.7795897;-78.6381787
894;Tupperware Brands;886;2255,8;1,9;-265,4;-218,7;1388;2473;12000;Patricia A. Stitzel;President, Chief Executive Officer &  Director;Household Products;Household and Personal Products;0;Orlando;FL;28.5383355;-81.3792365
895;Euronet Worldwide;950;2252;15;156,8;-10,1;314;4058;66;Michael J. Brown;Chairman, President &  Chief Executive Officer;Business Services;Financial Data Services;0;Leawood;KS;38.966673;-94.6169012
896;FLEETCOR Technologies;988;225;22,8;740,2;63,6;11318;18186;789;Ronald F. Clarke;Chairman &  Chief Executive Officer;Business Services;Financial Data Services;0;Norcross;GA;33.969864;-84.2212938
897;Nationstar Mortgage Holdings;852;2247;-4;30;57,9;18036;1755;76;Jay Bray;Chairman, President &  Chief Executive Officer;Financials;Diversified Financials;0;Coppell;TX;32.9545687;-97.0150078
898;GoDaddy;980;2232;20,8;136,4;0;5738;10315;599;Scott W. Wagner;Chief Executive Officer;Technology;Internet Services and Retailing;0;Scottsdale;AZ;33.4941704;-111.9260519
899;Blackhawk Network Holdings;966;2232;17,5;-155,8;-3444,1;414;2529;319;Talbott Roche;President, Chief Executive Officer &  Director;Business Services;Financial Data Services;0;Pleasanton;CA;37.6624312;-121.8746789
900;Cboe Global Markets;;2229;217;401,7;115;5266;1286;889;Edward T. Tilly;Chairman &  Chief Executive Officer;Financials;Securities;0;Chicago;IL;41.8781136;-87.6297982
901;Snyders-Lance;862;2227;-3,8;148,5;897,6;3618;0;59;Carlos Abrams-Rivera;President-Campbell Snacks;Food, Beverages &  Tobacco;Food Consumer Products;0;Charlotte;NC;35.2270869;-80.8431267
902;Murphy Oil;972;2226;18,8;-311,8;0;9861;4471;1128;Roger W. Jenkins;President, Chief Executive Officer &  Director;Energy;Mining, Crude-Oil Production;0;El Dorado;AR;33.20763;-92.6662674
903;CDK Global;905;222;5;295,6;23,5;2883;8523;89;Brian P. MacDonald;President, Chief Executive Officer &  Director;Technology;Computer Software;0;Hoffman Estates;IL;42.0629915;-88.1227199
904;Texas Roadhouse;942;222;11,5;131,5;13,8;1331;4123;29524;W. Kent Taylor;Chairman &  Chief Executive Officer;Hotels, Restaurants &  Leisure;Food Services;0;Louisville;KY;38.2526647;-85.7584557
905;Kirby;;2214;25,1;313,2;121,5;5127;4592;5775;David W. Grzebinski;President, Chief Executive Officer &  Director;Transportation;Shipping;0;Houston;TX;29.7604267;-95.3698028
906;Square;;2214;29,6;-62,8;0;2187;19501;2338;Jack Dorsey;Chairman, President &  Chief Executive Officer;Business Services;Financial Data Services;0;SF;CA;37.7749295;-122.4194155
907;Genesee & Wyoming;937;2208;10,3;549,1;289;8035;4435;8;John C. Hellmann;Chairman, President &  Chief Executive Officer;Transportation;Railroads;0;Darien;CT;41.0771914;-73.4686858
908;Zayo Group Holdings;;22;27,8;85,7;0;8739;8474;3794;Daniel P. Caruso;Chairman &  Chief Executive Officer;Telecommunications;Telecommunications;0;Boulder;CO;40.0149856;-105.2705456
909;NewMarket;921;2198;7,3;190,5;-21,7;1712;4731;2223;Thomas E. Gottwald;Chairman, President &  Chief Executive Officer;Chemicals;Chemicals;0;Richmond;VA;37.5407246;-77.4360481
910;99 Cents Only Stores;929;2194;6,4;-90,3;0;1537;0;172;Jack L. Sinclair;Chief Executive Officer;Retailing;Specialty Retailers: Other;0;Commerce;CA;34.0005691;-118.1597929
911;PCM;877;2193;-2,5;3,1;-82,4;740;98;4118;Frank F. Khulusi;Chairman &  Chief Executive Officer;Wholesalers;Wholesalers: Electronics and Office Equipment;0;El Segundo;CA;33.9191799;-118.4164652
912;Federated Mutual Insurance;918;2181;5,8;217,6;-4,9;763;0;2388;Jeffrey E. Fetters;Chairman &  Chief Executive Officer;Financials;Insurance: Property and Casualty (Mutual);0;Owatonna;MN;44.0855572;-93.2259349
913;HNI;890;2176;-1,3;89,8;4,9;1392;1568;935;Stanley A. Askren;Chairman, President &  Chief Executive Officer;Household Products;Home Equipment, Furnishings;0;Muscatine;IA;41.424473;-91.0432051
914;Hospitality Properties Trust;922;2172;6,1;215,1;-3,6;715;4165;450;John G. Murray;President, Chief Executive Officer &  Director;Financials;Real estate;0;Newton;MA;42.3370413;-71.2092214
915;Greenbrier Cos.;777;2169;-19;116,1;-36,6;2398;1442;11917;William A. Furman;Chairman, President &  Chief Executive Officer;Transportation;Transportation Equipment;0;Lake Oswego;OR;45.4156817;-122.7159726
916;Bio-Rad Laboratories;917;216;4,4;122,2;370,2;4273;7443;815;Norman A. Schwartz;Chairman, President &  Chief Executive Officer;Health Care;Scientific,Photographic and  Control Equipment;0;Hercules;CA;38.0171441;-122.2885808
917;AvalonBay Communities;923;2159;5,5;876,9;-15,2;18415;22711;3123;Timothy J. Naughton;Chairman, President &  Chief Executive Officer;Financials;Real estate;0;Arlington;VA;38.8816208;-77.0909809
918;Renewable Energy Group;924;2158;5,7;-79,1;-278,4;10056;497;853;Randolph L. Howard;President, Chief Executive Officer &  Director;Energy;Energy;0;Ames;IA;42.0307812;-93.6319131
919;Atlas Air Worldwide Holdings;985;2157;17,2;223,5;438,3;4956;1538;287;William J. Flynn;President, Chief Executive Officer &  Director;Transportation;Transportation and Logistics;0;Harrison;NY;41.0400135;-73.7144477
920;Teradata;859;2156;-7,1;-67;-153,6;2556;4797;10615;Victor L. Lund;President, Chief Executive Officer &  Director;Technology;Information Technology Services;0;Dayton;OH;39.7589478;-84.1916069
921;LCI Industries;;2148;27,9;132,9;2,5;946;2603;9852;Jason D. Lippert;Chairman &  Chief Executive Officer;Motor Vehicles &  Parts;Motor Vehicles and Parts;0;Elkhart;IN;41.6819935;-85.9766671
922;Teleflex;973;2146;14,9;152,5;-35,7;6182;11806;144;Liam J. Kelly;President, Chief Executive Officer &  Director;Health Care;Medical Products and Equipment;0;Wayne;PA;40.0415996;-75.3698895
923;Verisk Analytics;909;2145;1,8;555,1;-6,1;602;17162;7192;Scott G. Stephenson;Chairman, President &  Chief Executive Officer;Business Services;Financial Data Services;0;Jersey City;NJ;40.7281575;-74.0776417
924;Popular;955;2145;11;107,7;-50,3;44277;4253;7784;Ignacio Alvarez;President, Chief Executive Officer &  Director;Financials;Commercial Banks;0;Hato Rey;Puerto Rico;18.4225782;-66.0509549
925;Workday;;2143;36,6;-321,2;0;4947;26947;82;Aneel Bhusri;Chief Executive Officer &  Director;Technology;Computer Software;0;Pleasanton;CA;37.6624312;-121.8746789
926;Cooper Cos.;948;2139;8,8;372,9;36,1;4859;11217;118;Albert G. White III;President, Chief Executive Officer &  Director;Health Care;Medical Products and Equipment;0;Pleasanton;CA;37.6624312;-121.8746789
927;Express;893;2138;-2,5;19,4;-66,3;1188;564;9576;David G. Kornberg;President, Chief Executive Officer &  Director;Retailing;Specialty Retailers: Apparel;0;Columbus;OH;39.9611755;-82.9987942
928;Teradyne;;2137;21,9;257,7;0;311;8901;45;Mark E. Jagiela;President, Chief Executive Officer &  Director;Technology;Semiconductors and Other Electronic Components;0;North Reading;MA;42.5750939;-71.0786653
929;Werner Enterprises;934;2117;5,4;202,9;156,4;1808;2645;12154;Derek J. Leathers;President, Chief Executive Officer &  Director;Transportation;Trucking, Truck Leasing;0;Omaha;NE;41.2565369;-95.9345034
930;Oaktree Capital Group;;21;38,3;231,5;18,9;9015;6188;930;Jay S. Wintrob;Chairman &  Chief Executive Officer;Financials;Securities;0;Los Angeles;CA;34.0522342;-118.2436849
931;Woodward;931;2099;3,7;200,5;10,9;2757;4391;6829;Thomas A. Gendron;Chairman, President &  Chief Executive Officer;Aerospace &  Defense;Aerospace and Defense;0;Fort Collins;CO;40.5852602;-105.084423
932;F5 Networks;940;209;4,8;420,8;15;2481;8943;4366;Fran?ois Locoh-Donou;President, Chief Executive Officer &  Director;Technology;Network and Other Communications Equipment;0;Seattle;WA;47.6062095;-122.3320708
933;Valvoline;;2084;8;304;11,4;1915;4428;56;Samuel J. Mitchell Jr.;Chairman &  Chief Executive Officer;Chemicals;Chemicals;0;Lexington;KY;38.0405837;-84.5037164
934;Roadrunner Transportation Systems;947;2082;2,4;-106,7;0;863;98;4645;Curtis W. Stoelting;Chief Executive Officer &  Director;Transportation;Trucking, Truck Leasing;0;Downers Grove;IL;41.8089191;-88.0111746
935;SemGroup;;2082;56,3;-17,2;-918,6;5377;1692;122;Carlin G. Conner;President, Chief Executive Officer &  Director;Energy;Pipelines;0;Tulsa;OK;36.1539816;-95.992775
936;Catalent;979;2075;12,3;109,8;-1,5;3454;5474;108;John R. Chiminski;Chairman, President &  Chief Executive Officer;Health Care;Pharmaceuticals;0;Franklin Township;NJ;40.497604;-74.4884868
937;Quorum Health;;2072;0;-114,2;0;1829;247;1125;Robert H. Fish;President, Chief Executive Officer &  Director;Health Care;Health Care: Medical Facilities;0;Brentwood;TN;36.0331164;-86.7827772
938;Universal;904;2071;-2,3;106,3;-2,5;2123;1215;24;George C. Freeman III;Chairman, President &  Chief Executive Officer;Food, Beverages &  Tobacco;Tobacco;0;Richmond;VA;37.5407246;-77.4360481
939;Nordson;996;2067;14,3;295,8;8,8;3415;7904;7532;Michael F. Hilton;President, Chief Executive Officer &  Director;Industrials;Industrial Machinery;0;Westlake;OH;41.4553232;-81.9179173
940;ResMed;986;2067;12,4;342,3;-2,9;3469;14074;608;Michael J. Farrell;Chief Executive Officer &  Director;Health Care;Medical Products and Equipment;0;San Diego;CA;32.715738;-117.1610838
941;Tower International;927;2066;1,6;47,6;23,4;126;570;76;James C. Gouin;Chief Executive Officer &  Director;Motor Vehicles &  Parts;Motor Vehicles and Parts;0;Livonia;MI;42.36837;-83.3527097
942;Freds;903;2064;-2,9;-140,3;0;655;114;7324;Joseph M. Anto;Interim Chief Executive Officer &  Director;Food &  Drug Stores;Food and Drug Stores;0;Memphis;TN;35.1495343;-90.0489801
943;Foundation Building Materials;;2061;48;82,5;0;1354;639;3782;Ruben D. Mendoza;President, Chief Executive Officer &  Director;Wholesalers;Wholesalers: Diversified;0;Tustin;CA;33.7420005;-117.8236391
944;Kennametal;912;2058;-1,9;49,1;0;2416;3276;10744;Christopher Rossi;President, Chief Executive Officer &  Director;Industrials;Industrial Machinery;0;Pittsburgh;PA;40.4406248;-79.9958864
945;Autodesk;928;2057;1,3;-566,9;0;4114;27418;88;Andrew Anagnost;President, Chief Executive Officer &  Director;Technology;Computer Software;0;San Rafael;CA;37.9735346;-122.5310874
946;Ply Gem Holdings;961;2056;7,6;68,3;-9,5;132;1481;9471;Gary E. Robinette;Chairman, President &  Chief Executive Officer;Materials;Building Materials, Glass;0;Cary;NC;35.79154;-78.7811169
947;Central Garden & Pet;989;2055;12,3;78,8;77,1;1307;2099;405;George C. Roeth;President, Chief Executive Officer &  Director;Household Products;Household and Personal Products;0;Walnut Creek;CA;37.9100783;-122.0651819
948;Matson;954;2047;5,4;232;188,2;2248;1222;1947;Matthew J. Cox;Chairman &  Chief Executive Officer;Transportation;Shipping;0;Honolulu;HI;21.3069444;-157.8583333
949;EchoStar;719;2039;-33,3;392,6;118,2;875;5061;21;Michael T. Dugan;President, Chief Executive Officer &  Director;Technology;Network and Other Communications Equipment;0;Englewood;CO;39.6477653;-104.9877597
950;Genesis Energy;;2028;18,4;82,6;-27;7138;2416;21;Grant E. Sims;Chairman &  Chief Executive Officer;Energy;Pipelines;0;Houston;TX;29.7604267;-95.3698028
951;SVB Financial Group;;2022;22,6;490,5;28,2;51215;12694;2438;Gregory W. Becker;President, Chief Executive Officer &  Director;Financials;Commercial Banks;0;Santa Clara;CA;37.3541079;-121.9552356
952;Itron;933;2018;0,2;57,3;80,4;2106;2799;715;Philip C. Mezey;President, Chief Executive Officer &  Director;Industrials;Electronics, Electrical Equip.;0;Liberty Lake;WA;47.6743428;-117.1124241
953;Portland General Electric;960;2009;4,5;187;-3,1;7838;3614;2906;Maria M. Pope;President, Chief Executive Officer &  Director;Energy;Utilities: Gas and Electric;0;Portland;OR;45.5122308;-122.6587185
954;California Resources;;2006;29,7;-266;-195,3;6207;778;145;Todd A. Stevens;President, Chief Executive Officer &  Director;Energy;Mining, Crude-Oil Production;0;Los Angeles;CA;34.0522342;-118.2436849
955;Esterline Technologies;932;2005;-0,5;111,6;13,9;312;2174;13255;Curtis C. Reusser;Chairman, President &  Chief Executive Officer;Aerospace &  Defense;Aerospace and Defense;0;Bellevue;WA;47.6101497;-122.2015159
956;Delta Tucker Holdings;987;2004;9,2;30,6;0;736;0;88;George Krivo;Chairman &  Chief Executive Officer;Aerospace &  Defense;Aerospace and Defense;0;McLean;VA;38.9338676;-77.1772604
957;AMN Healthcare Services;964;1989;4,5;132,6;25,2;1254;2714;298;Susan R. Salka;President, Chief Executive Officer &  Director;Health Care;Health Care: Pharmacy and Other Services;0;San Diego;CA;32.715738;-117.1610838
958;Griffon;951;1986;1,5;14,9;-50,3;1874;866;47;Ronald J. Kramer;Chairman &  Chief Executive Officer;Materials;Building Materials, Glass;0;New York;NY;40.7127753;-74.0059728
959;Valhi;;198;23,3;207,5;0;2908;2055;279;Robert D. Graham;Vice Chairman, President &  Chief Executive Officer;Chemicals;Chemicals;0;Dallas;TX;32.7766642;-96.7969879
960;Hexcel;936;1973;-1,5;284;13,7;2781;5791;6259;Nick L. Stanage;Chairman, President &  Chief Executive Officer;Aerospace &  Defense;Aerospace and Defense;0;Stamford;CT;41.0534302;-73.5387341
961;IDEXX Laboratories;;1969;10,9;263,1;18,5;1713;16663;76;Jonathan W. Ayers;Chairman, President &  Chief Executive Officer;Health Care;Medical Products and Equipment;0;Westbrook;ME;43.6770252;-70.3711617
962;Deluxe;978;1966;6,3;230,2;0,3;2209;3539;5886;Lee J. Schram;Chairman &  Chief Executive Officer;Media;Publishing, Printing;0;Shoreview;MN;45.0791325;-93.1471667
963;M/I Homes;-;1962;16;72,1;27,3;1864,8;888;1238;Robert H. Schottenstein;Chairman, President &  Chief Executive Officer;Engineering &  Construction;Homebuilders;0;Columbus;OH;39.9611755;-82.9987942
964;Kraton;;196;12,4;97,5;-9,1;2933;1512;1931;Kevin M. Fogarty;President, Chief Executive Officer &  Director;Chemicals;Chemicals;0;Houston;TX;29.7604267;-95.3698028
965;Stewart Information Services;935;1956;-2,5;48,7;-12,3;1406;1042;596;Matthew W. Morris;Chairman &  Chief Executive Officer;Financials;Insurance: Property and Casualty (Stock);0;Houston;TX;29.7604267;-95.3698028
966;Marriott Vacations Worldwide;994;1952;7,8;226,8;65,1;2906;3535;11;Stephen P. Weisz;President, Chief Executive Officer &  Director;Hotels, Restaurants &  Leisure;Hotels, Casinos, Resorts;0;Orlando;FL;28.5383355;-81.3792365
967;SPX FLOW;939;1952;-2,2;46,4;0;2689;2091;7;Marcus G. Michael;President, Chief Executive Officer &  Director;Industrials;Industrial Machinery;0;Charlotte;NC;35.2270869;-80.8431267
968;ACCO Brands;;1949;25,2;131,7;37,9;2799;1353;662;Boris Y. Elisman;Chairman, President &  Chief Executive Officer;Household Products;Home Equipment, Furnishings;0;Lake Zurich;IL;42.1969689;-88.0934108
969;Echo Global Logistics;;1943;13,2;12,6;694,1;838;774;2453;Douglas R. Waggoner;Chairman &  Chief Executive Officer;Transportation;Transportation and Logistics;0;Chicago;IL;41.8781136;-87.6297982
970;Cadence Design Systems;992;1943;7;204,1;0,5;2419;10415;7214;Lip-Bu Tan;Chairman &  Chief Executive Officer;Technology;Computer Software;0;San Jose;CA;37.3382082;-121.8863286
971;Nuance Communications;953;1939;-0,5;-151;0;5932;4626;116;Mark D. Benjamin;Chairman &  Chief Executive Officer;Technology;Computer Software;0;Burlington;MA;42.5047161;-71.1956205
972;Finish Line;968;1934;2,4;-18,2;-183,2;747;559;82;Samuel M. Sato;Chairman &  Chief Executive Officer;Retailing;Specialty Retailers: Apparel;0;Indianapolis;IN;39.768403;-86.158068
973;TransUnion;;1934;13,4;441,2;265,8;5119;10441;51;James M. Peck;President, Chief Executive Officer &  Director;Business Services;Financial Data Services;0;Chicago;IL;41.8781136;-87.6297982
974;ServiceNow;;1933;39;-149,1;0;3398;28904;6222;John J. Donahoe;President, Chief Executive Officer &  Director;Technology;Computer Software;0;Santa Clara;CA;37.3541079;-121.9552356
975;Summit Materials;;1933;18,8;121,8;231,2;3787;3342;6;Thomas W. Hill;President, Chief Executive Officer &  Director;Materials;Building Materials, Glass;0;Denver;CO;39.7392358;-104.990251
976;Engility Holdings;915;1932;-7;-35,2;0;2026;899;87;Lynn A. Dugle;Chairman, President &  Chief Executive Officer;Aerospace &  Defense;Aerospace and Defense;0;Chantilly;VA;38.8942786;-77.4310992
977;Ferrellgas Partners;926;193;-5,3;-54,2;0;161;303;3891;James E. Ferrell;Chairman &  Interim Chief Executive Officer;Energy;Energy;0;Overland Park;KS;38.9822282;-94.6707917
978;Interactive Brokers Group;;1927;30,6;76;-9,5;61162;4806;1228;Thomas P. Peterffy;Chairman &  Chief Executive Officer;Financials;Securities;0;Greenwich;CT;41.0262417;-73.6281964
979;Stepan;;1925;9;91,6;6,3;1471;1875;2096;F. Quinn Stepan Jr.;Chairman, President &  Chief Executive Officer;Chemicals;Chemicals;0;Northfield;IL;42.09975;-87.7808967
980;Oceaneering International;871;1922;-15,4;166,4;576,8;3024;1827;82;Roderick A. Larson;President, Chief Executive Officer &  Director;Energy;Oil and Gas Equipment, Services;0;Houston;TX;29.7604267;-95.3698028
981;Cimarex Energy;;1918;52,6;494,3;0;5043;8924;910;Thomas E. Jorden;Chairman, President &  Chief Executive Officer;Energy;Mining, Crude-Oil Production;0;Denver;CO;39.7392358;-104.990251
982;Rexnord;958;1918;-0,3;74,1;9,1;3539;3086;8;Todd A. Adams;President, Chief Executive Officer &  Director;Industrials;Industrial Machinery;0;Milwaukee;WI;43.0389025;-87.9064736
983;Beazer Homes USA;990;1916;5,2;31,8;577,9;2221;536;11;Allan P. Merrill;President, Chief Executive Officer &  Director;Engineering &  Construction;Homebuilders;0;Atlanta;GA;33.7489954;-84.3879824
984;MKS Instruments;;1916;47,9;339,1;223,6;2414;6307;4923;Gerald G. Colella;President, Chief Executive Officer &  Director;Technology;Semiconductors and Other Electronic Components;0;Andover;MA;42.6583356;-71.1367953
985;Vail Resorts;;1907;19,1;210,6;40,6;4111;8962;2015;Robert A. Katz;Chairman &  Chief Executive Officer;Hotels, Restaurants &  Leisure;Hotels, Casinos, Resorts;0;Broomfield;CO;39.9205411;-105.0866504
986;Ohio National Mutual;;1907;8,2;25,9;-91,1;41843;0;13;Gary T. Huffman;Chairman, President &  Chief Executive Officer;Financials;Insurance: Life, Health (stock);0;Cincinnati;OH;39.1031182;-84.5120196
987;TopBuild;;1906;9,4;158,1;117,8;175;2725;84;Gerald Volas;Chairman &  Chief Executive Officer;Engineering &  Construction;Engineering, Construction;0;Daytona Beach;FL;29.2108147;-81.0228331
988;Brown & Brown;;1881;6,5;399,6;55,2;5748;7025;8491;J. Powell Brown;President, Chief Executive Officer &  Director;Financials;Insurance: Property and Casualty (Stock);0;Daytona Beach;FL;29.2108147;-81.0228331
989;Aerojet Rocketdyne Holdings;;1877;6,6;-9,2;-151,1;2259;2113;5157;Eileen P. Drake;President, Chief Executive Officer &  Director;Aerospace &  Defense;Aerospace and Defense;0;El Segundo;CA;33.9191799;-118.4164652
990;Barnes & Noble Education;;1874;0;5,4;0;13;323;13375;Michael P. Huseby;Chairman &  Chief Executive Officer;Retailing;Specialty Retailers: Other;0;Bernards;NJ;40.7066174;-74.5493284
991;Superior Energy Services;;1874;29,2;-205,9;0;311;13;64;David D. Dunlap;President, Chief Executive Officer &  Director;Energy;Oil and Gas Equipment, Services;0;Houston;TX;29.7604267;-95.3698028
992;VeriFone Systems;941;1871;-6,1;-173,8;0;2322;1698;56;Paul S. Galant;Chairman &  Chief Executive Officer;Technology;Financial Data Services;0;San Jose;CA;37.3382082;-121.8863286
993;Childrens Place;;187;4,8;84,7;-17,2;940;233;98;Jane T. Elfers;President, Chief Executive Officer &  Director;Retailing;Specialty Retailers: Apparel;0;Secaucus;NJ;40.7895453;-74.0565298
994;Tribune Media;896;1867;-14,1;194,1;1262,6;8169;3544;6;Peter M. Kern;Interim Chief Executive Officer &  Director;Media;Entertainment;0;Chicago;IL;41.8781136;-87.6297982
995;Healthcare Services Group;;1866;19,4;88,2;14;676;3204;55;Theodore Wahl;President, Chief Executive Officer &  Director;Health Care;Health Care: Pharmacy and Other Services;0;Bensalem;PA;40.0994425;-74.9325683
996;SiteOne Landscape Supply;;1862;13;54,6;78,4;911;3084;3664;Doug Black;Chairman &  Chief Executive Officer;Wholesalers;Wholesalers: Diversified;0;Roswell;GA;34.0232431;-84.3615555
997;Charles River Laboratories Intl;;1858;10,5;123,4;-20,3;293;5118;118;James C. Foster;Chairman &  Chief Executive Officer;Health Care;Health Care: Pharmacy and Other Services;0;Wilmington;MA;42.5481714;-71.1724467
998;CoreLogic;952;1851;-5,2;152,2;42,8;4077;3694;59;Frank D. Martell;President, Chief Executive Officer &  Director;Business Services;Financial Data Services;0;Irvine;CA;33.6845673;-117.8265049
999;Ensign Group;;1849;11,8;40,5;-19;1102;1354;21301;Christopher R. Christensen;President, Chief Executive Officer &  Director;Health Care;Health Care: Medical Facilities;0;Mission Viejo;CA;33.5968913;-117.6581562
1000;HCP;798;1848;-27,2;414,2;-34;14089;1091;190;Thomas M. Herzog;President, Chief Executive Officer &  Director;Financials;Real estate;0;Irvine;CA;33.6845673;-117.8265049
